OBJECTID,NAME,NBR,STREETADDR,CITY,ZIP,TYPE,GCSCORE,GCMETHOD,DAFID,POINT_X,POINT_Y,x,y
2321,APPLE CREEK BULK FOOD CO,,875 N MAIN,WILLARD,84340,Grocery Store,90.9199981689453,AddressPoints.AddressGrid,R100050,413409.323908503,4586415.89824945,413409.3239,4586415.8982
2322,DOLLAR TREE,5036,643 W 700 N,LINDON,84042,Convenience Grocery,100,AddressPoints.AddressGrid,R100184,437785.544599147,4466987.67619725,437785.5446,4466987.6762
2323,379 SOUTH CORNER MARKET LLC,,379 S 300 W,SALT LAKE CITY,84101,Convenience Grocery,100,AddressPoints.AddressGrid,R100188,424090.271547312,4512611.22709764,424090.2715,4512611.2271
2324,MAKING SCENTS,,290 25TH ST STE 103,OGDEN,84401,Retail,100,AddressPoints.AddressGrid,R100214,418394.220000831,4563742.89494111,418394.22,4563742.8949
2325,GNC,1722,1268 S HIGHWAY 189,HEBER CITY,84032,Health Food,100,AddressPoints.AddressGrid,R100321,464709.379708717,4482620.26696149,464709.3797,4482620.267
2326,REJUVIUM CORPORATION,,11075 S STATE STE 33,SANDY,84070,Convenience Grocery,90.9199981689453,AddressPoints.AddressGrid,R100330,424599.994909525,4489176.11340157,424599.9949,4489176.1134
2327,TRADER JOE`S COMPANY,,634 E 400 S,SALT LAKE CITY,84101,Grocery Store,100,AddressPoints.AddressGrid,R100331,426321.436337749,4512467.84325585,426321.4363,4512467.8433
2328,WALGREENS,15289,4515 S 900 E,SALT LAKE CITY,84117,Convenience Grocery,100,Centerlines.StatewideRoads,R100360,426863.459736073,4502910.07668509,426863.4597,4502910.0767
2329,GREEN TEA COMPANY,,1076 LAYTON HILLS MALL,LAYTON,84041,Health Food,,Manually Placed,R100750,417888,4547908,417888,4547908
2330,CANYON MARKET,,95 ZION PARK BLVD,SPRINGDALE,84767,Grocery Store,100,AddressPoints.AddressGrid,R100815,323477.583343974,4118817.58523945,323477.5833,4118817.5852
2331,FAMILY DOLLAR INC,29401,50 N 900 W,SALT LAKE CITY,84116,Convenience Grocery,100,AddressPoints.AddressGrid,R100954,422663.686550315,4513684.14865809,422663.6866,4513684.1487
2332,WAL-MART STORE,5763,3590 W S JORDAN PKWY,SOUTH JORDAN,84095,Supermarket,100,AddressPoints.AddressGrid,R101090,417409.85004011,4490693.76990075,417409.85,4490693.7699
2333,DOLLAR TREE,5129,4716 S HIGHLAND DR,SALT LAKE CITY,84106,Convenience Grocery,100,AddressPoints.AddressGrid,R101265,428992.915796036,4502153.33955331,428992.9158,4502153.3396
2334,ALPINE FOOD STORAGE LLC,,11800 N 6000 W,HIGHLAND,84003,Retail,100,AddressPoints.AddressGrid,R101283,432020.905762971,4477569.43574199,432020.9058,4477569.4357
2335,FIDELGOMEZ,,2163 S RICHARD ST,SALT LAKE CITY,84115,Retail,98.5,AddressPoints.AddressGrid,R101815,424621.62291207,4508557.51849437,424621.6229,4508557.5185
2336,LAKE POWELL,,MARINA,HALLS CROSSING,84533,Convenience Grocery,,Manually Placed,R10187,524719,4147439,524719,4147439
2337,VILLAGE FOOD MART,,1238 W VILLAGE MAIN DR STE B,WEST VALLEY CITY,84119,Convenience Grocery,100,AddressPoints.AddressGrid,R102167,421665.206528068,4505760.84443493,421665.2065,4505760.8444
2338,PACIFIC FOOD INC,,3550 S 4800 W STE 0,WEST VALLEY CITY,84120,Grocery Store,100,AddressPoints.AddressGrid,R102313,414982.105014113,4505445.28582167,414982.105,4505445.2858
2339,CENTER OF HOPE FOOD PANTRY,,74 S ORCHARD DR,NORTH SALT LAKE,84054,Salvage Grocery,100,Centerlines.StatewideRoads,R102855,423461.290890918,4521476.28730822,423461.2909,4521476.2873
2340,QADERI SWEETZ N SPICEZ,,1785 S STATE ST,SALT LAKE CITY,84115,Specialty Grocery,100,AddressPoints.AddressGrid,R102961,425018.410093627,4509344.32671057,425018.4101,4509344.3267
2341,FAMILY DOLLAR INC,30148,1033 N MAIN ST,CEDAR CITY,84721,Convenience Grocery,100,AddressPoints.AddressGrid,R103073,318107.29531958,4173926.72419541,318107.2953,4173926.7242
2342,FAMILY DOLLAR INC,30055,391 E 300 N,MORGAN,84050,Convenience Grocery,100,AddressPoints.AddressGrid,R103074,443079.191391476,4543970.0557192,443079.1914,4543970.0557
2343,KIMS MARKET,,730 E 28TH ST,OGDEN,84403,Convenience Grocery,100,AddressPoints.AddressGrid,R10325,419406.406343327,4563002.45432227,419406.4063,4563002.4543
2344,IT`SUGAR,,930 W FORBUSH PL,FARMINGTON,84025,Retail,100,AddressPoints.AddressGrid,R103312,423681.04495779,4537344.23673919,423681.045,4537344.2367
2345,LAKEVIEW MARKET,,485 N BEAR LK BLVD,GARDEN CITY,84028,Supermarket,100,Centerlines.StatewideRoads,R103325,467119.460408591,4644873.90700546,467119.4604,4644873.907
2346,FAMILY DOLLAR INC,30687,535 N MAIN ST,PANGUITCH,84759,Convenience Grocery,100,AddressPoints.AddressGrid,R103476,373609.274538058,4188005.40527821,373609.2745,4188005.4053
2347,DREAM INN LLC,,1865 W NORTHTEMPLE,SALT LAKE CITY,84116,Convenience Grocery,89.879997253418,AddressPoints.AddressGrid,R103577,420319.446358093,4513791.52991566,420319.4464,4513791.5299
2348,REAL FOODS MARKET,,2209 S HIGHLAND DR,SALT LAKE CITY,84106,Health Food,100,AddressPoints.AddressGrid,R103677,427510.18291731,4508344.9695952,427510.1829,4508344.9696
2349,RIDLEYS FAMILY MARKETS,,5353 W 11000 N,HIGHLAND,84003,Supermarket,100,AddressPoints.AddressGrid,R103778,433274.766065034,4475883.72541678,433274.7661,4475883.7254
2350,ESCALANTE MERCANTILE &,,210 W MAIN ST,ESCALANTE,84726,Health Food,100,AddressPoints.AddressGrid,R103858,446763.434959948,4180529.31412989,446763.435,4180529.3141
2351,NAMASTE NANGLO GROCERIES,,741 E 3300 S,SALT LAKE CITY,84106,Specialty Grocery,100,AddressPoints.AddressGrid,R103860,426508.09010674,4505849.92507496,426508.0901,4505849.9251
2352,CVS/PHARMACY,10230,1273 N UNIVERSITY AVE,PROVO,84604,Convenience Grocery,100,AddressPoints.AddressGrid,R103949,443941.151173645,4455837.14960907,443941.1512,4455837.1496
2353,CVS/PHARMACY,10232,5305 S 1900 W,ROY,84067,Convenience Grocery,100,Centerlines.StatewideRoads,R103950,413911.939986615,4557831.47571933,413911.94,4557831.4757
2354,INDIA FOODS,,4852 S REDWOOD RD,TAYLORSVILLE,84118,Convenience Grocery,100,AddressPoints.AddressGrid,R104008,420562.533412129,4501846.77462505,420562.5334,4501846.7746
2355,FAMILY DOLLAR INC,30255,780 E MAIN ST,ENTERPRISE,84781,Convenience Grocery,100,Centerlines.StatewideRoads,R104124,278579.440078968,4140683.38477062,278579.4401,4140683.3848
2356,FAMILY DOLLAR INC,30829,420 N STATE ST,VERKIN,84745,Convenience Grocery,100,Centerlines.StatewideRoads,R104343,298386.931215775,4120513.43615794,298386.9312,4120513.4362
2357,REDSTONE OLIVE OIL,,250 REDCLIFF DR - 33B,ST GEORGE,84790,Health Food,88.4700012207031,AddressPoints.AddressGrid,R104366,273119.964100126,4110545.80356684,273119.9641,4110545.8036
2358,OCEAN CITY SEAFOOD MARKET,,872 S STATE,SALT LAKE CITY,84101,Supermarket,90.9199981689453,AddressPoints.AddressGrid,R104391,424993.712265165,4511418.02544191,424993.7123,4511418.0254
2359,CLIFFORD FAMILY FARM,,1461 N 2100 W,PROVO,84604,Grocery Store,100,AddressPoints.AddressGrid,R104409,440890.795332175,4456124.1957349,440890.7953,4456124.1957
2360,DAVES HEALTH & NUTRITION,,880 E 3900 S,SALT LAKE CITY,84107,Health Food,100,AddressPoints.AddressGrid,R104419,426748.281361272,4504295.9875493,426748.2814,4504295.9875
2361,MEIERS MEATS & FINE FOODS INC,,5521 W TIMPANOGOS HWY,HIGHLAND,84003,Supermarket,100,Centerlines.StatewideRoads,R104438,432936.840523887,4475980.30208371,432936.8405,4475980.3021
2362,SPROUTS FARMERS MARKET,,1785 E MURRAY RD,HOLLADAY,84117,Grocery Store,,Manually Placed,R104523,428936,4502134,428936,4502134
2363,WAL-MART,4100,2255 N UNIVERSITY PKWY,PROVO,84604,Supermarket,100,AddressPoints.AddressGrid,R104594,443039.673473725,4457166.56521838,443039.6735,4457166.5652
2364,WALGREENS,15623,5586 W 6200 S,KEARNS,84118,Convenience Grocery,100,Centerlines.StatewideRoads,R104616,413391.791649295,4499153.55704138,413391.7916,4499153.557
2365,EMERGENCY ESSENTIALS,,6274 S STATE ST,MURRAY,84107,Retail,100,AddressPoints.AddressGrid,R104672,424716.390735261,4498588.22750578,424716.3907,4498588.2275
2366,CVS/PHARMACY,10308,4968 W 13400 S,HERRIMAN,84096,Convenience Grocery,100,AddressPoints.AddressGrid,R104677,414470.996401657,4484676.97375392,414470.9964,4484676.9738
2367,CVS/PHARMACY,10187,11385 S 700 E,SANDY,84070,Convenience Grocery,100,AddressPoints.AddressGrid,R104678,426229.056156937,4488591.40553874,426229.0562,4488591.4055
2368,MI PUEBLITO LLC,,401 N ARIA BLVD,WENDOVER,84083,Grocery Store,100,AddressPoints.AddressGrid,R104684,243095.145385162,4514573.60461344,243095.1454,4514573.6046
2369,LA PALAPA MARKET,,654 W CTR,MIDVALE,84047,Specialty Grocery,90.9199981689453,AddressPoints.AddressGrid,R104741,423112.702538791,4495966.07409385,423112.7025,4495966.0741
2370,RIDLEY`S FAMILY MARKETS,,4045 E PONY EXPRESS PKWY,EAGLE MOUNTAIN,84005,Supermarket,100,AddressPoints.AddressGrid,R104749,417953.063045144,4468599.75942786,417953.063,4468599.7594
2371,PARS MARKET,,4233 HIGHLAND DR,SALT LAKE CITY,84124,Specialty Grocery,100,AddressPoints.AddressGrid,R104780,428797.226575708,4503527.3894569,428797.2266,4503527.3895
2372,ARABIC AND INDIAN MARKET,,390 S MAIN ST,CEDAR CITY,84720,Convenience Grocery,100,AddressPoints.AddressGrid,R104830,318116.90157755,4171276.9632334,318116.9016,4171276.9632
2373,WALGREENS,15290,1208 WASHINGTON BLVD,OGDEN,84404,Convenience Grocery,100,Centerlines.StatewideRoads,R104883,418742.321320167,4566309.55374911,418742.3213,4566309.5537
2374,FAMILY DOLLAR INC,30211,2750 S 8400 W,MAGNA,84044,Convenience Grocery,100,AddressPoints.AddressGrid,R104927,407680.882566128,4507180.34307641,407680.8826,4507180.3431
2375,GRUMPS GENERAL STORE,,510 W MAIN ST,HENEFER,84033,Convenience Grocery,92.4300003051758,AddressPoints.AddressGrid,R105031,457769.463937307,4541396.91510609,457769.4639,4541396.9151
2376,POWERFUL 99 CENT AND MORE,,2561 S STATE,SALT LAKE CITY,84106,Convenience Grocery,90.9199981689453,AddressPoints.AddressGrid,R105061,424997.930665404,4507493.8969054,424997.9307,4507493.8969
2377,SUPERIOR SMOKE SHOP INC,,1709 S 900 W,SALT LAKE CITY,84104,Convenience Grocery,100,AddressPoints.AddressGrid,R105102,422615.592610957,4509532.06640437,422615.5926,4509532.0664
2378,WAL-MART,4706,3555 S 8400 W,MAGNA,84044,Supermarket,100,AddressPoints.AddressGrid,R105105,407896.01401726,4505490.90858597,407896.014,4505490.9086
2379,ERNIES TOO CEDAR,,1155 W 200 N,CEDAR CITY,84720,Convenience Grocery,100,AddressPoints.AddressGrid,R105125,316748.921715227,4172409.45055433,316748.9217,4172409.4506
2380,CHEVRON LA PICO FOOD MART,,7198 W 3500 S,WEST VALLEY CITY,84128,Convenience Grocery,100,Centerlines.StatewideRoads,R105384,410189.13926503,4505623.64831497,410189.1393,4505623.6483
2381,RIDLEYS FAMILY MARKETS,,46 W MAIN ST,MIDWAY,84049,Grocery Store,100,Centerlines.StatewideRoads,R105467,459905.960079898,4484730.10431845,459905.9601,4484730.1043
2382,HARMONS,91,5370 S 1900 W,ROY,84067,Supermarket,100,AddressPoints.AddressGrid,R10548,414075.650158796,4557733.76987855,414075.6502,4557733.7699
2383,JASMINE FOOD AND MORE,,1615 W 2100 S,SALT LAKE CITY,84119,Specialty Grocery,100,AddressPoints.AddressGrid,R105514,420859.770524679,4508707.41788504,420859.7705,4508707.4179
2384,HARMONS,01,3955 W 3500 S,WEST VALLEY CITY,84120,Supermarket,100,AddressPoints.AddressGrid,R10559,416719.59167757,4505441.91667033,416719.5917,4505441.9167
2385,HARMONS,,1189 E 700 S,SAINT GEORGE,84790,Supermarket,100,AddressPoints.AddressGrid,R10567,272640.402995728,4108745.38199157,272640.403,4108745.382
2386,FAMILY DOLLAR INC,31000,22 S STATE ST,SALINA,84654,Convenience Grocery,100,AddressPoints.AddressGrid,R105684,425443.681918381,4312384.67180498,425443.6819,4312384.6718
2387,FAMILY DOLLAR INC,30437,50 E CTR ST,MONTICELLO,84535,Convenience Grocery,100,Centerlines.StatewideRoads,R105685,645826.094112499,4192964.25538479,645826.0941,4192964.2554
2388,FAST STOP,,1401 S MAIN,BEAVER,84713,Convenience Grocery,90.9199981689453,Centerlines.StatewideRoads,R105733,355980.113270836,4235383.48065382,355980.1133,4235383.4807
2389,HARMONS,,3270 S 1300 E,SALT LAKE CITY,84106,Supermarket,100,Centerlines.StatewideRoads,R10574,427835.88620005,4505837.52734998,427835.8862,4505837.5273
2390,ABDI BRO`S MARKET,,3505 S MAIN ST,SALT LAKE CITY,84115,Grocery Store,100,Centerlines.StatewideRoads,R105763,424725.105747563,4505296.87731972,424725.1057,4505296.8773
2391,NATURAL GROCERS,,1075 N MAIN STE 110,LOGAN,84321,Health Food,90.9199981689453,AddressPoints.AddressGrid,R105804,430500.53445175,4622540.89960706,430500.5345,4622540.8996
2392,BOOMERS DISCOUNT MARKETS,,855 S BLUFF ST,ST GEORGE,84770,Grocery Store,100,AddressPoints.AddressGrid,R105882,270269.376658094,4108297.65379855,270269.3767,4108297.6538
2393,FAMILY DOLLAR INC,30897,120 N MAIN ST,MONROE,84754,Convenience Grocery,100,AddressPoints.AddressGrid,R105893,402437.480679616,4276771.8232183,402437.4807,4276771.8232
2394,CHRISTIAN CENTER OF PARK CITY,,1283 DEER VALLEY DR,PARK CITY,84060,Salvage Grocery,100,AddressPoints.AddressGrid,R105983,457419.573393391,4500822.90762975,457419.5734,4500822.9076
2395,THEFRONTEIR CAFE & COUNTRY STORE ,,15 W 2200 S,FRANCIS,84036,Convenience Grocery,100,AddressPoints.AddressGrid,R106126,476230.707854545,4495534.19622648,476230.7079,4495534.1962
2396,JUNCTION MARKET X,,1593 ZION PARK BLVD,SPRINGDALE,84767,Convenience Grocery,100,AddressPoints.AddressGrid,R106172,321811.614574999,4116606.20377159,321811.6146,4116606.2038
2397,WAL-MART,4700,1707 W STATE ST,PLEASANT GROVE,84062,Supermarket,100,AddressPoints.AddressGrid,R106210,435025.945126626,4468826.12602418,435025.9451,4468826.126
2398,SPECIALTY MARKET,,842 E FORT UNION BLVD,MIDVALE,84047,Specialty Grocery,100,AddressPoints.AddressGrid,R106431,426590.864029581,4497115.97797814,426590.864,4497115.978
2399,SILVER PEAK SUPPLY,,21 E HWY 56,NEWCASTLE,84756,Convenience Grocery,100,Centerlines.StatewideRoads,R10667,275239.296619979,4172511.99410749,275239.2966,4172511.9941
2400,GNC,,5741 HARRISON BLVD SOUTH,OGDEN,84403,Health Food,92.4300003051758,Centerlines.StatewideRoads,R107141,421140.532740927,4556780.77674154,421140.5327,4556780.7767
2401,CVS/PHARMACY,10332,3148 W 3500 S,WEST VALLEY CITY,84119,Convenience Grocery,100,AddressPoints.AddressGrid,R107167,418334.584629796,4505580.84543595,418334.5846,4505580.8454
2402,ARS,642 EXXON MOBIL,1285 W 9000 S,WEST JORDAN,84088,Convenience Grocery,100,AddressPoints.AddressGrid,R107187,421403.275894086,4493379.43599219,421403.2759,4493379.436
2403,RESTAURANT DEPOT,,1145 S 700 W,SALT LAKE CITY,84104,Retail,100,AddressPoints.AddressGrid,R107237,423192.183881908,4510729.59783723,423192.1839,4510729.5978
2404,MARIAS MARKET 2 INC,,4984 S REDWOOD RD,TAYLORSVILLE,84118,Grocery Store,100,AddressPoints.AddressGrid,R107266,420591.526212452,4501526.63563662,420591.5262,4501526.6356
2405,DOLLAR TREE,5692,370 N MAIN ST,EPHRAIM,84627,Convenience Grocery,100,AddressPoints.AddressGrid,R107299,449495.656597255,4357645.25233628,449495.6566,4357645.2523
2406,DOLLAR TREE,5603,148 E UNIVERSITY PKWY,OREM,84058,Convenience Grocery,100,AddressPoints.AddressGrid,R107302,441219.371121088,4458132.53710677,441219.3711,4458132.5371
2407,ARS,640 EXXON MOBIL,4841 S REDWOOD RD,MURRAY,84123,Convenience Grocery,100,AddressPoints.AddressGrid,R107395,420678.435002854,4501947.918776,420678.435,4501947.9188
2408,ARS,636 EXXON MOBIL,2187 W 4700 S,TAYLORSVILLE,84118,Convenience Grocery,100,AddressPoints.AddressGrid,R107396,419870.694889764,4502227.19636278,419870.6949,4502227.1964
2409,ARS,641 EXXON MOBIL,3597 W 4700 S,TAYLORSVILLE,84118,Convenience Grocery,100,AddressPoints.AddressGrid,R107397,417450.6418312,4502278.24875115,417450.6418,4502278.2488
2410,ARS,637 EXXON MOBIL,3621 W 5400 S,KEARNS,84118,Convenience Grocery,100,AddressPoints.AddressGrid,R107399,417362.125036746,4500670.12636169,417362.125,4500670.1264
2411,LITTLE POLYNESIA MARKET & FOOD,,5419 W 3500 S - 2,WEST VALLEY CITY,84120,Grocery Store,90.9199981689453,Centerlines.StatewideRoads,R107401,413790.353895427,4508745.75031138,413790.3539,4508745.7503
2412,ARS,634 EXXON MOBIL,690 W 5300 S,MURRAY,84123,Convenience Grocery,100,Centerlines.StatewideRoads,R107402,423063.48843314,4500737.80976037,423063.4884,4500737.8098
2413,ARS,631 EXXON MOBIL,95 W 10600 S,SANDY,84070,Convenience Grocery,100,AddressPoints.AddressGrid,R107404,424366.360970215,4490119.00938766,424366.361,4490119.0094
2414,BIG LOTS,4649,1617 N MAIN ST LOGAN,NORTH LOGAN,84341,Convenience Grocery,90.9199981689453,AddressPoints.AddressGrid,R107450,430545.266200819,4623648.60556685,430545.2662,4623648.6056
2415,COSTCO WHOLESALE,1019,3571 W 10400 S,SOUTH JORDAN,84095,Grocery Store,100,Centerlines.StatewideRoads,R107467,417354.340328596,4490570.90048977,417354.3403,4490570.9005
2416,DOLLAR TREE,6518,2020 HARRISON BLVD,OGDEN,84401,Convenience Grocery,100,Centerlines.StatewideRoads,R107477,420565.265299352,4564763.15770192,420565.2653,4564763.1577
2417,JENNY CRAIG,503,834 E 9400 S,SANDY,84070,Retail,100,AddressPoints.AddressGrid,R107487,426500.105774934,4492478.81450222,426500.1058,4492478.8145
2418,WAVE/KANAB SINCLAIR,,212 W CTR ST,KANAB,84741,Convenience Grocery,100,Centerlines.StatewideRoads,R107559,363657.516204223,4101326.38921815,363657.5162,4101326.3892
2419,RITAS OF LOGAN,,25 W 300 N,LOGAN,84321,Specialty Grocery,100,AddressPoints.AddressGrid,R107679,430514.602746936,4620954.93426044,430514.6027,4620954.9343
2420,7-11,,220 N MAIN ST,MOAB,84532,Convenience Grocery,100,AddressPoints.AddressGrid,R107779,626273.997485513,4270800.00245751,626273.9975,4270800.0025
2421,7-11,,460 S HIGHWAY 94,THOMPSON,84540,Convenience Grocery,100,Centerlines.StatewideRoads,R107780,610808.445583557,4313694.98305105,610808.4456,4313694.9831
2422,7-11,,17 N MAIN ST,MONTICELLO,84535,Convenience Grocery,100,Centerlines.StatewideRoads,R107781,645729.612231127,4193006.73907673,645729.6122,4193006.7391
2423,7-11,,861 S MAIN ST,BLANDING,84511,Convenience Grocery,100,AddressPoints.AddressGrid,R107782,634244.226190544,4163925.21047628,634244.2262,4163925.2105
2424,7-11,,3956 S HWY 163,MEXICAN HAT,84531,Convenience Grocery,96.6699981689453,Centerlines.StatewideRoads,R107783,618934.282611698,4124868.43443334,618934.2826,4124868.4344
2425,CHINA TOWN SUPERMARKET,,3390 S STATE ST - 11,SALT LAKE CITY,84115,Grocery Store,90.9199981689453,AddressPoints.AddressGrid,R107867,424802.05349655,4505614.29331244,424802.0535,4505614.2933
2426,BIG LOTS,4657,5516 S 900 E,MURRAY,84117,Convenience Grocery,100,AddressPoints.AddressGrid,R107901,426643.962968563,4500404.55509516,426643.963,4500404.5551
2427,STANS,,85 E MAIN ST,CIRCLEVILLE,84723,Retail,100,AddressPoints.AddressGrid,R107950,388683.644259447,4225660.71137466,388683.6443,4225660.7114
2428,FAMILY DOLLAR INC,31017,2118 W CTR ST,PROVO,84601,Convenience Grocery,100,AddressPoints.AddressGrid,R108004,440778.603984565,4453965.05699607,440778.604,4453965.057
2429,ASIAN FOODS LLC,,1475 S STATE ST,CLEARFIELD,84015,Specialty Grocery,100,AddressPoints.AddressGrid,R108053,415697.722505483,4549511.68318829,415697.7225,4549511.6832
2430,SMITHS MARKETPLACE,279,2434 N 400 E,NORTH OGDEN,84414,Supermarket,100,AddressPoints.AddressGrid,R108154,419030.745968248,4572818.73432793,419030.746,4572818.7343
2431,SMITHS MARKETPLACE,274,5710 W 7800 S,WEST JORDAN,84081,Supermarket,100,Centerlines.StatewideRoads,R108155,413151.10993627,4495924.58732095,413151.1099,4495924.5873
2432,UTAH CHARITIES DBA UTAH COOP,,291 E 4500 S,MURRAY,84107,Grocery Store,100,AddressPoints.AddressGrid,R108291,425356.626945792,4503021.85665071,425356.6269,4503021.8567
2433,TESORO,,75 S 900 E,SALT LAKE CITY,84102,Convenience Grocery,100,AddressPoints.AddressGrid,R108399,427006.34164784,4513313.71603645,427006.3416,4513313.716
2434,QUEEN BEE GIFTERY,,270 25TH ST,OGDEN,84401,Retail,100,AddressPoints.AddressGrid,R108422,418358.732534794,4563731.43704212,418358.7325,4563731.437
2435,ISLES OF THE SEA MART,,1269 W 500 N,SALT LAKE CITY,84116,Specialty Grocery,100,AddressPoints.AddressGrid,R108441,421721.855605865,4514739.1872644,421721.8556,4514739.1873
2436,GOOD EARTH NATURAL FOODS,,863 N 700 E,SPANISH FORK,84660,Grocery Store,100,Centerlines.StatewideRoads,R108660,445218.019996591,4441360.52629691,445218.02,4441360.5263
2437,WALMART MARKET,7043,1202 W 12600 S,RIVERTON,84065,Supermarket,100,AddressPoints.AddressGrid,R108661,421554.804171978,4486238.18558363,421554.8042,4486238.1856
2438,WAL-MART,7168,5056 W 13400 S,HERRIMAN,84096,Supermarket,100,AddressPoints.AddressGrid,R108751,414310.084619603,4484731.74334646,414310.0846,4484731.7433
2439,RC GROUP DBA YUMMYS SUSHI,,245 W HWY 40,ROOSEVELT,84066,Specialty Grocery,100,Centerlines.StatewideRoads,R108757,585346.489974375,4460514.94492873,585346.49,4460514.9449
2440,CITY CORNER,,631 W N TEMPLE STE 500,SALT LAKE CITY,84116,Convenience Grocery,90.9199981689453,AddressPoints.AddressGrid,R108770,423316.14637606,4513728.3792111,423316.1464,4513728.3792
2441,FAMILY DOLLAR INC,31320,425 E MIDVALLEY RD,ENOCH,84721,Convenience Grocery,100,AddressPoints.AddressGrid,R108784,319024.734722054,4181742.4244072,319024.7347,4181742.4244
2442,GNC,6104,166 N CENTRAL AVE,FARMINGTON,84025,Health Food,100,AddressPoints.AddressGrid,R108831,423799.612633155,4537316.46908481,423799.6126,4537316.4691
2443,SPROUTS FARMERS MARKET,605,11519 S 4000 W,SOUTH JORDAN,84095,Grocery Store,100,AddressPoints.AddressGrid,R108881,416580.37054757,4488313.06769458,416580.3705,4488313.0677
2444,FAMILY DOLLAR INC,31290,590 N MAIN ST,PAROWAN,84761,Convenience Grocery,100,AddressPoints.AddressGrid,R108884,339228.894926818,4190960.49210042,339228.8949,4190960.4921
2445,DOLLAR TREE,5822,2332 E FORT UNION BLVD STE A,COTTONWOOD HEIGHTS,84121,Convenience Grocery,100,AddressPoints.AddressGrid,R108960,430293.972061169,4497141.98448523,430293.9721,4497141.9845
2446,HYATT ESCALA LODGE,,3551 N ESCALA CT,PARK CITY,84098,Convenience Grocery,100,AddressPoints.AddressGrid,R109168,452926.016513059,4503689.17833208,452926.0165,4503689.1783
2447,LOVELAND LIVING PLANET GIFT,,12033 S LONE PEAK PKWY,DRAPER,84020,Convenience Grocery,100,AddressPoints.AddressGrid,R109248,424292.163068982,4487203.25949573,424292.1631,4487203.2595
2448,WAL-MART,4068,1206 N CANYON CRK PKWY,SPANISH FORK,84660,Supermarket,100,AddressPoints.AddressGrid,R109251,445534.516123325,4441720.00868911,445534.5161,4441720.0087
2449,HOLLADAY HEALTH & NUTRITION,,7990 S 1300 E,SANDY,84094,Health Food,100,AddressPoints.AddressGrid,R109299,427713.44576711,4495415.30834252,427713.4458,4495415.3083
2450,PETERSEN FAMILY FARM,,11887 S 4000 W,RIVERTON,84096,Grocery Store,100,AddressPoints.AddressGrid,R109333,416508.636860337,4487626.82586164,416508.6369,4487626.8259
2451,99 CENTS PLUS,,3451 S 5600 W STE D,WEST VALLEY CITY,84120,Convenience Grocery,100,AddressPoints.AddressGrid,R109373,413525.761500579,4505665.50580511,413525.7615,4505665.5058
2452,MUSE GROCERY DBA PICK & RAIL,,101 W 200 N,HELPER,84526,Grocery Store,100,AddressPoints.AddressGrid,R109376,511683.97422096,4393742.56957219,511683.9742,4393742.5696
2453,TRADER JOES,351,6989 S 1300 E,MIDVALE,84047,Grocery Store,100,AddressPoints.AddressGrid,R109568,427760.676535463,4497323.00675951,427760.6765,4497323.0068
2454,ARBAT LLC,,3232 S 400 E,SALT LAKE CITY,84115,Specialty Grocery,100,AddressPoints.AddressGrid,R109768,425592.265669374,4505886.47758264,425592.2657,4505886.4776
2455,SHOPKO HOMETOWN,555,1145 US 191,MOAB,84532,Convenience Grocery,92.4300003051758,AddressPoints.AddressGrid,R110072,627405.997532486,4268550.00104819,627405.9975,4268550.001
2456,NEW EUROPEAN MARKET,,2851 S REDWOOD RD STE G,WEST VALLEY CITY,84119,Specialty Grocery,100,AddressPoints.AddressGrid,R110080,420722.950959172,4506924.48944475,420722.951,4506924.4894
2457,RANCHO MARKET,,4616 S 4000 W STE I & J,WEST VALLEY CITY,84120,Grocery Store,83.3499984741211,Centerlines.StatewideRoads,R110081,415317.010269916,4508791.19329949,415317.0103,4508791.1933
2458,LOGAN HOTELS LLC,,853 S MAIN ST,LOGAN,84321,Convenience Grocery,100,Centerlines.StatewideRoads,R110504,430533.206597005,4618612.07591825,430533.2066,4618612.0759
2459,FAMILY DOLLAR INC,31456,151 N MAIN ST,HUNTINGTON,84528,Convenience Grocery,100,Centerlines.StatewideRoads,R110883,503035.019142504,4353306.41779131,503035.0191,4353306.4178
2460,FAMILY DOLLAR INC,31452,75 S MAIN ST,LOA,84747,Convenience Grocery,100,AddressPoints.AddressGrid,R110940,443919.474443704,4250478.23520318,443919.4744,4250478.2352
2461,ANAYAS MARKET LOGAN,,2271 N MAIN ST,NORTH LOGAN,84341,Specialty Grocery,100,AddressPoints.AddressGrid,R110942,430626.710561869,4624987.58566779,430626.7106,4624987.5857
2462,FAMILY DOLLAR INC,31455,50 W 700 S,MILFORD,84751,Convenience Grocery,100,Centerlines.StatewideRoads,R111077,324227.13919782,4251180.79358843,324227.1392,4251180.7936
2463,QUANTUM NATURE CARE,,921 E EXECUTIVE PARK DR STE C,SALT LAKE CITY,84117,Health Food,100,AddressPoints.AddressGrid,R111219,426851.743544032,4500790.88676985,426851.7435,4500790.8868
2464,TIKI MARKET,,7098 S REDWOOD RD,WEST JORDAN,84084,Specialty Grocery,100,AddressPoints.AddressGrid,R111267,420471.420143601,4497271.28610972,420471.4201,4497271.2861
2465,VALLEY RENTAL & SALES,,1271 W 500 N,SALT LAKE CITY,84116,Convenience Grocery,100,AddressPoints.AddressGrid,R111505,421710.042692985,4514737.96907952,421710.0427,4514737.9691
2466,SONJHAE ASIAN MARKET,,1465 S STATE ST,SALT LAKE CITY,84115,Specialty Grocery,100,AddressPoints.AddressGrid,R111580,425050.70243473,4509995.44305241,425050.7024,4509995.4431
2467,KB EXPRESS,8,1661 W 200 S,PAROWAN,84761,Convenience Grocery,100,AddressPoints.AddressGrid,R111583,335978.422633087,4189505.58256452,335978.4226,4189505.5826
2468,CVS/PHARMACY,10578,11502 S 4000 W,SOUTH JORDAN,84095,Convenience Grocery,100,Centerlines.StatewideRoads,R111765,416464.280323975,4488415.73952521,416464.2803,4488415.7395
2469,CVS/PHARMACY,10618,5326 W 11000 N,HIGHLAND,84003,Convenience Grocery,100,Centerlines.StatewideRoads,R111766,433341.84938598,4476010.0709526,433341.8494,4476010.071
2470,IAC LATIN MARKET,,4735 W 3500 S STE C,WEST VALLEY CITY,84120,Convenience Grocery,100,AddressPoints.AddressGrid,R111990,415161.435751666,4505516.7967551,415161.4358,4505516.7968
2471,ORIENTAL FOOD MARKET OF UTAH,,667 S 700 E,SALT LAKE CITY,84102,Specialty Grocery,100,AddressPoints.AddressGrid,R112035,426505.041163993,4511890.18694325,426505.0412,4511890.1869
2472,VIVE JUICERY DOWNTOWN LLC,,219 E BROADWAY,SALT LAKE CITY,84111,Retail,92.4300003051758,Centerlines.StatewideRoads,R112044,425336.271256985,4512820.53255907,425336.2713,4512820.5326
2473,SHOPKO HOMETOWN,799,440 W MAIN ST,TREMONTON,84337,Convenience Grocery,100,AddressPoints.AddressGrid,R112150,402479.302707068,4618618.56702312,402479.3027,4618618.567
2474,SHOPKO HOMETOWN,798,1635 E HIGHWAY 40,BALLARD,84066,Convenience Grocery,100,Centerlines.StatewideRoads,R112151,587504.665433256,4461826.10800843,587504.6654,4461826.108
2475,SHOPKO HOMETOWN,557,1174 N MAIN ST,NEPHI,84648,Convenience Grocery,100,Centerlines.StatewideRoads,R112152,428358.765371432,4397660.10881948,428358.7654,4397660.1088
2476,GNC,5191,8265 W 3500 S,MAGNA,84044,Health Food,100,AddressPoints.AddressGrid,R112241,408016.036553433,4505603.5454412,408016.0366,4505603.5454
2477,JILIB AFRICAN STORE,,1898 W 3500 S,WEST VALLEY CITY,84119,Specialty Grocery,100,AddressPoints.AddressGrid,R112357,420366.036709247,4505534.3664617,420366.0367,4505534.3665
2478,SMITHS FOOD & DRUG STORES,277,1370 W 200 N,KAYSVILLE,84037,Grocery Store,100,AddressPoints.AddressGrid,R112495,418752.832748542,4543684.37396044,418752.8327,4543684.374
2479,WANGSGARDS,,145 HARRISVILLE RD,OGDEN,84404,Grocery Store,100,AddressPoints.AddressGrid,R112532,418567.271865421,4568080.63553275,418567.2719,4568080.6355
2480,DOLLAR TREE,06531,477 N 300 W,SALT LAKE CITY,84103,Convenience Grocery,100,AddressPoints.AddressGrid,R112538,424058.765805593,4514714.26668213,424058.7658,4514714.2667
2481,FAMILY DOLLAR INC,31454,44 N MAIN ST,VEYO,84782,Convenience Grocery,100,AddressPoints.AddressGrid,R112543,261467.56622146,4135847.43406965,261467.5662,4135847.4341
2482,CVS/PHARMACY,10556,667 E 9000 S,SANDY,84070,Convenience Grocery,100,AddressPoints.AddressGrid,R112544,426106.402341407,4493433.41898535,426106.4023,4493433.419
2483,FAMILY DOLLAR,31372,445 S 200 E,IVINS,84738,Convenience Grocery,92.4300003051758,Centerlines.StatewideRoads,R112646,261679.613080463,4116001.1774361,261679.6131,4116001.1774
2484,VITAMIN SHOPPE,,10515 S STATE RD,SANDY,84070,Health Food,90.9199981689453,AddressPoints.AddressGrid,R112823,424615.782585667,4490318.30443526,424615.7826,4490318.3044
2485,VITAMIN SHOPPE,,160 E UNIVERSITY PKWY,OREM,84058,Health Food,100,Centerlines.StatewideRoads,R112824,441223.261241593,4458329.51334301,441223.2612,4458329.5133
2486,VITAMIN SHOPPE,,1010 E 2100 S,SALT LAKE CITY,84106,Health Food,100,AddressPoints.AddressGrid,R112825,427167.601482719,4508615.33702966,427167.6015,4508615.337
2487,CVS/PHARMACY,10370,7777 S REDWOOD RD,WEST JORDAN,84084,Convenience Grocery,100,AddressPoints.AddressGrid,R112873,420678.936198922,4495887.15659631,420678.9362,4495887.1566
2488,PENZEYS SPICES,,280 E 12300 S UNIT 106,DRAPER,84020,Retail,100,AddressPoints.AddressGrid,R112943,425242.862399413,4486455.15475368,425242.8624,4486455.1548
2489,ZAMBRANO EXPRESS,,3572 S REDWOOD RD,WEST VALLEY CITY,84119,Convenience Grocery,100,AddressPoints.AddressGrid,R113049,420626.770041511,4505372.05550729,420626.77,4505372.0555
2490,NATURAL GROCERS,,650 E 400 S,SALT LAKE CITY,84102,Grocery Store,100,Centerlines.StatewideRoads,R113119,426359.346805609,4512539.41948311,426359.3468,4512539.4195
2491,SHOPKO HOMETOWN,583,860 S MAIN ST,BLANDING,84511,Convenience Grocery,100,AddressPoints.AddressGrid,R113169,634232.037380612,4163925.12694361,634232.0374,4163925.1269
2492,NATURAL GROCERS,,55 W 500 S,BOUNTIFUL,84010,Retail,100,AddressPoints.AddressGrid,R113227,425687.444194898,4526255.93503505,425687.4442,4526255.935
2493,KIM THANH SUPER MARKET,,3086 S REDWOOD RD,WEST VALLEY CITY,84119,Specialty Grocery,100,AddressPoints.AddressGrid,R113303,420629.171606004,4506350.04914026,420629.1716,4506350.0491
2494,CVS/PHARMACY,10577,475 E STATE ST,AMERICAN FORK,84003,Convenience Grocery,100,AddressPoints.AddressGrid,R113322,433254.892248726,4469641.26574033,433254.8922,4469641.2657
2495,TEJEDAS MARKET,,2963 S STATE ST,SALT LAKE CITY,84115,Retail,100,AddressPoints.AddressGrid,R113412,424990.844309887,4506587.5673491,424990.8443,4506587.5673
2496,BRICKYARD CHEVRON,,1111 E 3300 S,SALT LAKE CITY,84106,Convenience Grocery,100,AddressPoints.AddressGrid,R113433,427402.613711216,4505859.9838016,427402.6137,4505859.9838
2497,CVS PHARMACY,10234,4240 HARRISON BLVD,OGDEN,84403,Convenience Grocery,100,Centerlines.StatewideRoads,R113437,420423.824916938,4559812.53947415,420423.8249,4559812.5395
2498,GNC,8882,6191 S STATE ST,MURRAY,84107,Health Food,100,AddressPoints.AddressGrid,R113473,424965.130167176,4498756.06553905,424965.1302,4498756.0655
2499,HARMONS SANTA CLARA,,3520 PIONEER PKWY,SANTA CLARA,84765,Convenience Grocery,100,AddressPoints.AddressGrid,R113554,263776.785338431,4114650.04247924,263776.7853,4114650.0425
2500,HARMONS SANTA CLARA,,3520 PIONEER PKWY,SANTA CLARA,84765,Grocery Store,100,AddressPoints.AddressGrid,R113554,263776.785338431,4114650.04247924,263776.7853,4114650.0425
2501,HOMEGOODS,525,260 N STATION PKWY,FARMINGTON,84025,Retail,100,AddressPoints.AddressGrid,R113567,424004.984683074,4537554.46760654,424004.9847,4537554.4676
2502,HOMEGOODS,527,6262 S STATE ST,MURRAY,84107,Retail,100,AddressPoints.AddressGrid,R113569,424717.525387471,4498613.83723265,424717.5254,4498613.8372
2503,RANCHO MARKET,,434 N MAIN ST,HEBER CITY,84032,Specialty Grocery,100,AddressPoints.AddressGrid,R113934,465054.258291953,4484816.56381992,465054.2583,4484816.5638
2504,LINS SUPERMARKET INC,,2928 E MALL DR,ST GEORGE,84790,Convenience Grocery,100,AddressPoints.AddressGrid,R114014,275671.295723224,4108369.11600457,275671.2957,4108369.116
2505,LINS SUPERMARKET INC,,2928 E MALL DR,ST GEORGE,84790,Grocery Store,100,AddressPoints.AddressGrid,R114014,275671.295723224,4108369.11600457,275671.2957,4108369.116
2506,HOODOOS GENERAL STORE,,35 LION BLVD,SPRINGDALE,84767,Grocery Store,100,Centerlines.StatewideRoads,R114217,322765.025027174,4118287.10732533,322765.025,4118287.1073
2507,SHOPKO HOMETOWN,588,660 N MAIN ST,BEAVER,84713,Convenience Grocery,100,AddressPoints.AddressGrid,R114226,356594.322368769,4238519.51603323,356594.3224,4238519.516
2508,DOLLAR TREE,6704,332 N MAIN ST,KAYSVILLE,84037,Convenience Grocery,100,AddressPoints.AddressGrid,R114227,420833.861472386,4543808.25988297,420833.8615,4543808.2599
2509,LA DULCERIA,,1500 W 3500 S,WEST VALLEY CITY,84119,Convenience Grocery,100,AddressPoints.AddressGrid,R114264,421015.65642394,4505619.27742889,421015.6564,4505619.2774
2510,R & A MARKET & DELI,,408 S MAIN ST,HELPER,84526,Grocery Store,100,AddressPoints.AddressGrid,R114358,512426.544923098,4392341.09310599,512426.5449,4392341.0931
2511,IVANOVS MARKET,,11 E MAIN ST,SANTAQUIN,84655,Specialty Grocery,100,Centerlines.StatewideRoads,R114372,432969.694748414,4425359.48668497,432969.6947,4425359.4867
2512,SMITHS FOOD & DRUG,272,217 N 2000 W,WEST POINT,84015,Supermarket,100,AddressPoints.AddressGrid,R114394,410459.311696481,4552267.87870418,410459.3117,4552267.8787
2513,FAMILY DOLLAR INC,31736,420 W STATE ST,ORDERVILLE,84758,Convenience Grocery,100,Centerlines.StatewideRoads,R114508,353995.183233695,4126429.94809331,353995.1832,4126429.9481
2514,DOLLAR TREE,6115,4722 W 10040 N,CEDAR HILLS,84062,Convenience Grocery,100,AddressPoints.AddressGrid,R114673,434500.246139746,4474086.97927934,434500.2461,4474086.9793
2515,DOLLAR TREE,06297,3245 W 7800 S STE E,WEST JORDAN,84088,Convenience Grocery,100,AddressPoints.AddressGrid,R114867,418047.60115347,4495715.27418922,418047.6012,4495715.2742
2516,MY PLACE HOTEL,,3074 S DECKER LK DR,WEST VALLEY CITY,84119,Convenience Grocery,100,AddressPoints.AddressGrid,R114965,419711.996723677,4506430.66513559,419711.9967,4506430.6651
2517,HOLLOW MOUNTAIN,,60 N HWY 95,HANKSVILLE,84734,Convenience Grocery,100,Centerlines.StatewideRoads,R11511,525736.699587366,4247329.92867903,525736.6996,4247329.9287
2518,SU LUGAR STOP & GO MARKET,,121 W STATE ST,HURRICANE,84737,Specialty Grocery,100,AddressPoints.AddressGrid,R115291,296668.884108914,4116894.74652457,296668.8841,4116894.7465
2519,EPHRAIM MARKET FRESH,,475 S MAIN ST,EPHRAIM,84627,Supermarket,100,AddressPoints.AddressGrid,R115465,449495.245894921,4355925.10566457,449495.2459,4355925.1057
2520,CVS/PHARMACY,10424,5557 W 4100 S,WEST VALLEY CITY,84128,Convenience Grocery,100,Centerlines.StatewideRoads,R115489,413490.738640521,4503954.23942305,413490.7386,4503954.2394
2521,HARMONS TRAVERSE MOUNTAIN,,1750 TRAVERSE PKWY,LEHI,84043,Supermarket,100,AddressPoints.AddressGrid,R115544,425510.452372329,4476249.27833782,425510.4524,4476249.2783
2522,BEAR VALLEY,,900 E SR 20,PANGUITCH,84759,Convenience Grocery,96.6699981689453,Centerlines.StatewideRoads,R115572,372301.923926237,4203468.17496633,372301.9239,4203468.175
2523,SMITHS FOOD & DRUG,276,5448 DAYBREAK PKWY,SOUTH JORDAN,84009,Supermarket,100,AddressPoints.AddressGrid,R115619,413520.491980808,4488089.5272872,413520.492,4488089.5273
2524,FAST STOP 3186 INC,,3186 WASHINGTON BLVD,OGDEN,84401,Convenience Grocery,100,Centerlines.StatewideRoads,R115688,418625.326759845,4562128.04739373,418625.3268,4562128.0474
2525,BRYCE VALLEY KOA,,215 RED ROCK DR,CANNONVILLE,84718,Convenience Grocery,100,AddressPoints.AddressGrid,R115762,406726.340732509,4158599.08339433,406726.3407,4158599.0834
2526,SUNRISE FOODMART,,472 N MAIN ST,BRIGHAM CITY,84302,Convenience Grocery,100,AddressPoints.AddressGrid,R115828,415298.26227823,4597054.95425024,415298.2623,4597054.9543
2527,SOUTH END MARKET,,820 N 700 E,PROVO,84606,Specialty Grocery,100,AddressPoints.AddressGrid,R115833,445028.475160001,4455151.56907649,445028.4752,4455151.5691
2528,DOLLAR TREE,6210,6227 DIXIE DR,WEST JORDAN,84084,Convenience Grocery,100,AddressPoints.AddressGrid,R115863,417347.931442542,4499010.34597194,417347.9314,4499010.346
2529,DOLLAR TREE,6471,3505 W 3505 S,WEST VALLEY CITY,84119,Convenience Grocery,,Manually Placed,R115973,417625,4505372,417625,4505372
2530,SIMPLY FOOD GROUP,,11075 S STATE ST - 12B,SANDY,84093,Retail,90.9199981689453,AddressPoints.AddressGrid,R116121,424599.994909525,4489176.11340157,424599.9949,4489176.1134
2531,JULIE`S MARKETPLACE,,1 N MAIN ST,LEWISTON,84320,Grocery Store,100,AddressPoints.AddressGrid,R116254,428999.744592463,4647485.69939262,428999.7446,4647485.6994
2532,UPPER COUNTRY MARKET,,1 MAIN ST,ALTAMONT,84001,Supermarket,92.4300003051758,Centerlines.StatewideRoads,R116262,585921.654625797,4461490.64857946,585921.6546,4461490.6486
2533,SINCLAIR - ERNIE`S TOO,,309 W STATE ST,HURRICANE,84737,Convenience Grocery,100,Centerlines.StatewideRoads,R116443,296346.192377363,4116905.79488842,296346.1924,4116905.7949
2534,KB EXPRESS,9,14215 HIGHWAY 89,ORDERVILLE,84758,Convenience Grocery,,Manually Placed,R116444,353006,4125003,353006,4125003
2535,DHANYA SPICES & GROCERIES,,1098 W S JORDAN PKWY - 109,SOUTH JORDAN,84095,Specialty Grocery,90.9199981689453,AddressPoints.AddressGrid,R116593,421883.874195903,4490478.44354004,421883.8742,4490478.4435
2536,BENNY`S MARKET,,3333 W 3500 S,WEST VALLEY CITY,84119,Retail,100,Centerlines.StatewideRoads,R116692,417964.78586355,4505519.22776956,417964.7859,4505519.2278
2537,FAMILY FRESH SUSHI LLC,,745 N DIXIE DOWNS DR,ST GEORGE,84770,Specialty Grocery,90.9199981689453,AddressPoints.AddressGrid,R116705,266809.641083859,4111521.92467561,266809.6411,4111521.9247
2538,SHOPKO HOMETOWN,205,94 N 400 E,DELTA,84624,Convenience Grocery,100,Centerlines.StatewideRoads,R116870,365108.708231188,4357217.35285137,365108.7082,4357217.3529
2539,BAD SAINT,,350 S STATE ST,SALT LAKE CITY,84111,Convenience Grocery,100,AddressPoints.AddressGrid,R117054,425006.005490944,4512665.76697531,425006.0055,4512665.767
2540,DOLLAR TREE,6450,430 W MAIN ST,TREMONTON,84337,Convenience Grocery,100,Centerlines.StatewideRoads,R117068,402510.872286172,4618431.08315921,402510.8723,4618431.0832
2541,CLARK`S COUNTRY MARKET,,141 N MAIN,TROPIC,84776,Grocery Store,90.9199981689453,AddressPoints.AddressGrid,R117088,404507.524856303,4164863.54000931,404507.5249,4164863.54
2542,SMITHS FOOD & DRUG,93,614 W 2600 S,WOODS CROSS,84010,Supermarket,100,AddressPoints.AddressGrid,R117089,424306.84393714,4523946.69503491,424306.8439,4523946.695
2543,NATURAL GROCERS,,1033 E 2100 S,SALT LAKE CITY,84106,Grocery Store,100,AddressPoints.AddressGrid,R117144,427256.153082456,4508645.80557396,427256.1531,4508645.8056
2544,LEE`S MARKETPLACE,,890 S MAIN,HEBER CITY,84032,Supermarket,90.9199981689453,AddressPoints.AddressGrid,R117145,464931.959490304,4482916.10490168,464931.9595,4482916.1049
2545,JADE MARKET CENTRAL 9TH,,161 W 900 S,SALT LAKE CITY,84101,Convenience Grocery,100,AddressPoints.AddressGrid,R117200,424387.090996472,4511338.78773578,424387.091,4511338.7877
2546,BEAR RIVER COUNTRY MARKET,,4670 W 5900 N,RIVER CITY,84301,Convenience Grocery,100,AddressPoints.AddressGrid,R117309,406187.21386764,4607847.72430067,406187.2139,4607847.7243
2547,RANCHERA MARKET,,96 W 100 N,LOGAN,84321,Specialty Grocery,100,AddressPoints.AddressGrid,R117310,430379.634822458,4620491.09818267,430379.6348,4620491.0982
2548,RANCHERITA,,700 N 30 W,LOGAN,84321,Specialty Grocery,100,AddressPoints.AddressGrid,R117311,430520.296891153,4621728.94805479,430520.2969,4621728.9481
2549,CARDWELL DISTRIBUTING,,8137 S STATE ST,MIDVALE,84047,Convenience Grocery,100,AddressPoints.AddressGrid,R117328,424679.385758907,4495264.68500197,424679.3858,4495264.685
2550,CARDWELL DISTRIBUTING,,215 N MAIN ST,BEAVER,84713,Convenience Grocery,100,AddressPoints.AddressGrid,R117329,356409.41582496,4237846.63246772,356409.4158,4237846.6325
2551,ROY SINCLAIR,,5608 S 1900 W,ROY,84067,Convenience Grocery,100,AddressPoints.AddressGrid,R117346,413935.753806316,4557175.88992747,413935.7538,4557175.8899
2552,MERCY HOLDINGS LLC,,602 E 500 S,SALT LAKE CITY,84102,Specialty Grocery,100,AddressPoints.AddressGrid,R117377,426263.151411674,4512282.45639914,426263.1514,4512282.4564
2553,CASH & CARRY STORE,501,370 W PAXTON AVE,SALT LAKE CITY,84101,Convenience Grocery,100,AddressPoints.AddressGrid,R117378,423843.912796721,4510705.41512695,423843.9128,4510705.4151
2554,GNC,6179,1770 W 5400 S,TAYLORSVILLE,84129,Health Food,100,AddressPoints.AddressGrid,R117394,420495.971789876,4500727.11653125,420495.9718,4500727.1165
2555,PANGUITCH CHEVRON,,10 E CTR ST,PANGUITCH,84759,Convenience Grocery,100,AddressPoints.AddressGrid,R117528,373683.430672953,4187087.38114699,373683.4307,4187087.3811
2556,OIL & VINEGAR JUNCTION,,6300 SAGEWOOD DR STE C,PARK CITY,84098,Specialty Grocery,100,AddressPoints.AddressGrid,R117658,454068.945418738,4508162.64560335,454068.9454,4508162.6456
2557,LA TENOCH MINI MARKET,,190 E 3300 S,SOUTH SALT LAKE,84115,Supermarket,100,AddressPoints.AddressGrid,R117727,425168.824602479,4505767.94471256,425168.8246,4505767.9447
2558,FOODTOWN ,,145 W 200 S,KAMAS,84036,Supermarket,100,Centerlines.StatewideRoads,R11778,476001.709774718,4498806.36493595,476001.7098,4498806.3649
2559,NATURAL GROCERS,,270 12TH ST,OGDEN,84404,Grocery Store,100,AddressPoints.AddressGrid,R117783,418447.875824333,4566357.49560674,418447.8758,4566357.4956
2560,WINCO FOODS,139,200 S FORT LN,LAYTON,84041,Grocery Store,100,AddressPoints.AddressGrid,R117948,419368.231909481,4545612.78848158,419368.2319,4545612.7885
2561,LEE`S MARKETPLACE,,725 N REDWOOD RD,NORTH SALT LAKE,84054,Supermarket,100,AddressPoints.AddressGrid,R118089,421587.702124997,4522997.34614944,421587.7021,4522997.3461
2562,UNIVERSITY CAMPUS STORE,,10011 CENTENNIAL PKWY,SANDY,84070,Convenience Grocery,100,AddressPoints.AddressGrid,R118280,424281.512652537,4491326.26541646,424281.5127,4491326.2654
2563,OCEAN MART OF ROY INC,,5651 S 1900 W,ROY,84067,Specialty Grocery,100,AddressPoints.AddressGrid,R118306,413779.91663445,4557098.19757587,413779.9166,4557098.1976
2564,MY PLACE HOTEL,,7424 S CAMPUS VIEW DR,WEST JORDAN,84084,Convenience Grocery,100,AddressPoints.AddressGrid,R118383,416685.266707968,4496615.24830093,416685.2667,4496615.2483
2565,LORIS GIFTS,,1200 E 3900 S,SALT LAKE CITY,84124,Convenience Grocery,100,AddressPoints.AddressGrid,R118410,427539.16179552,4504269.43807981,427539.1618,4504269.4381
2566,APNA BAAZAR,,10482 S REDWOOD RD,SOUTH JORDAN,84095,Specialty Grocery,100,AddressPoints.AddressGrid,R118423,420483.803863114,4490421.45337047,420483.8039,4490421.4534
2567,GNC,,2564 N 400 E,NORTH OGDEN,84414,Health Food,100,AddressPoints.AddressGrid,R118481,418997.486040291,4573052.28473456,418997.486,4573052.2847
2568,KAYS PLACE ,,6070 S HIGHLAND DR,SALT LAKE CITY,84121,Convenience Grocery,100,AddressPoints.AddressGrid,R118542,429365.666449498,4499221.09891854,429365.6664,4499221.0989
2569,NATURAL GROCERS,,10622 REDWOOD RD,SOUTH JORDAN,84095,Specialty Grocery,100,AddressPoints.AddressGrid,R118654,420472.69401694,4490124.19537475,420472.694,4490124.1954
2570,SMITHS MARKETPLACE,271,1117 W 400 S,SPRINGVILLE,84663,Supermarket,100,AddressPoints.AddressGrid,R118751,446307.715474063,4445673.76348209,446307.7155,4445673.7635
2571,SMITHS MARKETPLACE,207,689 N REDWOOD RD,SARATOGA SPRINGS,84045,Supermarket,100,AddressPoints.AddressGrid,R118752,422002.560209228,4469779.85341419,422002.5602,4469779.8534
2572,DULCERIA LA PINATA,,1824 W 3500 S,WEST VALLEY CITY,84119,Specialty Grocery,100,AddressPoints.AddressGrid,R118963,420432.124979658,4505594.48910669,420432.125,4505594.4891
2573,DOLLAR TREE,,567 N MAIN ST,CLEARFIELD,84015,Convenience Grocery,100,AddressPoints.AddressGrid,R119299,413826.590518283,4552792.2272461,413826.5905,4552792.2272
2574,THAI LAO MARKET,,3376 S 5600 W,WEST VALLEY CITY,84120,Specialty Grocery,100,Centerlines.StatewideRoads,R119404,413400.67599008,4505785.75114869,413400.676,4505785.7511
2575,SUR LA TABLE,,6117 S STATE ST -B139,MURRAY,84107,Specialty Grocery,90.9199981689453,AddressPoints.AddressGrid,R119416,425155.473296112,4498896.75545197,425155.4733,4498896.7555
2576,HERBS FOR HEALTH OGDEN 1,,2688 WASHINGTON BLVD,OGDEN,84401,Health Food,100,AddressPoints.AddressGrid,R119441,418662.192831855,4563274.72908621,418662.1928,4563274.7291
2577,GNC,215,575 E UNIVERSITY PKWY F- 108,OREM,84057,Health Food,90.9199981689453,AddressPoints.AddressGrid,R119635,442130.434195808,4458509.81940801,442130.4342,4458509.8194
2578,GNC,1302,185 W 12TH ST STE F,OGDEN,84404,Health Food,100,AddressPoints.AddressGrid,R119636,417821.206712921,4566312.89611774,417821.2067,4566312.8961
2579,GNC,2111,567 E 1000 N,SPANISH FORK,84660,Health Food,100,AddressPoints.AddressGrid,R119637,445052.525610209,4441661.71680197,445052.5256,4441661.7168
2580,GNC,2389,1152 W 800 N,OREM,84057,Health Food,100,AddressPoints.AddressGrid,R119638,438633.53354092,4462726.02691422,438633.5335,4462726.0269
2581,GNC,6161,1184 E DRAPER PARKWAY,DRAPER,84020,Health Food,,Manually Placed,R119640,427382,4486651,427382,4486651
2582,GNC,6720,7211 S PLAZA CTR DR,WEST JORDAN,84084,Health Food,100,AddressPoints.AddressGrid,R119641,417203.78188454,4497063.56818376,417203.7819,4497063.5682
2583,GNC,8621,1094 S 300 W,SALT LAKE CITY,84101,Health Food,100,AddressPoints.AddressGrid,R119642,423870.072447048,4510867.41979488,423870.0724,4510867.4198
2584,SINBADS MARKET,,3435 S STATE ST,SOUTH SALT LAKE,84115,Specialty Grocery,100,AddressPoints.AddressGrid,R119780,424977.625263593,4505464.13636267,424977.6253,4505464.1364
2585,THEGETTIN PLACE LLC,,182 S MAIN ST,HATCH,84735,Convenience Grocery,100,AddressPoints.AddressGrid,R119900,373422.93401661,4167593.04683459,373422.934,4167593.0468
2586,LA PLACITA TENOCHTITLAN,,1824 W 3500 S STE 107,WEST VALLEY CITY,84118,Supermarket,100,AddressPoints.AddressGrid,R120269,420432.124979658,4505594.48910669,420432.125,4505594.4891
2587,TEXACO - MIDTOWNE LLC,,315 E 3900 S,SALT LAKE CITY,84115,Convenience Grocery,100,AddressPoints.AddressGrid,R12040,425435.440027485,4504423.30527268,425435.44,4504423.3053
2588,ALI BABA`S GROCERY AND BAKERY,,389 E 3300 S,SALT LAKE CITY,84115,Grocery Store,100,AddressPoints.AddressGrid,R120457,425632.472731718,4505827.11369281,425632.4727,4505827.1137
2589,FREMONT MARKET LLC,,195 S MAIN ST,BEAVER,84713,Grocery Store,100,Centerlines.StatewideRoads,R120697,356450.392679849,4237219.88622709,356450.3927,4237219.8862
2590,WALMART PICK UP,8855,3701 S HIGHLAND DR,SALT LAKE CITY,84106,Convenience Grocery,100,AddressPoints.AddressGrid,R120810,428469.200710259,4504809.92931175,428469.2007,4504809.9293
2591,ENVIOS Y NOVEDADES COLIMA,,499 S MAIN ST,BRIGHAM CITY,84302,Specialty Grocery,100,AddressPoints.AddressGrid,R120936,415234.345857447,4594860.53687707,415234.3459,4594860.5369
2592,WAL-MART NEIGHBORHOOD MARKET,,898 S 2550 E,SPANISH FORK,84660,Convenience Grocery,100,AddressPoints.AddressGrid,R121013,447718.471028579,4438839.26595031,447718.471,4438839.266
2593,WAL-MART NEIGHBORHOOD MARKET,,898 S 2550 E,SPANISH FORK,84660,Supermarket,100,AddressPoints.AddressGrid,R121013,447718.471028579,4438839.26595031,447718.471,4438839.266
2594,DOLLAR TREE,,113 E 200 N,ROOSEVELT,84066,Grocery Store,100,Centerlines.StatewideRoads,R121175,585821.033410532,4461796.12140676,585821.0334,4461796.1214
2595,DOLLAR TREE,,1751 W 12600 S STE 100,RIVERTON,84065,Grocery Store,100,AddressPoints.AddressGrid,R121242,420399.004272831,4485996.57427357,420399.0043,4485996.5743
2596,DOLLAR TREE,7263,1675 W STATE ST,HURRICANE,84737,Convenience Grocery,100,AddressPoints.AddressGrid,R121271,294072.465722866,4116903.58010527,294072.4657,4116903.5801
2597,RAYKA FOOD MART,,3971 S 1900 W,ROY,84067,Convenience Grocery,100,Centerlines.StatewideRoads,R121411,413961.084207701,4560491.44237976,413961.0842,4560491.4424
2598,WHOLE FOODS MARKET,,6598 N LANDMARK DR,PARK CITY,84098,Supermarket,100,AddressPoints.AddressGrid,R121481,453818.208163608,4508627.86693136,453818.2082,4508627.8669
2599,QUALITY QUICK STOP,,938 N 900 W,SALT LAKE CITY,84116,Convenience Grocery,100,AddressPoints.AddressGrid,R121536,422692.233843022,4515825.25826059,422692.2338,4515825.2583
2600,DOLLAR GENERAL,19311,857 N REDWOOD AVE,SALT LAKE CITY,84116,Convenience Grocery,90.9199981689453,AddressPoints.AddressGrid,R121595,420675.344293768,4515655.88879489,420675.3443,4515655.8888
2601,DOLLAR GENERAL,,3646 W 4700 S,WEST VALLEY CITY,84118,Grocery Store,100,AddressPoints.AddressGrid,R121639,417325.941465059,4502382.41400062,417325.9415,4502382.414
2602,DOLLAR GENERAL,,3161 WASHINGTON BLVD,OGDEN,84401,Convenience Grocery,100,AddressPoints.AddressGrid,R121679,418590.793275335,4562176.03769459,418590.7933,4562176.0377
2603,WINCO FOODS,142,2193 S MAIN ST,SOUTH SALT LAKE,84115,Supermarket,100,AddressPoints.AddressGrid,R121689,424821.196401925,4508529.55593041,424821.1964,4508529.5559
2604,ASIAN MARKET OREM LLC,,266 N STATE ST,OREM,84057,Specialty Grocery,100,AddressPoints.AddressGrid,R121796,440851.402713442,4461486.15833572,440851.4027,4461486.1583
2605,KENTS MARKET,,2600 N 3600 W,PLAIN CITY,84404,Grocery Store,100,Centerlines.StatewideRoads,R121833,410725.060106562,4573176.71203107,410725.0601,4573176.712
2606,NIMBUS PERFORMANCE,,636 W 9400 S,SANDY,84070,Health Food,100,AddressPoints.AddressGrid,R121838,423078.300997568,4492655.58357098,423078.301,4492655.5836
2607,DOLLAR GENERAL STORE,19308,74 W 7200 S,MIDVALE,84070,Convenience Grocery,100,AddressPoints.AddressGrid,R121866,424432.511890135,4497075.87533165,424432.5119,4497075.8753
2608,DOLLAR GENERAL STORE,19310,355 S 600 E,PROVO,84606,Convenience Grocery,100,AddressPoints.AddressGrid,R121867,444902.013646566,4453389.66998789,444902.0136,4453389.67
2609,DOLLAR GENERAL STORE,19312,922 N DIXIE DOWNS RD,ST GEORGE,84770,Convenience Grocery,100,AddressPoints.AddressGrid,R121868,266967.733638031,4111861.53373908,266967.7336,4111861.5337
2610,NATURAL GROCERS,,989 S MAIN ST,HEBER CITY,84032,Grocery Store,100,Centerlines.StatewideRoads,R121872,464969.658287954,4482760.84536249,464969.6583,4482760.8454
2611,CORONA FLORES LATINOS MARKET,,1812 W SUNSET BLVD - 19,ST GEORGE,84770,Convenience Grocery,90.9199981689453,AddressPoints.AddressGrid,R121995,267019.920678611,4111750.72068065,267019.9207,4111750.7207
2612,WALMART,1573 FUEL,245 S MAIN ST,PRICE,84501,Convenience Grocery,92.4300003051758,Centerlines.StatewideRoads,R122099,515886.10060169,4383314.72192132,515886.1006,4383314.7219
2613,MYANMAR ORIENTAL MARKET,,2247 S STATE ST,SALT LAKE CITY,84115,Convenience Grocery,100,AddressPoints.AddressGrid,R122109,425074.745923881,4508270.83434347,425074.7459,4508270.8343
2614,SEOUL MARKET INC,,153 E 4370 S - 10,MURRAY,84107,Specialty Grocery,83.3499984741211,Centerlines.StatewideRoads,R122116,427699.0082617,4513901.68221525,427699.0083,4513901.6822
2615,THEAPOTHECARY,,133 E 4800 S,MURRAY,84107,Supermarket,100,AddressPoints.AddressGrid,R122117,425005.47645065,4502193.66495362,425005.4765,4502193.665
2616,MADE IN BRAZIL UTAH,,339 E 3900 S ST 100,SALT LAKE CITY,84107,Convenience Grocery,90.9199981689453,AddressPoints.AddressGrid,R122211,425476.412806044,4504415.42535672,425476.4128,4504415.4254
2617,WALMART,1699 FUEL,735 W HILL FIELD RD,LAYTON,84041,Convenience Grocery,100,Centerlines.StatewideRoads,R122239,417726.900224373,4547248.58410359,417726.9002,4547248.5841
2618,DAY N NIGHT CONVENIENCE,,3054 S STATE ST,SALT LAKE CITY,84106,Convenience Grocery,100,AddressPoints.AddressGrid,R122276,424926.002068589,4506322.90798097,424926.0021,4506322.908
2619,CVS PHARMACY,10662,50 S FORT LN,LAYTON,84041,Convenience Grocery,100,AddressPoints.AddressGrid,R122299,419493.203756825,4545817.90993347,419493.2038,4545817.9099
2620,ORANGE RANCH LLCDBA FOOD RANCH,,355 E HIGHWAY 29,ORANGEVILLE,84537,Grocery Store,100,AddressPoints.AddressGrid,R122360,495982.294970961,4342430.05348084,495982.295,4342430.0535
2621,MAIN STREET MARKET,,15 W MAIN ST,FERRON,84523,Grocery Store,100,AddressPoints.AddressGrid,R122414,488541.628639168,4326729.81516954,488541.6286,4326729.8152
2622,NATURES GROCER,,917 S MAIN,CEDAR CITY,84720,Health Food,90.9199981689453,AddressPoints.AddressGrid,R122486,317528.671420131,4170085.65498505,317528.6714,4170085.655
2623,EZ MARKET 4 U,,268 S MAIN ST,SALT LAKE CITY,84101,Convenience Grocery,100,AddressPoints.AddressGrid,R122525,424767.533617367,4512865.30565989,424767.5336,4512865.3057
2624,CVS/PHARMACY,10927,1982 W 1700 S,SYRACUSE,84075,Convenience Grocery,100,Centerlines.StatewideRoads,R122620,410620.047110363,4549213.99640987,410620.0471,4549213.9964
2625,CVS/PHARMACY,10741,4082 S REDWOOD RD,WEST VALLEY CITY,84123,Grocery Store,100,Centerlines.StatewideRoads,R122621,420645.591506951,4503945.98021771,420645.5915,4503945.9802
2626,H&X FAMILY MART LLC,,4782 W 4100 S,WEST VALLEY CITY,84120,Convenience Grocery,100,Centerlines.StatewideRoads,R122658,415050.675027989,4503962.49715675,415050.675,4503962.4972
2627,BEATRICES HERBS FOR HEALTH,,3588 S REDWOOD RD,WEST VALLEY CITY,84119,Health Food,100,AddressPoints.AddressGrid,R122701,420626.442871856,4505336.87432774,420626.4429,4505336.8743
2628,QUICK ZONE CONVENIENCE STORE,,3910 W CAMPUS DR,DR OGDEN,84408,Convenience Grocery,100,Manually Placed,R122707,420780,4560556,420780,4560556
2629,HARMON`S HOLLADAY MARKET,,4675 S  BLVD,HOLLADAY,84117,Grocery Store,90.9199981689453,Centerlines.StatewideRoads,R122799,415235.791209411,4508762.0408648,415235.7912,4508762.0409
2630,TOUCH N GO,,375 N TERMINAL DR,SALT LAKE CITY,84115,Convenience Grocery,100,Centerlines.StatewideRoads,R122800,417206.745305798,4514427.57718387,417206.7453,4514427.5772
2631,EL CENTRO DE PAYSON INC,,3 N MAIN ST,PAYSON,84651,Grocery Store,100,AddressPoints.AddressGrid,R122872,437517.885015665,4432867.90461926,437517.885,4432867.9046
2632,QUIK PIK MARKET,,545 W 3900 S STE B,MILLCREEK,84123,Convenience Grocery,100,Centerlines.StatewideRoads,R122939,423364.670160657,4504393.07615253,423364.6702,4504393.0762
2633,WEST OGDEN MARKET,,873 W 24TH ST,OGDEN,84401,Convenience Grocery,100,AddressPoints.AddressGrid,R122992,416150.393048621,4563984.10947095,416150.393,4563984.1095
2634,APPLE ANNIES COUNTRY STORE INC,,508 N HWY 143,BRIAN HEAD,84719,Convenience Grocery,100,Centerlines.StatewideRoads,R1230,336934.0599133,4174832.08255604,336934.0599,4174832.0826
2635,HALLS STORE,,420 N HWY 12,BOULDER,84716,Convenience Grocery,100,Centerlines.StatewideRoads,R123008,462723.083954888,4195950.44125916,462723.084,4195950.4413
2636,GG`S MARKETPLACE,,515 N MAIN ST,MONROE,84754,Grocery Store,100,AddressPoints.AddressGrid,R123028,402355.29148552,4277517.43590213,402355.2915,4277517.4359
2637,ISLAND MARKET,,400 E CTR ST,LOGAN,84321,Grocery Store,100,AddressPoints.AddressGrid,R12307,431430.705626562,4620247.10619129,431430.7056,4620247.1062
2638,EASTERN GROCERIES,,1616 W 3500 S,WEST VALLEY CITY,84119,Grocery Store,100,AddressPoints.AddressGrid,R123108,420830.993517108,4505574.27419862,420830.9935,4505574.2742
2639,SCARLET`S MULTISERVICES,,5221 W 3500 S STE 104,WEST VALLEY CITY,84120,Convenience Grocery,100,AddressPoints.AddressGrid,R123133,414163.540458165,4505532.41736588,414163.5405,4505532.4174
2640,CVS PHARMACY,10423,1269 E 2100 S,SALT LAKE CITY,84106,Convenience Grocery,100,AddressPoints.AddressGrid,R123296,427843.533990982,4508664.91367405,427843.534,4508664.9137
2641,ARIANA MARKET,,118 E VINE ST,MURRAY,84107,Retail,100,AddressPoints.AddressGrid,R123318,424991.874546249,4501831.71785984,424991.8745,4501831.7179
2642,TROPICAL ISLAND MARKET,,880 W 200 N,SALT LAKE CITY,84116,Grocery Store,100,AddressPoints.AddressGrid,R123326,422659.32196789,4514067.39658476,422659.322,4514067.3966
2643,ZEITOON MARKET,,9305 S 700 E,SANDY,84070,Grocery Store,100,AddressPoints.AddressGrid,R123331,426214.6119647,4492858.17815936,426214.612,4492858.1782
2644,SMOKE ZONE SLC,,1514 S STATE ST,SALT LAKE CITY,84115,Convenience Grocery,100,AddressPoints.AddressGrid,R123378,424972.293094314,4509902.13705108,424972.2931,4509902.1371
2645,MIDDLE EAST PASTRIES & GROCERY,,3336 S MAIN ST,SALT LAKE CITY,84115,Convenience Grocery,100,AddressPoints.AddressGrid,R123395,424695.591098439,4505722.08527234,424695.5911,4505722.0853
2646,SHOP N SAVE MART INC,,1302 S STATE ST,SALT LAKE CITY,84115,Convenience Grocery,100,AddressPoints.AddressGrid,R123703,424960.584597281,4510413.35704044,424960.5846,4510413.357
2647,KWICK SHOP,,803 25TH ST,OGDEN,84401,Convenience Grocery,100,AddressPoints.AddressGrid,R123709,419611.486028873,4563660.52475955,419611.486,4563660.5248
2648,STEVE & IRINAS DOWN TO EARTH,,341 27TH ST,OGDEN,84403,Health Food,100,AddressPoints.AddressGrid,R12376,418519.386757758,4563229.40564734,418519.3868,4563229.4056
2649,1ST ORIENTAL MARKET,,286 N STATE ST,OREM,84057,Specialty Grocery,100,Centerlines.StatewideRoads,R123817,440755.284587597,4461563.05917457,440755.2846,4461563.0592
2650,SHELL-JRS TRUCK STOP,,2635 N FREEWAY DR,CEDAR CITY,84720,Convenience Grocery,100,AddressPoints.AddressGrid,R12418,318702.674482025,4177301.95254373,318702.6745,4177301.9525
2651,LEES MARKET PLACE,,850 S MAIN ST,SMITHFIELD,84335,Supermarket,100,AddressPoints.AddressGrid,R12425,430921.072758084,4630045.03685202,430921.0728,4630045.0369
2652,SHELL - JBS EXPRESS MARKET,,1148 S BLUFF,SAINT GEORGE,84770,Convenience Grocery,90.9199981689453,AddressPoints.AddressGrid,R12593,270143.325846992,4107816.60302806,270143.3258,4107816.603
2653,BULL MTN MARKET,,30 E 100 N,HANKSVILLE,84734,Grocery Store,100,AddressPoints.AddressGrid,R13049,524988.286495529,4247362.40366427,524988.2865,4247362.4037
2654,K & C TRADING POST,,161 E MAIN,BLUFF,84512,Convenience Grocery,90.9199981689453,Centerlines.StatewideRoads,R13594,627707.174294788,4127251.54945569,627707.1743,4127251.5495
2655,PHILLIPS 66 KB EXPRESS,1,93 S MAIN ST,CEDAR CITY,84720,Convenience Grocery,100,AddressPoints.AddressGrid,R13619,318218.81144471,4171855.31565165,318218.8114,4171855.3157
2656,KMART CORPORATION,9794,745 S BLUFF,ST GEORGE,84770,Convenience Grocery,90.9199981689453,AddressPoints.AddressGrid,R13622,270262.631394345,4108540.7547747,270262.6314,4108540.7548
2657,KANOSH MERCANTILE GROUP LLC,,10 S MAIN ST,KANOSH,84637,Grocery Store,100,AddressPoints.AddressGrid,R13660,375125.260383685,4295692.36460446,375125.2604,4295692.3646
2658,KENS KASH LLC,,980 W CTR ST,OAKLEY,84055,Grocery Store,100,AddressPoints.AddressGrid,R13858,474667.748799656,4507171.2240924,474667.7488,4507171.2241
2659,BLUE MOUNTAIN FOODS,,64 W CTR ST,MONTICELLO,84535,Grocery Store,100,AddressPoints.AddressGrid,R13909,645626.096530451,4192984.2104461,645626.0965,4192984.2104
2660,KENTCOS FOODS,,300 E MAIN ST,TREMONTON,84337,Supermarket,100,AddressPoints.AddressGrid,R13919,403341.471320932,4618345.12976274,403341.4713,4618345.1298
2661,SALT LAKE CITY KOA,,1400 W N TEMPLE ST,SALT LAKE CITY,84116,Grocery Store,100,AddressPoints.AddressGrid,R14229,421371.881529271,4513873.20399158,421371.8815,4513873.204
2662,LINS MARKET INC,,1930 W SUNSET BLVD,SAINT GEORGE,84770,Grocery Store,100,AddressPoints.AddressGrid,R15048,266720.372495303,4111872.70623476,266720.3725,4111872.7062
2663,LINS MARKETPLACE,,1120 W STATE ST,HURRICANE,84737,Grocery Store,100,AddressPoints.AddressGrid,R15049,295004.66256512,4117056.50059446,295004.6626,4117056.5006
2664,LINS CEDAR CITY,,150 N MAIN ST,CEDAR CITY,84721,Supermarket,100,AddressPoints.AddressGrid,R15117,318298.780061782,4172324.16369009,318298.7801,4172324.1637
2665,PAROWAN MARKET INC,,740 W 200 S,PAROWAN,84761,Grocery Store,100,AddressPoints.AddressGrid,R15456,337962.511684112,4189568.62189219,337962.5117,4189568.6219
2666,MANTI MARKET,,35 E UNION,MANTI,84642,Supermarket,90.9199981689453,Centerlines.StatewideRoads,R15673,445106.825267974,4346439.18605486,445106.8253,4346439.1861
2667,MARYS HEALTH SHOPPE,,78 S FAIRFIELD RD - 102,LAYTON,84041,Grocery Store,90.9199981689453,AddressPoints.AddressGrid,R15833,420553.692870374,4545838.16660788,420553.6929,4545838.1666
2668,FOODTOWN MIKES,,270 N MAIN ST,BEAVER,84713,Grocery Store,100,AddressPoints.AddressGrid,R16561,356491.625902225,4237913.99461147,356491.6259,4237913.9946
2669,7-11,,299 S MAIN ST,MOAB,84532,Convenience Grocery,100,AddressPoints.AddressGrid,R16565,626283.993562647,4269949.00633933,626283.9936,4269949.0063
2670,MINERS TRADING POST,,123 Market St,SUNNYSIDE,84539,Grocery Store,,Manually Placed,R16718,552697,4378153,552697,4378153
2671,CANYON COUNTRY,,12 W CTR ST,BLANDING,84511,Convenience Grocery,100,AddressPoints.AddressGrid,R16742,634291.714517987,4165352.28274724,634291.7145,4165352.2827
2672,MOONFLOWER COMM COOP,,39 E 100 N,MOAB,84532,Health Food,100,AddressPoints.AddressGrid,R16834,626309.993108674,4270620.00345854,626309.9931,4270620.0035
2673,RED MESA,516,516 HIGHWAY 162 ,MONTEZUMA CREEK,84534,Grocery Store,,Manually Placed,R17400,650522,4125080,650522,4125080
2674,RITE AID,6138,5540 S 900 E,SALT LAKE CITY,84117,Convenience Grocery,100,AddressPoints.AddressGrid,R18509,426647.366925192,4500369.49921462,426647.3669,4500369.4992
2675,RITE AID,6137,150 N 900 W,SALT LAKE CITY,84116,Convenience Grocery,100,AddressPoints.AddressGrid,R18510,422727.345412008,4513940.52436899,422727.3454,4513940.5244
2676,RITE AID,6147,142 N HARRISVILLE RD,OGDEN,84404,Convenience Grocery,100,AddressPoints.AddressGrid,R18518,418655.350113316,4568253.70828051,418655.3501,4568253.7083
2677,RITE AID,6146,851 24TH ST,OGDEN,84401,Convenience Grocery,100,AddressPoints.AddressGrid,R18520,419697.475959818,4563823.6780018,419697.476,4563823.678
2678,RITE AID,6133,3250 S 700 E,SOUTH SALT LAKE,84106,Convenience Grocery,100,AddressPoints.AddressGrid,R18523,426348.835056133,4505872.29791055,426348.8351,4505872.2979
2679,FOODTOWN ,,95 N STATE ST,SALINA,84654,Supermarket,100,AddressPoints.AddressGrid,R1872,425438.864867283,4312561.08585986,425438.8649,4312561.0859
2680,CHEVRON PARADISE,,925 N MAIN ST,FILLMORE,84631,Convenience Grocery,100,AddressPoints.AddressGrid,R18805,385367.744995672,4316393.01520303,385367.745,4316393.0152
2681,CLARKS MARKET,,820 S MAIN ST,BLANDING,84511,Grocery Store,100,AddressPoints.AddressGrid,R18894,634231.577950883,4163981.6159171,634231.578,4163981.6159
2682,CHEVRON,,550 S 200 E,IVINS,84738,Convenience Grocery,92.4300003051758,Centerlines.StatewideRoads,R19458,261644.830201584,4115790.96391932,261644.8302,4115790.9639
2683,PANGUITCH LAKE GENERAL STORE,,53 W HWY 143,PANGUITCH LAKE,84759,Convenience Grocery,100,Centerlines.StatewideRoads,R19469,354019.531335832,4173939.1886524,354019.5313,4173939.1887
2684,CHEVRON ,,200 S MAIN ST,PAROWAN,84761,Convenience Grocery,100,AddressPoints.AddressGrid,R19471,339153.833854579,4189548.75503694,339153.8339,4189548.755
2685,HONEYS FUEL CENTER,,344 S 350 E,KANAB,84741,Convenience Grocery,100,AddressPoints.AddressGrid,R19490,364728.191590002,4100700.78135889,364728.1916,4100700.7814
2686,ASHMANS PIONEER MARKET,,10 S MAIN ST,FILLMORE,84631,Grocery Store,100,AddressPoints.AddressGrid,R19606,385298.61474357,4314135.29398205,385298.6147,4314135.294
2687,JACKSONS OIL,5823,304 N MAIN ST,CEDAR CITY,84720,Convenience Grocery,100,AddressPoints.AddressGrid,R19834,318216.493412896,4172625.09016259,318216.4934,4172625.0902
2688,SINCLAIR SALINA EXPRESS,,1415 S STATE,SALINA,84654,Convenience Grocery,90.9199981689453,AddressPoints.AddressGrid,R19838,426011.133322148,4310293.80014724,426011.1333,4310293.8001
2689,CHEVRON,,4390 W STATE ST,HURRICANE,84737,Convenience Grocery,100,AddressPoints.AddressGrid,R20052,287807.271235889,4115529.62069541,287807.2712,4115529.6207
2690,QUALITY MARKET,,180 E MAIN ST,DELTA,84624,Supermarket,100,AddressPoints.AddressGrid,R20059,364652.490100565,4356982.08640564,364652.4901,4356982.0864
2691,TESORO,62107,8595 S 1300 E,SANDY,84094,Convenience Grocery,100,AddressPoints.AddressGrid,R20158,427856.161347473,4494183.8278371,427856.1613,4494183.8278
2692,SHELL,62109,151 W 10600 S,SANDY,84070,Convenience Grocery,100,AddressPoints.AddressGrid,R20159,424216.405891092,4490143.75594352,424216.4059,4490143.7559
2693,SHELL,621,1344 E FORT UNION BLVD,COTTONWOOD HEIGHTS,84124,Convenience Grocery,100,AddressPoints.AddressGrid,R20162,427805.944285882,4497567.91761035,427805.9443,4497567.9176
2694,TESOR0,620,897 E 6600 S,MURRAY,84107,Convenience Grocery,100,Centerlines.StatewideRoads,R20179,426757.122761346,4498233.04476393,426757.1228,4498233.0448
2695,RAINBOW GARDENS GIFT SHOP,,1851 VALLEY DR,OGDEN,84401,Convenience Grocery,100,AddressPoints.AddressGrid,R20193,422206.936828068,4565441.24654493,422206.9368,4565441.2465
2696,RANDLETT MERCANTILE,,10329 E 4250 S,RANDLETT,84063,Grocery Store,,Manually Placed,R20264,601632,4454320,601632,4454320
2697,RANDYS SERVICE,,5 E MAIN ST,EMERY,84522,Convenience Grocery,100,AddressPoints.AddressGrid,R20270,478477.068631321,4308314.45157569,478477.0686,4308314.4516
2698,REAMS,10,3665 W 6200 S,KEARNS,84118,Supermarket,100,AddressPoints.AddressGrid,R20377,417251.200601418,4498980.39950688,417251.2006,4498980.3995
2699,REAMS,11,2640 W 9000 S,WEST JORDAN,84088,Supermarket,100,AddressPoints.AddressGrid,R20378,419040.96479919,4493462.72503321,419040.9648,4493462.725
2700,RIDLEY`S FAMILY MARKET,,275 E 300 N,MORGAN,84050,Grocery Store,100,AddressPoints.AddressGrid,R21113,442925.073600566,4543880.50868839,442925.0736,4543880.5087
2701,RUBYS INN GENERAL STORE,,26 South Main Street,BRYCE CANYON CITY,84764,Grocery Store,100,AddressPoints.AddressGrid,R21349,397969.032330079,4170228.05035681,397969.0323,4170228.0504
2702,DAVIS FOOD & DRUG,2,750 E 200 N,ROOSEVELT,84066,Supermarket,100,Centerlines.StatewideRoads,R21481,586653.645110703,4461780.30289826,586653.6451,4461780.3029
2703,DAVIS FOOD & DRUG,1,575 W MAIN ST,VERNAL,84078,Grocery Store,100,AddressPoints.AddressGrid,R21546,623854.828481124,4479267.8360732,623854.8285,4479267.8361
2704,SHANGRI,,438 1/2 N MAIN ST,LOGAN,84321,Health Food,100,AddressPoints.AddressGrid,R22154,430624.524790128,4621222.61472709,430624.5248,4621222.6147
2705,SHELL RALLY STOP,,962 ZION PARK BLVD,SPRINGDALE,84767,Convenience Grocery,100,AddressPoints.AddressGrid,R22220,322433.765960743,4117703.56560142,322433.766,4117703.5656
2706,SHIRT TAIL JUNCTION C STO,,550 W 3600 S,BLANDING,84511,Convenience Grocery,100,Centerlines.StatewideRoads,R22315,633548.946148268,4159590.20701949,633548.9461,4159590.207
2707,FOODTOWN ,,173 E MAIN ST,DUCHESNE,84021,Grocery Store,100,Centerlines.StatewideRoads,R22346,551232.17895602,4446081.55206714,551232.179,4446081.5521
2708,PHILLIPS 66 CLAY`S 66,,290 S MAIN ST,BEAVER,84713,Convenience Grocery,100,AddressPoints.AddressGrid,R2235,356394.052773264,4237097.14247542,356394.0528,4237097.1425
2709,SINCLAIR BECK AUTO SERVICE LLC,,83 S STATE ST,FOUNTAIN GREEN,84632,Convenience Grocery,100,AddressPoints.AddressGrid,R22494,445568.924625605,4386569.19388788,445568.9246,4386569.1939
2710,SINCLAIR-ERNIE`S TOO,,994 E ST GEORGEBLVD,SAINT GEORGE,84770,Convenience Grocery,,Manually Placed,R22526,272296,4110086,272296,4110086
2711,CHEVRON ,,2301 S MAIN ST,BOUNTIFUL,84010,Convenience Grocery,100,AddressPoints.AddressGrid,R22670,424722.293711173,4524111.06646205,424722.2937,4524111.0665
2712,SMITH & EDWARDS,,3936 N HWY 126,FARR WEST,84404,Convenience Grocery,92.4300003051758,Centerlines.StatewideRoads,R22687,413280.053200357,4576414.37565661,413280.0532,4576414.3757
2713,SMITHS,30,4275 S HARRISON BLVD,OGDEN,84403,Supermarket,100,AddressPoints.AddressGrid,R22697,420269.626076722,4559775.53824373,420269.6261,4559775.5382
2714,SMITHS,149,1170 E GENTILE ST,LAYTON,84041,Supermarket,100,AddressPoints.AddressGrid,R22705,420702.603791022,4545913.15806956,420702.6038,4545913.1581
2715,SMITHS,87,175 E 442 N,LOGAN,84321,Supermarket,100,AddressPoints.AddressGrid,R22707,430940.514988889,4621218.61908066,430940.515,4621218.6191
2716,SMITHS,83,665 W 5300 S,MURRAY,84123,Supermarket,100,AddressPoints.AddressGrid,R22708,423135.931584332,4500613.19884163,423135.9316,4500613.1988
2717,SMITHS,47,2039 E 9400 S,SANDY,84092,Supermarket,100,AddressPoints.AddressGrid,R22711,429523.334379223,4492654.51852933,429523.3344,4492654.5185
2718,SMITHS,80,828 S 900 W,SALT LAKE CITY,84104,Supermarket,100,AddressPoints.AddressGrid,R22714,422496.022543456,4511560.7688665,422496.0225,4511560.7689
2719,SMITHS,44,876 E 800 S,SALT LAKE CITY,84102,Supermarket,100,AddressPoints.AddressGrid,R22715,426882.462686366,4511452.11373559,426882.4627,4511452.1137
2720,SMITHS,139,7061 S REDWOOD RD,WEST JORDAN,84084,Supermarket,100,AddressPoints.AddressGrid,R22717,420741.954643417,4497334.10964463,420741.9546,4497334.1096
2721,SMITHS,77,402 E SIXTH AVE (300 N),SALT LAKE CITY,84103,Supermarket,90.9199981689453,AddressPoints.AddressGrid,R22718,426010.423294385,4514215.26334693,426010.4233,4514215.2633
2722,SMITHS,81,3470 E 7800 S,SALT LAKE CITY,84121,Supermarket,100,Centerlines.StatewideRoads,R22721,432603.786047378,4495690.72480019,432603.786,4495690.7248
2723,SMITHS,137,4643 S 4000 W,WEST VALLEY CITY,84120,Supermarket,100,AddressPoints.AddressGrid,R22725,416727.186190211,4502447.17967029,416727.1862,4502447.1797
2724,SMITHS,48,1075 E MAIN ST,PRICE,84501,Supermarket,100,AddressPoints.AddressGrid,R22769,517660.507616996,4383308.31481468,517660.5076,4383308.3148
2725,TEXACO SUNMART,843,810 E ST GEORGE BLVD,SAINT GEORGE,84770,Convenience Grocery,100,AddressPoints.AddressGrid,R23874,272003.751729295,4110094.94289839,272003.7517,4110094.9429
2726,SUMMIT MERC,,16 S MAIN ST,COALVILLE,84017,Grocery Store,100,AddressPoints.AddressGrid,R24092,466432.923376004,4529508.44691834,466432.9234,4529508.4469
2727,IDEAL BEACH STORE,,2176 S BEAR LK BLVD,GARDEN CITY,84028,Convenience Grocery,100,AddressPoints.AddressGrid,R24269,468501.61710773,4639488.74719169,468501.6171,4639488.7472
2728,TERRELS THRIFTWAY,,1050 S STATE ST,MOUNT PLEASANT,84647,Supermarket,100,AddressPoints.AddressGrid,R24593,460888.365302132,4375861.31392148,460888.3653,4375861.3139
2729,CARTERS MARKET,,167 E MAIN ST,ENTERPRISE,84725,Grocery Store,100,AddressPoints.AddressGrid,R24603,259997.516387677,4162027.42460374,259997.5164,4162027.4246
2730,SHELL SOUTH CREEK,,1532 S MAIN ST,BEAVER,84713,Convenience Grocery,100,AddressPoints.AddressGrid,R24632,355879.651581084,4234955.73354749,355879.6516,4234955.7335
2731,C BS C STORE,,111 S MAIN ST,BLANDING,84511,Convenience Grocery,100,AddressPoints.AddressGrid,R24636,634318.563312907,4165161.90481302,634318.5633,4165161.9048
2732,SINCLAIR,,1495 W 200 N,CEDAR CITY,84720,Convenience Grocery,100,AddressPoints.AddressGrid,R24639,316407.760336162,4172392.89020092,316407.7603,4172392.8902
2733,CHEVRON ,,990 BUENA VISTA BLVD,WASHINGTON,84780,Convenience Grocery,100,AddressPoints.AddressGrid,R24726,275611.653391132,4112298.31219023,275611.6534,4112298.3122
2734,SINCLAIR,,230 WENDOVER BLVD,WENDOVER,84083,Convenience Grocery,100,AddressPoints.AddressGrid,R24727,243258.97384989,4513914.46913451,243258.9738,4513914.4691
2735,SOELBERGS,,213 E MAIN ST,GRANTSVILLE,84029,Grocery Store,100,Centerlines.StatewideRoads,R24833,376712.455476373,4495368.04701209,376712.4555,4495368.047
2736,HOMETOWN MARKET,,221 N MAIN ST,HUNTINGTON,84528,Supermarket,100,AddressPoints.AddressGrid,R25084,502979.72995223,4353453.26234564,502979.73,4353453.2623
2737,TODDS MARKET,,55 W MAIN ST,MINERSVILLE,84752,Grocery Store,100,AddressPoints.AddressGrid,R25182,331492.355849549,4231459.22271177,331492.3558,4231459.2227
2738,FOODTOWN ,,51 N MAIN ST,COALVILLE,84017,Supermarket,100,AddressPoints.AddressGrid,R25317,466339.046568045,4529701.12896226,466339.0466,4529701.129
2739,TESORO FASTRAC 10,,2690 S 700 E,SALT LAKE CITY,84106,Convenience Grocery,100,AddressPoints.AddressGrid,R25425,426375.600318375,4507269.99452307,426375.6003,4507269.9945
2740,TESORO,,1689 S 1300 E,SALT LAKE CITY,84106,Convenience Grocery,100,AddressPoints.AddressGrid,R25426,427935.273754596,4509556.81992128,427935.2738,4509556.8199
2741,TESORO,,273 W 1700 S,SUNSET,84015,Convenience Grocery,100,Centerlines.StatewideRoads,R25431,413417.38651854,4549151.58753647,413417.3865,4549151.5875
2742,CHEVRON BILLS,,118 S CTR ST,MINERSVILLE,84752,Convenience Grocery,100,AddressPoints.AddressGrid,R2568,331542.162208806,4231286.58154951,331542.1622,4231286.5815
2743,JOES MAIN STREET MARKET,,10 S MAIN ST,PANGUITCH,84759,Grocery Store,100,AddressPoints.AddressGrid,R26750,373633.895794899,4187091.65523568,373633.8958,4187091.6552
2744,WINEGARS SUPERMARKETS INC,,3371 S ORCHARD DR,BOUNTIFUL,84010,Supermarket,79,Centerlines.StatewideRoads,R27532,424472.558240142,4522803.45560612,424472.5582,4522803.4556
2745,WINEGARS SUPERMARKETS INC,,1080 W 300 N,CLEARFIELD,84015,Supermarket,100,AddressPoints.AddressGrid,R27535,412126.540416683,4552514.5367802,412126.5404,4552514.5368
2746,SINCLAIR - BLAIRS,,2991 MONROE,OGDEN,84403,Convenience Grocery,90.9199981689453,AddressPoints.AddressGrid,R2775,419541.673593235,4562555.11594841,419541.6736,4562555.1159
2747,REAMS,8,7235 W 3500 S,MAGNA,84044,Supermarket,100,AddressPoints.AddressGrid,R28186,410076.954785049,4505484.54618033,410076.9548,4505484.5462
2748,MACEYS OREM,11,880 N STATE ST,OREM,84057,Supermarket,100,AddressPoints.AddressGrid,R28192,440422.671243607,4462750.42541725,440422.6712,4462750.4254
2749,SMITHS,75,632 S 100 W,PAYSON,84651,Grocery Store,100,AddressPoints.AddressGrid,R28207,437292.980241207,4431826.90646391,437292.9802,4431826.9065
2750,SINCLAIR - TUGS ONE STOP,,10 N STATE ST,MARYSVALE,84750,Grocery Store,,Manually Placed,R28428,392669,4256416,392669,4256416
2751,HARMONS,2,7755 S 700 E,MIDVALE,84047,Supermarket,100,AddressPoints.AddressGrid,R28437,426363.446313726,4495862.00629918,426363.4463,4495862.0063
2752,DANS FOODS,,2330 E 3300 S,SALT LAKE CITY,84109,Supermarket,100,AddressPoints.AddressGrid,R28440,430396.494501301,4505630.60306781,430396.4945,4505630.6031
2753,PAYSON MARKET,,586 N MAIN ST,PAYSON,84651,Grocery Store,100,AddressPoints.AddressGrid,R28479,437656.584066428,4433771.60985726,437656.5841,4433771.6099
2754,DAYS MARKET,,3121 N CANYON RD,PROVO,84604,Supermarket,100,AddressPoints.AddressGrid,R28489,444570.493330753,4458490.41894355,444570.4933,4458490.4189
2755,SMITHS,65,8055 W 3500 S,MAGNA,84044,Supermarket,100,AddressPoints.AddressGrid,R28932,408431.18004098,4505503.10435696,408431.18,4505503.1044
2756,KOHLERS MARKET,,300 E MAIN ST,LEHI,84043,Grocery Store,100,AddressPoints.AddressGrid,R28958,428347.751157503,4471082.34365696,428347.7512,4471082.3437
2757,BIMBO BAKERIES USA,,1363 N STATE ST,OREM,84057,Retail,100,AddressPoints.AddressGrid,R28985,439973.585644566,4463721.85477394,439973.5856,4463721.8548
2758,CHAOS ASIAN MARKET,,329 N STATE ST,OREM,84057,Specialty Grocery,100,AddressPoints.AddressGrid,R29044,440620.943015896,4461567.44955353,440620.943,4461567.4496
2759,REAMS,9,10650 S 700 E,SANDY,84070,Supermarket,100,Centerlines.StatewideRoads,R29137,426145.693704526,4490026.66826262,426145.6937,4490026.6683
2760,THESTORE,,2050 E 6200 S,SALT LAKE CITY,84121,Supermarket,100,AddressPoints.AddressGrid,R29140,429596.55077149,4498913.34364961,429596.5508,4498913.3436
2761,SINCLAIR RUBY`S INN,,26 South Main Street,BRYCE CANYON CITY,84717,Convenience Grocery,,Manually Placed,R29446,398024,4170065,398024,4170065
2762,MACEY`S MILLCREEK,,4530 S HIGHLAND DR,HOLLADAY,84117,Supermarket,100,AddressPoints.AddressGrid,R29542,428789.875700044,4502827.18374463,428789.8757,4502827.1837
2763,SMITHS,82,1080 W HWY 40,VERNAL,84078,Supermarket,100,AddressPoints.AddressGrid,R29547,623132.507492345,4479104.12594643,623132.5075,4479104.1259
2764,PHILLIPS 66 ,,812 W 200 N,CEDAR CITY,84720,Convenience Grocery,100,AddressPoints.AddressGrid,R29932,317091.301279179,4172472.80312954,317091.3013,4172472.8031
2765,HILLS & HOLLOWS,,840 W HWY 12,BOULDER,84716,Convenience Grocery,100,Centerlines.StatewideRoads,R29951,461392.420816034,4194650.59418969,461392.4208,4194650.5942
2766,DAVIS FOOD & DRUG,4,495 N STATE ST,VERKIN,84745,Supermarket,100,AddressPoints.AddressGrid,R29979,298237.544269076,4120633.80145192,298237.5443,4120633.8015
2767,STEWARTS MARKET,,245 W HIGHWAY 40,ROOSEVELT,84066,Supermarket,100,Centerlines.StatewideRoads,R30008,585346.489974375,4460514.94492873,585346.49,4460514.9449
2768,REAMS,,2396 E 7000 S,SALT LAKE CITY,84121,Supermarket,100,Centerlines.StatewideRoads,R30092,430440.915042839,4497325.61199518,430440.915,4497325.612
2769,HARMONS,73,5454 S REDWOOD RD,TAYLORSVILLE,84123,Supermarket,100,AddressPoints.AddressGrid,R30197,420475.283529958,4500568.48797573,420475.2835,4500568.488
2770,STANS MARKET,,4195 W 5415 S,KEARNS,84118,Supermarket,100,AddressPoints.AddressGrid,R30200,416217.504594338,4500606.86428022,416217.5046,4500606.8643
2771,LUCKY`S,,1585 W 3500 S,WEST VALLEY CITY,84119,Supermarket,100,AddressPoints.AddressGrid,R30340,420901.571668962,4505376.70549303,420901.5717,4505376.7055
2772,STANDARD MARKET,,9009 W 2700 S,MAGNA,84044,Grocery Store,100,Centerlines.StatewideRoads,R30354,406532.630384034,4507247.87489681,406532.6304,4507247.8749
2773,BOWMANS SUPERSTORE,,326 N MAIN ST,KAYSVILLE,84037,Supermarket,100,AddressPoints.AddressGrid,R3037,420925.510742265,4543783.09566373,420925.5107,4543783.0957
2774,DAVIS FOOD & DRUG,3,3765 S 2700 W,WEST VALLEY CITY,84119,Supermarket,100,Centerlines.StatewideRoads,R30376,419070.018119485,4504810.45035247,419070.0181,4504810.4504
2775,GNC,120,3601 S 2700 W,WEST VALLEY CITY,84119,Health Food,100,Centerlines.StatewideRoads,R30394,419074.59295225,4505248.58193773,419074.593,4505248.5819
2776,SMITHS,66,4065 S REDWOOD RD,MURRAY,84123,Supermarket,100,AddressPoints.AddressGrid,R30408,420752.41015028,4504027.54832749,420752.4102,4504027.5483
2777,REAMS,2,2783 S STATE ST,SALT LAKE CITY,84115,Supermarket,100,AddressPoints.AddressGrid,R30452,425063.260180656,4507016.43804006,425063.2602,4507016.438
2778,FISH LAKE RESORTS,,2 N HIGHWAY 25,RICHFIELD,84701,Grocery Store,,Manually Placed,R30552,435648,4265482,435648,4265482
2779,HITE MARINA VILLAGE,,HWY 95,HITE,84533,Convenience Grocery,,Manually Placed,R30951,554180,4192299,554180,4192299
2780,SINCLAIR BULLFROG,,HWY 276,BULLFROG,84533,Convenience Grocery,,Manually Placed,R31012,524274,4152644,524274,4152644
2781,CHERRY HILLS,,1325 S MAIN ST,KAYSVILLE,84037,Convenience Grocery,100,AddressPoints.AddressGrid,R31018,423142.391444764,4540822.78804914,423142.3914,4540822.788
2782,BAKERS CASH & CARRY,,44 W VINE ST,MURRAY,84107,Retail,100,AddressPoints.AddressGrid,R31078,424561.166136368,4501832.05895161,424561.1661,4501832.059
2783,BIMBO BAKERIES USA,,4370 WASHINGTON BLVD SOUTH,OGDEN,84403,Grocery Store,92.4300003051758,AddressPoints.AddressGrid,R31097,418554.574898365,4559416.38949467,418554.5749,4559416.3895
2784,SMITHS,69 (ROSEPARK),1174 W 600 N,SALT LAKE CITY,84116,Supermarket,100,AddressPoints.AddressGrid,R31289,421971.590468859,4515121.50937055,421971.5905,4515121.5094
2785,ASSOCIATED FRESH MARKETS,2365,1740 PARK AVE,PARK CITY,84060,Supermarket,100,Centerlines.StatewideRoads,R31410,457089.911538463,4500976.25456621,457089.9115,4500976.2546
2786,SMITHS,178,156 S MAIN ST,BRIGHAM CITY,84302,Supermarket,100,AddressPoints.AddressGrid,R31412,415164.080953136,4595506.02868526,415164.081,4595506.0287
2787,HOLIDAY OIL,51,153 W 9000 S,SANDY,84070,Convenience Grocery,100,AddressPoints.AddressGrid,R31514,424147.484470686,4493380.08337044,424147.4845,4493380.0834
2788,CHUCK WAGON GENERAL STORE,,CTR & MAIN ST,TORREY,84775,Grocery Store,88.5299987792969,Centerlines.StatewideRoads,R31542,463181.995623981,4239079.50122542,463181.9956,4239079.5012
2789,LDS MAGNA BISHOPS STOREHOUSE,,3648 S 7200 W,MAGNA,84044,Grocery Store,100,AddressPoints.AddressGrid,R31805,410145.535113687,4505227.8084945,410145.5351,4505227.8085
2790,ANA`S LASAL STORE,,2 Main St,LASAL,84530,Grocery Store,,Manually Placed,R32049,653023,4241953,653023,4241953
2791,MELON VINE GROCERY,,76 S BROADWAY,GREEN RIVER,84525,Grocery Store,100,Centerlines.StatewideRoads,R32094,572281.688095347,4316509.04529565,572281.6881,4316509.0453
2792,LIN`S INC PRICE,,760 W PRICE RIVER DR,PRICE,84501,Supermarket,100,AddressPoints.AddressGrid,R32110,515111.744623747,4383353.05352481,515111.7446,4383353.0535
2793,SHELL - C MART,,795 E 700 S,SAINT GEORGE,84770,Convenience Grocery,100,AddressPoints.AddressGrid,R32172,271888.866452819,4108680.30307435,271888.8665,4108680.3031
2794,SUPERIOR GAS AND FOOD,,1950 W 3500 S,WEST VALLEY CITY,84119,Convenience Grocery,100,AddressPoints.AddressGrid,R32255,420262.066369363,4505544.50872102,420262.0664,4505544.5087
2795,SINCLAIR GREYSTONE MARKET,,360 E MAIN ST,TREMONTON,84337,Convenience Grocery,100,Centerlines.StatewideRoads,R32401,403438.242572193,4618424.51164986,403438.2426,4618424.5116
2796,SINCLAIR,,327 W MAIN ST,TREMONTON,84337,Convenience Grocery,100,AddressPoints.AddressGrid,R32404,402597.223004178,4618380.84694364,402597.223,4618380.8469
2797,CASA BLANCA 2,,676 W CTR ST,MIDVALE,84047,Specialty Grocery,100,AddressPoints.AddressGrid,R33175,423051.431319478,4495960.80457408,423051.4313,4495960.8046
2798,PHILLIPS 66 ,,734 S MAIN ST,CEDAR CITY,84720,Convenience Grocery,100,AddressPoints.AddressGrid,R33222,317724.980174487,4170618.27326209,317724.9802,4170618.2733
2799,SMITHS,63,550 N MAIN ST,HEBER CITY,84032,Grocery Store,100,AddressPoints.AddressGrid,R33389,465131.23365473,4485005.51473755,465131.2337,4485005.5147
2800,GNC,,24 W 100 S,BRIGHAM CITY,84302,Health Food,100,AddressPoints.AddressGrid,R3339,415153.583679934,4595687.59392195,415153.5837,4595687.5939
2801,THEGROCERY STORE,,1224 S 400 E,SALT LAKE CITY,84111,Grocery Store,100,AddressPoints.AddressGrid,R33406,425712.28124449,4510522.4994453,425712.2812,4510522.4994
2802,KITCHEN KNEADS LLC,,3030 GRANT AVE,OGDEN,84401,Retail,100,AddressPoints.AddressGrid,R33551,418395.062288668,4562473.13558601,418395.0623,4562473.1356
2803,RITE AID,6132,220 S 7TH E,SALT LAKE CITY,84102,Convenience Grocery,83.3499984741211,Centerlines.StatewideRoads,R33574,425495.98917371,4514405.0192093,425495.9892,4514405.0192
2804,NOLAN`S SINCLAIR,,210 S 700 E,SALT LAKE CITY,84102,Convenience Grocery,100,AddressPoints.AddressGrid,R33682,426445.983560647,4512994.43325796,426445.9836,4512994.4333
2805,HARMONS EMIGRATION MARKET,,1706 E 1300 S,SALT LAKE CITY,84108,Grocery Store,100,AddressPoints.AddressGrid,R33692,428918.891921215,4510398.25850889,428918.8919,4510398.2585
2806,JOHNS MARKETPLACE,,4141 S REDWOOD RD,TAYLORSVILLE,84123,Grocery Store,100,AddressPoints.AddressGrid,R33707,420782.210433156,4503790.35728831,420782.2104,4503790.3573
2807,ASSOCIATED FRESH MARKETS,2367,1825 W 4700 S,TAYLORSVILLE,84118,Supermarket,100,AddressPoints.AddressGrid,R33771,420438.536112695,4502154.18880221,420438.5361,4502154.1888
2808,SMITHS,133,845 E 4500 S,SALT LAKE CITY,84107,Supermarket,100,AddressPoints.AddressGrid,R33781,426709.26463959,4503074.15506819,426709.2646,4503074.1551
2809,SUPERMERCADO,,1179 NAVAJO ST,SALT LAKE CITY,84104,Supermarket,100,AddressPoints.AddressGrid,R33865,421555.423706007,4510636.53547289,421555.4237,4510636.5355
2810,STOUFFERS THRIFT STORE,,1055 N 1750 W,SPRINGVILLE,84663,Convenience Grocery,100,AddressPoints.AddressGrid,R33993,445279.121921397,4448153.39622324,445279.1219,4448153.3962
2811,SOUTHEAST SUPERMARKET,,422 E 900 S,SALT LAKE CITY,84111,Specialty Grocery,100,AddressPoints.AddressGrid,R34496,425783.694723124,4511325.68702744,425783.6947,4511325.687
2812,LIBERTY HEIGHTS FRESH,,1290 S 1100 E,SALT LAKE CITY,84105,Grocery Store,100,AddressPoints.AddressGrid,R34818,427400.803836526,4510459.8986642,427400.8038,4510459.8987
2813,ASSOCIATED FRESH MARKETS,2371,2040 S 2300 E,SALT LAKE CITY,84108,Supermarket,100,AddressPoints.AddressGrid,R35226,430243.316453018,4508683.96608569,430243.3165,4508683.9661
2814,LINS RICHFIELD,,250 S MAIN,RICHFIELD,84701,Supermarket,90.9199981689453,AddressPoints.AddressGrid,R35227,405665.030214293,4291207.23060249,405665.0302,4291207.2306
2815,ASSOCIATED FRESH MARKETS,2350,1638 S 900 E,SALT LAKE CITY,84105,Supermarket,100,AddressPoints.AddressGrid,R35228,426832.962613595,4509586.97521804,426832.9626,4509586.9752
2816,RIDLEYS FAMILY MARKETS,151,74 S 100 E,TREMONTON,84337,Supermarket,100,AddressPoints.AddressGrid,R35238,403084.441270726,4618341.38471434,403084.4413,4618341.3847
2817,SMITHS,131,1485 S HARRISON BLVD,OGDEN,84404,Supermarket,100,AddressPoints.AddressGrid,R35259,420678.260976442,4565928.36735668,420678.261,4565928.3674
2818,FRANZ FAMILY BAKERIES,,1714 N MAIN ST,LAYTON,84041,Convenience Grocery,100,AddressPoints.AddressGrid,R35267,416315.300477106,4548683.11559415,416315.3005,4548683.1156
2819,DAL SOGLIO 66 INC,,7398 S 700 W,MIDVALE,84047,Convenience Grocery,100,Centerlines.StatewideRoads,R35290,422983.173127485,4496618.52572534,422983.1731,4496618.5257
2820,CHEVRON,,125 E RIVERSIDE DR,SAINT GEORGE,84770,Convenience Grocery,100,AddressPoints.AddressGrid,R35725,270597.562627843,4107056.81067214,270597.5626,4107056.8107
2821,DOCK,,HWY 276,LAKE POWELL,84533,Convenience Grocery,,Manually Placed,R36063,523112,4152258,523112,4152258
2822,KENTS FOODS,,260 N MAIN ST,BRIGHAM CITY,84302,Supermarket,100,AddressPoints.AddressGrid,R36072,415316.061699701,4596587.11556499,415316.0617,4596587.1156
2823,SILVER EAGLE SAMCO ,,289 S 100 E,KANAB,84741,Convenience Grocery,100,AddressPoints.AddressGrid,R36080,364293.591949538,4100768.23399638,364293.5919,4100768.234
2824,SMITHS,135,1316 N HWY 89,FARMINGTON,84025,Supermarket,100,AddressPoints.AddressGrid,R36277,423729.946379703,4539432.10818157,423729.9464,4539432.1082
2825,CHEVRON ,,MI MARKER 10 - HWY 12 BRYCE CANYON,BRYCE CANYON CITY,84764,Convenience Grocery,,Manually Placed,R3635,392694,4174487,392694,4174487
2826,FOODTOWN ,,135 S MAIN,LOA,84747,Grocery Store,90.9199981689453,AddressPoints.AddressGrid,R36360,443929.282572312,4250365.0623466,443929.2826,4250365.0623
2827,PARES MARKET,,1745 W CARRIAGE SQ,TAYLORSVILLE,84129,Grocery Store,100,AddressPoints.AddressGrid,R36396,420595.020662815,4503701.31841461,420595.0207,4503701.3184
2828,KOA,,1121 N MAIN ST,CEDAR CITY,84720,Convenience Grocery,100,AddressPoints.AddressGrid,R36489,318072.712790888,4174122.9633392,318072.7128,4174122.9633
2829,STEVES MINI MART,,851 W SUNSET BLVD,SAINT GEORGE,84770,Convenience Grocery,100,AddressPoints.AddressGrid,R36504,268821.720543071,4111830.6127261,268821.7205,4111830.6127
2830,ARTS BREWING SUPPLIES,,640 S WASHINGTON (250 W,SALT LAKE CITY,84101,Retail,90.9199981689453,AddressPoints.AddressGrid,R36708,424137.460549326,4511980.47880711,424137.4605,4511980.4788
2831,TESORO,,249 N MAIN ST,BRIGHAM CITY,84302,Convenience Grocery,100,AddressPoints.AddressGrid,R36807,415225.073730189,4596535.43668154,415225.0737,4596535.4367
2832,LAINIES,,6990 N HWY 38,HONEYVILLE,84314,Grocery Store,100,AddressPoints.AddressGrid,R36871,410104.22124336,4610002.26874221,410104.2212,4610002.2687
2833,SMITHS,136,350 FREEDOM BLVD,PROVO,84601,Supermarket,100,AddressPoints.AddressGrid,R36983,443742.593998039,4454431.4268984,443742.594,4454431.4269
2834,BLACKBURNS SERVICE,,178 E MAIN ST,BICKNELL,84715,Convenience Grocery,100,AddressPoints.AddressGrid,R36992,452730.884177251,4243692.21446887,452730.8842,4243692.2145
2835,ASSOCIATED FRESH MARKETS,2372,3865 S 2300 E,SALT LAKE CITY,84109,Supermarket,100,AddressPoints.AddressGrid,R37057,430431.773135643,4504407.12777737,430431.7731,4504407.1278
2836,K O A CAMPGROUND,,MANDERFIELD RD,BEAVER,84713,Convenience Grocery,,Manually Placed,R37092,356737,4239764,356737,4239764
2837,SHOPKO,084,1553 W 9000 S,WEST JORDAN,84088,Convenience Grocery,100,AddressPoints.AddressGrid,R37196,420854.71679766,4493219.21335473,420854.7168,4493219.2134
2838,MACEYS,,187 E 1000 N,SPANISH FORK,84660,Supermarket,100,AddressPoints.AddressGrid,R37198,444484.18319121,4441743.28646204,444484.1832,4441743.2865
2839,SAN JUAN TRADING CO,,HWY 163,MEXICAN HAT,84531,Grocery Store,,Manually Placed,R37294,600543,4112280,600543,4112280
2840,STEWARTS THRIFTWAY,,621 E MAIN ST,CASTLE DALE,84513,Grocery Store,100,Centerlines.StatewideRoads,R37399,499358.55308175,4340294.99529418,499358.5531,4340294.9953
2841,SHOPKO,087,1018 WASHINGTON BLVD,OGDEN,84404,Convenience Grocery,100,AddressPoints.AddressGrid,R37413,418756.424653696,4566587.17566596,418756.4247,4566587.1757
2842,SHOPKO,082,5959 S STATE ST,MURRAY,84107,Convenience Grocery,100,AddressPoints.AddressGrid,R37414,425012.305247076,4499330.64506468,425012.3052,4499330.6451
2843,SHOPKO,088,1150 N MAIN ST,LAYTON,84041,Convenience Grocery,100,AddressPoints.AddressGrid,R37416,417513.555859847,4547822.39488004,417513.5559,4547822.3949
2844,MACEYS WEST JORDAN,,7859 S 3200 W,WEST JORDAN,84088,Supermarket,100,AddressPoints.AddressGrid,R37441,418301.665793607,4495752.66898473,418301.6658,4495752.669
2845,SINCLAIR-BEAVER CAR & TRUCK,,1035 N MAIN ST,BEAVER,84713,Convenience Grocery,100,AddressPoints.AddressGrid,R37503,356413.45323773,4239067.54608936,356413.4532,4239067.5461
2846,GOOD EARTH NATURAL FOODS,,7905 S 700 E,SANDY,84070,Grocery Store,100,AddressPoints.AddressGrid,R37594,426289.582543205,4495513.47316128,426289.5825,4495513.4732
2847,SHOPKO,085,5800 S REDWOOD RD,SALT LAKE CITY,84123,Convenience Grocery,100,AddressPoints.AddressGrid,R37690,420524.943707029,4499929.11493621,420524.9437,4499929.1149
2848,KITCHEN KNEADS,,7579 S REDWOOD RD,WEST JORDAN,84084,Retail,100,AddressPoints.AddressGrid,R37693,420622.962343606,4496257.66578958,420622.9623,4496257.6658
2849,CHEVRON SUNSET GAS & MARKETPLA,,929 W SUNSET BLVD,SAINT GEORGE,84770,Convenience Grocery,100,AddressPoints.AddressGrid,R37712,268624.304980731,4111842.22376835,268624.305,4111842.2238
2850,SMITHS,189,20 N BLUFF ST,SAINT GEORGE,84770,Supermarket,100,AddressPoints.AddressGrid,R37973,269727.012901953,4110089.23483206,269727.0129,4110089.2348
2851,SINCLAIR - FIRST STOP,,195 E TELEGRAPH ST,WASHINGTON,84780,Convenience Grocery,100,AddressPoints.AddressGrid,R38132,277317.996287807,4112317.41332926,277317.9963,4112317.4133
2852,MOUNT NEBO THRIFTWAY,,965 N MAIN ST,NEPHI,84648,Supermarket,100,AddressPoints.AddressGrid,R38218,428242.144969342,4397282.08581497,428242.145,4397282.0858
2853,TEXACO - SUNMART,954,750 S BLUFF,SAINT GEORGE,84770,Convenience Grocery,90.9199981689453,AddressPoints.AddressGrid,R38553,270066.336562102,4108610.43495026,270066.3366,4108610.435
2854,SHOPKO,083,2165 E 9400 S,SANDY,84092,Convenience Grocery,100,AddressPoints.AddressGrid,R38829,429793.813190587,4492638.04866965,429793.8132,4492638.0487
2855,NPS,,1600 S EMPIRE RD,SALT LAKE CITY,84104,Grocery Store,100,AddressPoints.AddressGrid,R39160,420352.434804846,4509822.87846177,420352.4348,4509822.8785
2856,SHOPKO,091,1374 N MAIN ST,LOGAN,84321,Convenience Grocery,100,Centerlines.StatewideRoads,R39557,430650.195460952,4623149.22519891,430650.1955,4623149.2252
2857,CHEVRON ,,MILE MARKER 30 HWY 276,TICABOO,84533,Convenience Grocery,,Manually Placed,R39677,524717,4165872,524717,4165872
2858,RIVERS EDGE AT DEER PARK,,7000 N OLD HWY 40,HEBER CITY,84032,Convenience Grocery,100,Centerlines.StatewideRoads,R39851,463785.76181904,4493626.27135004,463785.7618,4493626.2714
2859,LA DIANA ,,56 S 900 W,SALT LAKE CITY,84104,Grocery Store,100,AddressPoints.AddressGrid,R39938,422595.642223028,4513385.74904911,422595.6422,4513385.749
2860,COTTONWOOD CONVENIENCE STORE,,878 E MAIN ST,ENTERPRISE,84725,Convenience Grocery,100,Centerlines.StatewideRoads,R40077,261392.397302572,4161996.62149256,261392.3973,4161996.6215
2861,FISH LAKE RESORTS,,743 S HIGHWAY 25,FISH LAKE,84701,Convenience Grocery,,Manually Placed,R40123,435648,4265482,435648,4265482
2862,PETERSONS FRESH MARKET,,1784 W 12600 S,RIVERTON,84065,Supermarket,100,AddressPoints.AddressGrid,R40258,420418.084528698,4486307.63604433,420418.0845,4486307.636
2863,DANS FOODS,,1360 S FOOTHILL DR,SALT LAKE CITY,84108,Supermarket,100,AddressPoints.AddressGrid,R40626,430139.93084188,4510243.47941761,430139.9308,4510243.4794
2864,SINCLAIR SNS QUICK STOP,,110 PATTERSON ST,OGDEN,84401,Convenience Grocery,100,AddressPoints.AddressGrid,R4090,417948.552280532,4562463.4875617,417948.5523,4562463.4876
2865,DICKS MARKET,,84 W PARRISH LN,CENTERVILLE,84014,Supermarket,100,AddressPoints.AddressGrid,R41570,425847.144753121,4530515.18971465,425847.1448,4530515.1897
2866,SHOPKO,097,4850 W 3500 S,WEST VALLEY CITY,84120,Convenience Grocery,100,AddressPoints.AddressGrid,R41715,414927.182278328,4505737.09331015,414927.1823,4505737.0933
2867,ASSOCIATED FRESH MARKETS,2312,560 W CTR ST,PROVO,84601,Grocery Store,100,AddressPoints.AddressGrid,R421,443127.814371128,4453953.00740727,443127.8144,4453953.0074
2868,SMITHS,140,2350 N MAIN ST,SUNSET,84015,Supermarket,100,Centerlines.StatewideRoads,R42174,413915.933984094,4555681.4364731,413915.934,4555681.4365
2869,MACEYS LOGAN,1374,49 E 400 N,LOGAN,84321,Supermarket,100,AddressPoints.AddressGrid,R422,430745.013717086,4621273.42347848,430745.0137,4621273.4235
2870,MORONI VALUE MART,,95 W MAIN ST,MORONI,84646,Convenience Grocery,100,Centerlines.StatewideRoads,R42329,449676.211251226,4375182.35440324,449676.2113,4375182.3544
2871,GUNNISON THRIFTWAY,,520 S MAIN ST,GUNNISON,84634,Supermarket,100,AddressPoints.AddressGrid,R42373,429146.615923556,4333201.10565631,429146.6159,4333201.1057
2872,HERB AWARENESS LLC,,188 S MAIN ST,SPRINGVILLE,84663,Health Food,100,AddressPoints.AddressGrid,R42596,447963.883075486,4446166.52971067,447963.8831,4446166.5297
2873,SAMS CLUB,6683,6525 S STATE ST,MURRAY,84107,Supermarket,100,AddressPoints.AddressGrid,R42617,424994.631124623,4498103.13932252,424994.6311,4498103.1393
2874,ALBERTSONS,339,740 N MAIN,TOOELE,84074,Grocery Store,90.9199981689453,AddressPoints.AddressGrid,R429,390196.511551761,4489004.0987344,390196.5116,4489004.0987
2875,WAL-MART STORE INC,1572,1851 W HWY 40,VERNAL,84078,Supermarket,100,Centerlines.StatewideRoads,R43136,621795.102545712,4477573.69433527,621795.1025,4477573.6943
2876,AMERICAN FOOD MART,,1605 S FOOTHILL DR,SALT LAKE CITY,84108,Convenience Grocery,100,AddressPoints.AddressGrid,R43406,430701.493191848,4509626.34695361,430701.4932,4509626.347
2877,ASSOCIATED FRESH MARKETS,2382,2044 S HARRISON BLVD,OGDEN,84401,Supermarket,100,AddressPoints.AddressGrid,R436,420654.210526234,4564689.83530104,420654.2105,4564689.8353
2878,SMITHS,28,922 E 2100 S,SALT LAKE CITY,84106,Supermarket,100,AddressPoints.AddressGrid,R43633,426976.235078478,4508530.58616677,426976.2351,4508530.5862
2879,SMITHS,144,45 S STATE ST,OREM,84058,Grocery Store,100,AddressPoints.AddressGrid,R43653,441217.053089274,4460892.44982683,441217.0531,4460892.4498
2880,MACEY`S MURRAY,,5632 S 900 E,MURRAY,84121,Supermarket,100,AddressPoints.AddressGrid,R437,426602.106135829,4500141.22528882,426602.1061,4500141.2253
2881,SHOPKO,108,955 N MAIN ST,SPANISH FORK,84660,Convenience Grocery,100,AddressPoints.AddressGrid,R43848,444063.234182542,4441560.29420877,444063.2342,4441560.2942
2882,REAMS,,759 E 400 S,SPRINGVILLE,84663,Supermarket,100,Centerlines.StatewideRoads,R44130,449162.924935917,4445817.58052496,449162.9249,4445817.5805
2883,RIDLEY`S FAMILY MARKETS,160,25 W CTR ST,OREM,84058,Supermarket,100,AddressPoints.AddressGrid,R442,440846.300259027,4460843.33957323,440846.3003,4460843.3396
2884,RITE AID,6135,2266 E 3300 S,SALT LAKE CITY,84109,Convenience Grocery,100,AddressPoints.AddressGrid,R44593,430250.026911484,4505730.1879421,430250.0269,4505730.1879
2885,RITE AID,6139,4714 HOLLADAY BLVD,HOLLADAY,84117,Convenience Grocery,100,AddressPoints.AddressGrid,R44594,430325.39427021,4502079.06508046,430325.3943,4502079.0651
2886,SINCLAIR - OLD WATERING HOLE,,87 N MAIN ST,SPRING CITY,84662,Convenience Grocery,100,Centerlines.StatewideRoads,R44948,457320.953284159,4370087.82310956,457320.9533,4370087.8231
2887,SUNMART,803,2087 S MAIN ST,NEPHI,84648,Convenience Grocery,100,AddressPoints.AddressGrid,R4535,427952.794733806,4392330.94388561,427952.7947,4392330.9439
2888,PACIFIC MART,,4090 W 5415 S,KEARNS,84118,Grocery Store,,Manually Placed,R45434,416375,4500800,416375,4500800
2889,RITE AID,6148,1324 N STATE ST,PROVO,84604,Convenience Grocery,100,AddressPoints.AddressGrid,R45474,443322.682186789,4455945.40795975,443322.6822,4455945.408
2890,TEXACO - RED CLIFFS MARKET,,1409 E ST GEORGE BLVD,SAINT GEORGE,84770,Convenience Grocery,100,AddressPoints.AddressGrid,R45513,273057.126643101,4110142.73055127,273057.1266,4110142.7306
2891,SAIGON MARKET,,1813 N MAIN ST,SUNSET,84015,Specialty Grocery,100,AddressPoints.AddressGrid,R45542,413860.442136042,4554816.69738588,413860.4421,4554816.6974
2892,DANS SUPERMARKET,,3981 S WASATCH BLVD,SALT LAKE CITY,84124,Supermarket,100,AddressPoints.AddressGrid,R45546,432875.834878075,4504096.04512345,432875.8349,4504096.0451
2893,WAL-MART SUPER CENTER,1686,5469 S REDWOOD RD,TAYLORSVILLE,84123,Supermarket,100,AddressPoints.AddressGrid,R45722,420800.831259294,4500426.09956502,420800.8313,4500426.0996
2894,THOMPSONS SMOKEHOUSE,,3975 N HWY 36,ERDA,84074,Convenience Grocery,100,Centerlines.StatewideRoads,R45732,382514.018873995,4474061.12589421,382514.0189,4474061.1259
2895,WAL-MART STORE INC,1573,255 S HWY 55,PRICE,84501,Supermarket,100,Centerlines.StatewideRoads,R45762,517968.449996859,4382901.08916561,517968.45,4382901.0892
2896,TAFT TRAVEL PLAZA,,675 E HWY 24,TORREY,84775,Convenience Grocery,100,Centerlines.StatewideRoads,R45825,464470.63148509,4239076.85475202,464470.6315,4239076.8548
2897,CHEVRON HURRICANE,,687 W STATE ST,HURRICANE,84737,Convenience Grocery,100,Centerlines.StatewideRoads,R46049,295782.94512912,4116915.46883794,295782.9451,4116915.4688
2898,SAMS CLUB,6685,1313 S UNIVERSITY AVE,PROVO,84601,Supermarket,100,AddressPoints.AddressGrid,R46062,444051.442152831,4451990.59508618,444051.4422,4451990.5951
2899,ASSOCIATED FRESH MARKETS,2378,135 E MAIN ST,AMERICAN FORK,84003,Supermarket,100,AddressPoints.AddressGrid,R463,432508.012652615,4469999.31464247,432508.0127,4469999.3146
2900,ASSOCIATED FRESH MARKETS,2377,910 N FAIRFIELD,LAYTON,84040,Supermarket,90.9199981689453,AddressPoints.AddressGrid,R46319,420271.442912469,4547322.73720552,420271.4429,4547322.7372
2901,SHELL-CMART,,1355 S MAIN ST,CEDAR CITY,84720,Convenience Grocery,100,AddressPoints.AddressGrid,R46363,316674.556748637,4169520.92535437,316674.5567,4169520.9254
2902,WAL-MART,1768,1355 SANDHILL RD,OREM,84057,Supermarket,100,AddressPoints.AddressGrid,R46434,439584.83152221,4458279.75649069,439584.8315,4458279.7565
2903,RITE AID,6123,535 S MAIN ST,BOUNTIFUL,84010,Convenience Grocery,100,AddressPoints.AddressGrid,R46473,425902.373775392,4526203.20503207,425902.3738,4526203.205
2904,KENTS,,580 S STATE ST,CLEARFIELD,84015,Supermarket,100,AddressPoints.AddressGrid,R46544,414511.071203928,4550865.9984967,414511.0712,4550865.9985
2905,SAMS CLUB,6684,4949 S 900 W,RIVERDALE,84405,Grocery Store,100,AddressPoints.AddressGrid,R46547,416009.132329067,4558449.23422667,416009.1323,4558449.2342
2906,SMITHS,153,10305 S 1300 E,SANDY,84092,Supermarket,100,AddressPoints.AddressGrid,R46760,427898.651636349,4490685.17995703,427898.6516,4490685.18
2907,WAL-MART,1708,4848 S 900 W ST,RIVERDALE,84405,Supermarket,90.9199981689453,AddressPoints.AddressGrid,R46972,416176.316023027,4558751.09348074,416176.316,4558751.0935
2908,SHOPKO,109,4060 RIVERDALE RD,RIVERDALE,84405,Convenience Grocery,100,AddressPoints.AddressGrid,R46973,417783.91633325,4560218.16398234,417783.9163,4560218.164
2909,WAL-MART,1699,745 W HILLFIELD RD,LAYTON,84041,Supermarket,98.7799987792969,AddressPoints.AddressGrid,R46975,417691.960776885,4546853.41581524,417691.9608,4546853.4158
2910,RAMSAY,,HWY 89,MOUNT CARMEL,84755,Convenience Grocery,,Manually Placed,R47292,350806,4120915,350806,4120915
2911,SHOPKO,104,747 S MAIN ST,BRIGHAM CITY,84302,Convenience Grocery,100,AddressPoints.AddressGrid,R47298,415292.811770991,4594182.16799903,415292.8118,4594182.168
2912,WAL-MART SUPERCENTER,1827,6545 LANDMARK DR,PARK CITY,84060,Grocery Store,100,AddressPoints.AddressGrid,R47598,453611.924215287,4508487.91489043,453611.9242,4508487.9149
2913,JENKINS OIL CO,,924 S MAIN ST,CEDAR CITY,84720,Convenience Grocery,100,AddressPoints.AddressGrid,R4764,317405.015212465,4170302.28306333,317405.0152,4170302.2831
2914,CHEVRON ,,1100 W 200 N,CEDAR CITY,84720,Convenience Grocery,100,AddressPoints.AddressGrid,R4765,316781.784862963,4172498.76090923,316781.7849,4172498.7609
2915,CHEVRON STAGE STOP,,288 S 100 E,KANAB,84741,Convenience Grocery,100,AddressPoints.AddressGrid,R4783,364223.32008417,4100765.96469196,364223.3201,4100765.9647
2916,SNIDER BROS,,6245 S HIGHLAND DR,SALT LAKE CITY,84121,Grocery Store,100,AddressPoints.AddressGrid,R47873,429554.130093179,4498868.23600349,429554.1301,4498868.236
2917,CHEVRON,,402 S MAIN ST,MILFORD,84751,Convenience Grocery,100,AddressPoints.AddressGrid,R4795,324315.242077902,4251443.25342683,324315.2421,4251443.2534
2918,CHEVRON ,,HWY 89 & HWY 9,MOUNT CARMEL,84755,Convenience Grocery,82.8000030517578,Centerlines.StatewideRoads,R4800,350854.202769455,4120959.50510244,350854.2028,4120959.5051
2919,CHEVRON FOODMART,,4503 S STATE ST,MURRAY,84107,Convenience Grocery,100,AddressPoints.AddressGrid,R4803,424962.255250841,4502940.17561373,424962.2553,4502940.1756
2920,BENSONCHEVRON,,2098 HARRISON BLVD,OGDEN,84401,Convenience Grocery,100,AddressPoints.AddressGrid,R4807,420562.011332892,4564623.13445765,420562.0113,4564623.1345
2921,HONEY BEE PRODUCE CO INC,,1212 E  PKWY,DRAPER,84020,Supermarket,90.9199981689453,Centerlines.StatewideRoads,R48343,427684.223902055,4507817.73246351,427684.2239,4507817.7325
2922,RITE AID,6125,860 N FAIRFIELD RD,LAYTON,84041,Convenience Grocery,100,AddressPoints.AddressGrid,R48344,420270.955638514,4547222.32396551,420270.9556,4547222.324
2923,RITE AID,6127,950 IRON HORSE DR,PARK CITY,84060,Convenience Grocery,100,AddressPoints.AddressGrid,R48345,457236.643789628,4500998.59773475,457236.6438,4500998.5977
2924,RITE AID,6136,2332 E 2100 S,SALT LAKE CITY,84109,Convenience Grocery,100,AddressPoints.AddressGrid,R48346,430495.070022397,4508605.83518754,430495.07,4508605.8352
2925,CHEVRON,,1946 S RIVER RD,SAINT GEORGE,84770,Convenience Grocery,100,AddressPoints.AddressGrid,R48369,272962.143027158,4106248.76427256,272962.143,4106248.7643
2926,HARTS,,260 S GREENSPRING DR,WASHINGTON,84780,Convenience Grocery,98.9599990844727,AddressPoints.AddressGrid,R48371,275768.040486461,4111888.67489837,275768.0405,4111888.6749
2927,WAL-MART,1888,1550 N MAIN ST,LOGAN,84321,Supermarket,100,AddressPoints.AddressGrid,R48520,430974.610243626,4623499.75729571,430974.6102,4623499.7573
2928,SMITHS,138,1634 W S JORDAN PKWY,SOUTH JORDAN,84095,Supermarket,100,AddressPoints.AddressGrid,R48538,420646.810923175,4490784.5768828,420646.8109,4490784.5769
2929,SHOPKO,105,125 S STATE ST,OREM,84058,Convenience Grocery,100,AddressPoints.AddressGrid,R48703,441143.774047498,4460695.86959128,441143.774,4460695.8696
2930,KOREAN BBQ MARKET,,115 S MAIN ST,LOGAN,84321,Specialty Grocery,100,AddressPoints.AddressGrid,R48805,430521.870089922,4620116.01557529,430521.8701,4620116.0156
2931,DOLLAR TREE,2603,413 W 1425 N,LAYTON,84041,Convenience Grocery,100,AddressPoints.AddressGrid,R48807,418134.092280483,4548111.73815452,418134.0923,4548111.7382
2932,REAMS,6,2600 W 4700 S,WEST VALLEY CITY,84119,Supermarket,100,AddressPoints.AddressGrid,R49048,419178.341249217,4502449.92928761,419178.3412,4502449.9293
2933,VALLEY MARKET,,2555 WOLFCREEK DR,EDEN,84310,Retail,,Manually Placed,R49374,430797,4573015,430797,4573015
2934,WHOLE FOODS MARKET,,544 S 700 E,SALT LAKE CITY,84102,Supermarket,100,AddressPoints.AddressGrid,R49712,426420.206768427,4512239.51364159,426420.2068,4512239.5136
2935,MACEYS SANDY,45,7850 S 1300 E,SANDY,84094,Supermarket,100,AddressPoints.AddressGrid,R49714,427682.072285465,4495688.90570719,427682.0723,4495688.9057
2936,QUILTED BEAR,,3651 WALL AVE,OGDEN,84405,Retail,100,AddressPoints.AddressGrid,R49952,417764.494985615,4561008.64763637,417764.495,4561008.6476
2937,RITE AID,6131,72 S MAIN ST,SALT LAKE CITY,84101,Convenience Grocery,100,AddressPoints.AddressGrid,R49990,424772.830981363,4513333.77780128,424772.831,4513333.7778
2938,REAMS,15,8725 S HIGHLAND DR,SANDY,84093,Supermarket,100,AddressPoints.AddressGrid,R50008,429690.650333257,4493839.89595755,429690.6503,4493839.896
2939,KOA,,3225 S HWY 191,MOAB,84532,Convenience Grocery,100,AddressPoints.AddressGrid,R50633,630982.99906452,4264967.00604651,630982.9991,4264967.006
2940,SAMS CLUB,6686,1905 S 300 W,SALT LAKE CITY,84115,Grocery Store,100,AddressPoints.AddressGrid,R50750,424149.990451026,4509027.33411967,424149.9905,4509027.3341
2941,SAMS CLUB,6682,1055 W HILLFIELD RD,LAYTON,84041,Grocery Store,98.7799987792969,AddressPoints.AddressGrid,R51077,417292.361328503,4547155.92940862,417292.3613,4547155.9294
2942,GNC,1737,10450 S STATE STE 2206,SANDY,84070,Health Food,90.9199981689453,AddressPoints.AddressGrid,R51536,424228.831376945,4490571.82611299,424228.8314,4490571.8261
2943,JUANITAS GROCERY,,118 W MAIN ST,MORONI,84646,Grocery Store,100,Centerlines.StatewideRoads,R51546,449632.548555477,4375212.65717043,449632.5486,4375212.6572
2944,FRANZ FAMILY BAKERIES,,1180 W CTR ST,PROVO,84601,Retail,100,Centerlines.StatewideRoads,R51708,442002.452386148,4453720.29398725,442002.4524,4453720.294
2945,MOAB VALLEY RV PARK,,1773 N HWY 191,MOAB,84532,Convenience Grocery,100,Centerlines.StatewideRoads,R51768,624078.73486155,4273428.43993209,624078.7349,4273428.4399
2946,SPANISH TRAIL RV PARK,,2980 S HWY 191,MOAB,84532,Convenience Grocery,100,AddressPoints.AddressGrid,R51769,630371.999291289,4265454.00155925,630371.9993,4265454.0016
2947,GNC,7462,1669 W 9000 S,WEST JORDAN,84088,Health Food,100,AddressPoints.AddressGrid,R51934,420651.662779555,4493218.55901542,420651.6628,4493218.559
2948,SINCLAIR PUPS,,32 E GENEVA DR,EAST CARBON,84520,Convenience Grocery,100,Centerlines.StatewideRoads,R51953,549879.911344034,4377141.30444951,549879.9113,4377141.3044
2949,SHELL - FAST STOP,1108,2615 E BENGAL BLVD,SALT LAKE CITY,84121,Convenience Grocery,100,AddressPoints.AddressGrid,R52205,430835.013216575,4495860.22426871,430835.0132,4495860.2243
2950,JOLLEYS CORNER VARIETY INC,,1676 E 1300 S,SALT LAKE CITY,84105,Retail,100,AddressPoints.AddressGrid,R52228,428848.620055848,4510392.55740362,428848.6201,4510392.5574
2951,SHELL - RAMSEY,,43 E CTR ST,KANAB,84741,Convenience Grocery,100,AddressPoints.AddressGrid,R52252,364157.085631573,4101327.65234094,364157.0856,4101327.6523
2952,NORTHWEST CAP,,1300 W 300 N,SALT LAKE CITY,84116,Salvage Grocery,100,AddressPoints.AddressGrid,R52374,421743.114672416,4514289.22457224,421743.1147,4514289.2246
2953,ASHLEY VALLEY FOOD BANK,,426 E 200 S,VERNAL,84078,Salvage Grocery,100,Centerlines.StatewideRoads,R52392,625452.514992636,4479073.2294224,625452.515,4479073.2294
2954,CITY MARKET LLC,10,425 S MAIN ST,MOAB,84532,Grocery Store,100,AddressPoints.AddressGrid,R5245,626373.993062135,4269710.00542546,626373.9931,4269710.0054
2955,GNC,,1395 N 200 E,LOGAN,84321,Health Food,100,AddressPoints.AddressGrid,R52458,431046.866010096,4623152.26831629,431046.866,4623152.2683
2956,CHEVRON OF FILLMORE,,1060 S HWY 99,FILLMORE,84631,Convenience Grocery,100,Centerlines.StatewideRoads,R52459,383262.435258738,4311888.55911051,383262.4353,4311888.5591
2957,RIDLEYS SUPERMARKET,,780 E MAIN ST,HYRUM,84319,Supermarket,100,AddressPoints.AddressGrid,R52577,430553.452403263,4609349.91333231,430553.4524,4609349.9133
2958,ASSOCIATED FRESH MARKETS,2381,3555 W 3500 S,WEST VALLEY CITY,84119,Supermarket,100,AddressPoints.AddressGrid,R52579,417541.525384864,4505375.7031009,417541.5254,4505375.7031
2959,GNC,5538,1084 E FT UNION BLVD,MIDVALE,84047,Health Food,100,AddressPoints.AddressGrid,R52692,427160.981517988,4497171.11650668,427160.9815,4497171.1165
2960,GNC,2557,1070 NEWGATE MALL,OGDEN,84405,Health Food,,Manually Placed,R52757,417658,4560906,417658,4560906
2961,DOVE FAMILY HOLDINGS LLC,,530 N MAIN ST,MILFORD,84751,Grocery Store,100,AddressPoints.AddressGrid,R52762,324554.653694106,4252469.62640248,324554.6537,4252469.6264
2962,HERB SHOP,,912 S STATE ST,OREM,84058,Health Food,100,AddressPoints.AddressGrid,R52852,441493.69243564,4459109.81375092,441493.6924,4459109.8138
2963,CHEGOYA,,202 S 900 E,SALT LAKE CITY,84102,Convenience Grocery,100,AddressPoints.AddressGrid,R53321,426939.056075711,4512995.07367516,426939.0561,4512995.0737
2964,FOUNTAIN GREEN GENERAL STORE,,84 S STATE ST,FOUNTAIN GREEN,84632,Grocery Store,100,Centerlines.StatewideRoads,R53782,445536.381573084,4386564.61685831,445536.3816,4386564.6169
2965,KWICK STOP,1,506 E 26TH ST (& ADAMS AVE),OGDEN,84401,Convenience Grocery,100,Centerlines.StatewideRoads,R53794,418899.928084359,4563481.90272372,418899.9281,4563481.9027
2966,HARMONS,,4874 W 6200 S,KEARNS,84118,Supermarket,100,AddressPoints.AddressGrid,R54325,414843.364197012,4499208.17919767,414843.3642,4499208.1792
2967,CBR ENTERPRISES LLC,,2275 W SANTA CLARA DR,SANTA CLARA,84765,Convenience Grocery,100,AddressPoints.AddressGrid,R54342,265669.322574368,4112116.07173106,265669.3226,4112116.0717
2968,SMITHS MARKET PLACE, 94,455 S 500 E,SALT LAKE CITY,84102,Supermarket,100,AddressPoints.AddressGrid,R54423,426088.860479027,4512403.33514526,426088.8605,4512403.3351
2969,SMITHS MARKET PLACE,495,1820 W 9000 S,WEST JORDAN,84088,Grocery Store,100,AddressPoints.AddressGrid,R54427,420392.015372105,4493651.12602738,420392.0154,4493651.126
2970,RTA ARCHVIEW RESORT,,13701 N Highway 191,MOAB,84532,Convenience Grocery,,Manually Placed,R54447,614149,4281731,614149,4281731
2971,ASSOCIATED FRESH MARKETS,2386,652 N 800 E,SPANISH FORK,84660,Supermarket,100,Centerlines.StatewideRoads,R54675,445428.542140264,4441070.89019153,445428.5421,4441070.8902
2972,PARK CITY MARKET INC,,1500 SNOW CRK DR,PARK CITY,84060,Supermarket,100,AddressPoints.AddressGrid,R54826,456968.879790299,4501404.94940794,456968.8798,4501404.9494
2973,ASSOCIATED FRESH MARKETS,2388,5691 S HARRISON BLVD SOUTH,OGDEN,84403,Supermarket,100,AddressPoints.AddressGrid,R54829,421006.07104914,4556910.05414079,421006.071,4556910.0541
2974,EL CENTRO DE AMERICAN FORK,,45 W MAIN ST,AMERICAN FORK,84003,Specialty Grocery,100,Centerlines.StatewideRoads,R54855,432099.104558735,4469871.84248563,432099.1046,4469871.8425
2975,MACEYS,,325 36TH ST,OGDEN,84405,Supermarket,100,AddressPoints.AddressGrid,R54859,418423.136229532,4561155.71387704,418423.1362,4561155.7139
2976,COSTCO,113,1818 S 300 W,SALT LAKE CITY,84115,Grocery Store,100,AddressPoints.AddressGrid,R54957,423870.190785008,4509275.1268479,423870.1908,4509275.1268
2977,FLAMING GORGE MARKET,,75 HWY 43,MANILA,84046,Grocery Store,92.4300003051758,AddressPoints.AddressGrid,R54964,607610.388694764,4538259.22584977,607610.3887,4538259.2258
2978,RIDLEY`S FAMILY MARKETS,158,1585 N STATE ST,OREM,84057,Supermarket,100,Centerlines.StatewideRoads,R54984,439861.007701274,4464199.41369639,439861.0077,4464199.4137
2979,DOLLAR TREE,2612,129 N HARRISVILLE RD,OGDEN,84404,Convenience Grocery,100,AddressPoints.AddressGrid,R54999,418553.363674534,4568273.81877274,418553.3637,4568273.8188
2980,SMITHS,72,1725 W UINTAH WAY,PARK CITY,84060,Supermarket,89.7399978637695,AddressPoints.AddressGrid,R55039,454149.603180403,4508232.52764955,454149.6032,4508232.5276
2981,GNC,5240,2274 S 1300 E,SALT LAKE CITY,84106,Health Food,100,AddressPoints.AddressGrid,R55054,427631.193923506,4508179.10850197,427631.1939,4508179.1085
2982,GNC,5029,1400 S FOOTHILL BLVD SPACE 100,SALT LAKE CITY,84108,Health Food,90.9199981689453,AddressPoints.AddressGrid,R55083,430175.376541578,4510152.08770682,430175.3765,4510152.0877
2983,WAL-MART SUPER CENTER,2207,7250 S UNION PARK AVE,MIDVALE,84047,Supermarket,,Manually Placed,R55331,427363,4496915,427363,4496915
2984,WAL-MART SUPER CENTER,2307,11328 S JORDAN GATEWAY RD,SOUTH JORDAN,84095,Grocery Store,100,AddressPoints.AddressGrid,R55372,423672.190493922,4488713.1265727,423672.1905,4488713.1266
2985,SMITHS,42,633 S MAIN ST,CEDAR CITY,84720,Supermarket,100,AddressPoints.AddressGrid,R55855,318113.114762814,4170782.05299942,318113.1148,4170782.053
2986,TARGET,T1750,200 N MARKET PLACE DR,CENTERVILLE,84014,Supermarket,98.9599990844727,AddressPoints.AddressGrid,R56311,425289.181269364,4530056.92944315,425289.1813,4530056.9294
2987,TARGET STORE T,,7025 S PARK CTR,SALT LAKE CITY,84121,Supermarket,90.9199981689453,AddressPoints.AddressGrid,R56369,428102.902956172,4497248.27981798,428102.903,4497248.2798
2988,TARGET,T1752,10130 S STATE ST,SANDY,84070,Supermarket,100,AddressPoints.AddressGrid,R56422,424395.082289334,4491109.44938965,424395.0823,4491109.4494
2989,ASSOCIATED FRESH MARKETS,2389,170 W 200 N,KAYSVILLE,84037,Supermarket,100,AddressPoints.AddressGrid,R56442,420918.661062669,4543453.69847015,420918.6611,4543453.6985
2990,BIG ROCK CANDY MOUNTAIN,,4479 N HWY 89,MARYSVALE,84750,Convenience Grocery,100,Centerlines.StatewideRoads,R56599,391447.357965019,4261042.76520911,391447.358,4261042.7652
2991,DICKS MARKET,,2280 S ORCHARD DR,BOUNTIFUL,84010,Grocery Store,100,AddressPoints.AddressGrid,R56899,425791.10128724,4524146.49823963,425791.1013,4524146.4982
2992,WINEGARS SUPERMARKETS INC,,3440 W 4800 S,ROY,84067,Supermarket,100,AddressPoints.AddressGrid,R56903,410829.472836925,4558957.92735252,410829.4728,4558957.9274
2993,GOOD EARTH,,500 S STATE ST,OREM,84058,Grocery Store,100,Centerlines.StatewideRoads,R56926,441255.473566103,4459930.18096512,441255.4736,4459930.181
2994,PHILLIPS 66 ,,1944 N MAIN ST,CEDAR CITY,84720,Convenience Grocery,100,AddressPoints.AddressGrid,R57031,318399.165457569,4175955.13429317,318399.1655,4175955.1343
2995,NEIGHBORS MARKET,,15 S HWY 89,NORTH SALT LAKE,84054,Grocery Store,100,Centerlines.StatewideRoads,R5724,423260.079120456,4521555.66055402,423260.0791,4521555.6606
2996,TARGET STORE T,,1135 RIVERDALE RD,RIVERDALE,84405,Supermarket,,Manually Placed,R57242,415600,4558510,415600,4558510
2997,DOLLAR S MART,,162 N GRAYSON PKWY,BLANDING,84511,Grocery Store,100,Centerlines.StatewideRoads,R57252,634821.098065614,4165594.33855929,634821.0981,4165594.3386
2998,TERRYS FOOD & DRUG,,65 E Main Street,ORDERVILLE,84758,Supermarket,92.4300003051758,Centerlines.StatewideRoads,R57253,358458.699263415,4131226.13089759,358458.6993,4131226.1309
2999,TARGET GROCERY T,,175 W CTR ST,OREM,84058,Supermarket,100,AddressPoints.AddressGrid,R57416,440576.914333534,4460781.19822185,440576.9143,4460781.1982
3000,ALBERTSONS,301,915 W RED CLIFFS DR,WASHINGTON,84780,Supermarket,100,AddressPoints.AddressGrid,R57961,275713.430998218,4111787.16181143,275713.431,4111787.1618
3001,ABARROTES EL PUEBLO,,360 S CONCORD ST,SALT LAKE CITY,84104,Specialty Grocery,100,AddressPoints.AddressGrid,R58057,421736.042239012,4512697.72518571,421736.0422,4512697.7252
3002,HERB SHOP,,438 S STATE ST,MOUNT PLEASANT,84647,Health Food,100,AddressPoints.AddressGrid,R58318,460866.695533248,4376842.16854866,460866.6955,4376842.1685
3003,TEXACO RIVERSIDE,,1572 CONVENTION CTR DR,SAINT GEORGE,84770,Convenience Grocery,100,AddressPoints.AddressGrid,R58332,270445.373049583,4107039.28273187,270445.373,4107039.2827
3004,SHIRLYNS NATURAL FOODS,,5578 S REDWOOD,TAYLORSVILLE,84118,Health Food,90.9199981689453,AddressPoints.AddressGrid,R58338,420536.394644972,4500451.18721265,420536.3946,4500451.1872
3005,TARGET T1755,,815 W 2000 N,LAYTON,84041,Supermarket,100,Centerlines.StatewideRoads,R58690,417580.262965449,4549105.47972717,417580.263,4549105.4797
3006,GRAND STAIRCASE COUNTRY STORE,,105 N KODACHROME DR,CANNONVILLE,84718,Grocery Store,,Manually Placed,R58696,406867,4158472,406867,4158472
3007,SMITHS,73,210 E 700 S,PLEASANT GROVE,84062,Supermarket,100,AddressPoints.AddressGrid,R58770,437389.711082331,4467300.8193239,437389.7111,4467300.8193
3008,CHEVRON ,,1744 W ROYAL HUNT DR,CEDAR CITY,84720,Convenience Grocery,,Manually Placed,R58784,316094,4169799,316094,4169799
3009,CHEVRON CORNER MART,,2983 WASHINGTON BLVD,OGDEN,84403,Grocery Store,100,Centerlines.StatewideRoads,R58802,418607.306078024,4562587.30976925,418607.3061,4562587.3098
3010,SMITHS,142,951 W 1700 S,SYRACUSE,84075,Supermarket,100,AddressPoints.AddressGrid,R58856,412304.59031984,4549060.56496075,412304.5903,4549060.565
3011,SMITHS,158,4080 W 9000 S,WEST JORDAN,84088,Supermarket,100,AddressPoints.AddressGrid,R58858,416414.551220683,4493596.746254,416414.5512,4493596.7463
3012,PACIFIC FOOD INC,,145 E 1300 S - 203,SALT LAKE CITY,84115,Specialty Grocery,83.3499984741211,Centerlines.StatewideRoads,R58861,427698.766653405,4513877.20496506,427698.7667,4513877.205
3013,SMITHS,,212 E 12300 S,DRAPER,84020,Grocery Store,100,AddressPoints.AddressGrid,R59137,425048.920404266,4486445.214365,425048.9204,4486445.2144
3014,REDMOND HERITAGE FARM STORE,,695 S 100 W,SAINT GEORGE,84790,Health Food,100,AddressPoints.AddressGrid,R59229,270245.792598672,4108719.0204706,270245.7926,4108719.0205
3015,MACEY`S, 13,760 E MAIN ST,LEHI,84043,Supermarket,100,Centerlines.StatewideRoads,R59339,428945.539496197,4471166.34684733,428945.5395,4471166.3468
3016,SERVICE STATION INC,,1036 W RED HILLS PKWY,WASHINGTON,84780,Convenience Grocery,100,AddressPoints.AddressGrid,R59365,275491.700465524,4112261.03573267,275491.7005,4112261.0357
3017,BIMBO BAKERIES USA,,66 N STATE RD (HWY 89),AMERICAN FORK,84003,Convenience Grocery,90.9199981689453,Centerlines.StatewideRoads,R59368,431027.754309338,4470032.53005965,431027.7543,4470032.5301
3018,CHEVRON ,,17030 S HIGHWAY 161,COVE FORT,84713,Convenience Grocery,,Manually Placed,R59564,360231,4275050,360231,4275050
3019,BIG LOTS,4116,1290 N STATE ST,PROVO,84604,Convenience Grocery,100,AddressPoints.AddressGrid,R59575,443322.445510868,4455902.42343587,443322.4455,4455902.4234
3020,DAVES HEALTH & NUTRITION,,1817 W 9000 S,WEST JORDAN,84088,Health Food,100,AddressPoints.AddressGrid,R59847,420379.304482936,4493343.16888782,420379.3045,4493343.1689
3021,HARMONS ORCHARD,88,870 E 800 N,OREM,84097,Supermarket,100,AddressPoints.AddressGrid,R60026,442632.444707419,4462464.17981291,442632.4447,4462464.1798
3022,TEXACO SUNMART,807,885 S PARK RD,FILLMORE,84631,Convenience Grocery,90.9199981689453,AddressPoints.AddressGrid,R60166,382778.412965141,4312140.51274824,382778.413,4312140.5127
3023,TEXACO - KOLOB FUELS,,3802 E HIGHWAY 144,HARMONY,84757,Convenience Grocery,100,AddressPoints.AddressGrid,R60312,303434.745623598,4150608.6745865,303434.7456,4150608.6746
3024,GNC,6613,785 E 200 S STE 8,LEHI,84043,Health Food,100,AddressPoints.AddressGrid,R60335,429010.972776597,4470974.64915185,429010.9728,4470974.6492
3025,JC PENNEY,1413,3601 S 2700 W,WEST VALLEY CITY,84119,Convenience Grocery,100,Centerlines.StatewideRoads,R60356,419074.59295225,4505248.58193773,419074.593,4505248.5819
3026,SOUTH RIDGE FARMS,2 STORE,720 W 900 S,SANTAQUIN,84655,Specialty Grocery,92.4300003051758,Centerlines.StatewideRoads,R60571,445021.191204351,4452597.7622073,445021.1912,4452597.7622
3027,LEES MARKET PLACE,,2645 N WASHINGTON BLVD,OGDEN,84415,Supermarket,92.4300003051758,Centerlines.StatewideRoads,R60595,418629.080852455,4563340.62077243,418629.0809,4563340.6208
3028,MACEYS PROVO,40,1400 N STATE,PROVO,84601,Supermarket,90.9199981689453,AddressPoints.AddressGrid,R60694,443323.301720818,4456054.61997518,443323.3017,4456054.62
3029,LUCKY`S,,729 N REDWOOD,SALT LAKE CITY,84116,Supermarket,90.9199981689453,AddressPoints.AddressGrid,R60735,420631.071974428,4515371.15373981,420631.072,4515371.1537
3030,QADERI SWEETZ N SPICEZ,,3546 S REDWOOD RD,WEST VALLEY CITY,84119,Specialty Grocery,100,AddressPoints.AddressGrid,R60747,420626.992795319,4505394.5049145,420626.9928,4505394.5049
3031,ASSOCIATED FRESH MARKETS,2391,1860 E 9400 S,SANDY,84093,Supermarket,100,AddressPoints.AddressGrid,R60812,429087.356449572,4492387.20699868,429087.3564,4492387.207
3032,WHOLE FOOD MARKET,,1131 E WILMINGTON,SALT LAKE CITY,84106,Supermarket,90.9199981689453,AddressPoints.AddressGrid,R61296,427478.454421783,4508432.32389322,427478.4544,4508432.3239
3033,LA NUEVA CAMPOS,,5318 S 4015 W,KEARNS,84118,Specialty Grocery,100,AddressPoints.AddressGrid,R61305,416532.603777867,4500884.11619955,416532.6038,4500884.1162
3034,RITE AID,6304,1550 N STATE ST,OREM,84057,Convenience Grocery,100,AddressPoints.AddressGrid,R61514,439986.045935701,4464087.04572004,439986.0459,4464087.0457
3035,CHINA TOWN MARKET,,1496 MAJOR ST,SALT LAKE CITY,84115,Grocery Store,100,AddressPoints.AddressGrid,R61521,424866.081294237,4509937.83334881,424866.0813,4509937.8333
3036,SMITHS,85,980 E FT UNION BLVD,MIDVALE,84047,Supermarket,100,AddressPoints.AddressGrid,R61711,426947.966228031,4497111.97537066,426947.9662,4497111.9754
3037,LEE`S MARKETPLACE,,555 E 1400 N,LOGAN,84321,Supermarket,100,AddressPoints.AddressGrid,R61721,431805.99010459,4623326.39914463,431805.9901,4623326.3991
3038,RITE AID,6311,819 N MAIN ST,PAYSON,84651,Convenience Grocery,100,AddressPoints.AddressGrid,R61883,437501.68663719,4433962.41937698,437501.6866,4433962.4194
3039,GNC,3148,1770 RED CLIFFS DR SPACE 1166,ST GEORGE,84770,Health Food,100,AddressPoints.AddressGrid,R61971,273866.843696237,4110779.28436291,273866.8437,4110779.2844
3040,LOOSE WHEELS SERVICE,,55 MOVIE RANCH RD,DUCK CREEK VILLAGE,84762,Convenience Grocery,,Manually Placed,R61972,352877,4154435,352877,4154435
3041,GNC,6661,1163 E MAIN ST STE - 1,PRICE,84501,Health Food,90.9199981689453,AddressPoints.AddressGrid,R61976,517783.244965204,4383369.5373066,517783.245,4383369.5373
3042,7-11,,1180 W STATE ST,HURRICANE,84737,Convenience Grocery,100,AddressPoints.AddressGrid,R62143,294867.223465584,4116995.68184382,294867.2235,4116995.6818
3043,PIRATE O,,11901 S 700 E,DRAPER,84020,Grocery Store,100,AddressPoints.AddressGrid,R62269,426259.1627263,4487392.96916853,426259.1627,4487392.9692
3044,GNC,9491,1380 S PROVIDENCE CTR STE C,CEDAR CITY,84720,Health Food,90.9199981689453,AddressPoints.AddressGrid,R62271,315978.952294705,4169385.29612953,315978.9523,4169385.2961
3045,PHILLIPS 66 ,,195 N MAIN ST,PANGUITCH,84759,Convenience Grocery,100,AddressPoints.AddressGrid,R62274,373618.024586079,4187434.73090528,373618.0246,4187434.7309
3046,HIDDEN FALLS PETRO US,,875 N ST RD 24,TORREY,84775,Convenience Grocery,,Manually Placed,R62354,466148,4240718,466148,4240718
3047,COSTCO,484,648 E 800 S,OREM,84097,Supermarket,100,AddressPoints.AddressGrid,R62403,442152.431134348,4459055.18337951,442152.4311,4459055.1834
3048,TARGET,0768,6748 S REDWOOD RD,WEST JORDAN,84084,Grocery Store,100,AddressPoints.AddressGrid,R62455,420407.691671343,4497965.49835235,420407.6917,4497965.4984
3049,WALGREENS,5929,5630 W 4100 S,WEST VALLEY CITY,84128,Convenience Grocery,100,AddressPoints.AddressGrid,R63217,413305.736426727,4504027.61793805,413305.7364,4504027.6179
3050,ZION RIVER RESORT,,551 E HWY 9,VIRGIN,84779,Convenience Grocery,100,AddressPoints.AddressGrid,R63314,306780.493897645,4119625.012105,306780.4939,4119625.0121
3051,DOLLAR TREE,2605,501 N STATE ST,OREM,84057,Convenience Grocery,100,AddressPoints.AddressGrid,R63330,440457.392993429,4461984.09662928,440457.393,4461984.0966
3052,COSTCO,487,11100 S AUTO MALL DR,SANDY,84070,Supermarket,100,Centerlines.StatewideRoads,R63523,424369.200754823,4489123.35846848,424369.2008,4489123.3585
3053,DOLLAR TREE,2641,1033 S UNIVERSITY AVE,PROVO,84601,Convenience Grocery,100,AddressPoints.AddressGrid,R63526,444092.83259478,4452365.36444603,444092.8326,4452365.3644
3054,MACEYS,,972 N MAIN ST,TOOELE,84074,Grocery Store,100,AddressPoints.AddressGrid,R63667,390231.762341877,4489529.09465457,390231.7623,4489529.0947
3055,MIRAMONTE STATION,,386 N BLUFF ST,SAINT GEORGE,84770,Convenience Grocery,100,AddressPoints.AddressGrid,R63689,269412.561096678,4110750.72314809,269412.5611,4110750.7231
3056,WAL-MART,1440,99 W 1280 N,TOOELE,84074,Supermarket,100,AddressPoints.AddressGrid,R63801,389891.331873745,4490285.81718457,389891.3319,4490285.8172
3057,ANAYAS MARKET,,1556 W 7800 S,WEST JORDAN,84088,Specialty Grocery,100,AddressPoints.AddressGrid,R63809,420868.736365451,4495921.4676438,420868.7364,4495921.4676
3058,WAL-MART,2794,777 N MAIN ST,EPHRAIM,84647,Supermarket,92.4300003051758,AddressPoints.AddressGrid,R63821,462153.405060934,4377570.72664407,462153.4051,4377570.7266
3059,WALGREENS,6183,515 S 500 W,BOUNTIFUL,84010,Convenience Grocery,100,AddressPoints.AddressGrid,R63915,424886.115214844,4526236.67379172,424886.1152,4526236.6738
3060,SMITHS,147,5620 W 4100 S,WEST VALLEY CITY,84128,Supermarket,100,AddressPoints.AddressGrid,R63925,413345.212578138,4504157.36507015,413345.2126,4504157.3651
3061,CORNER MARKET,,8915 W 2700 S,MAGNA,84044,Convenience Grocery,100,Centerlines.StatewideRoads,R64055,406734.337111619,4507249.94890484,406734.3371,4507249.9489
3062,COSTCO,672,835 N 3050 E,SAINT GEORGE,84770,Supermarket,100,AddressPoints.AddressGrid,R64065,275860.545966289,4111411.63369643,275860.546,4111411.6337
3063,DOLLAR TREE,2645,585 N MAIN,LOGAN,84321,Convenience Grocery,90.9199981689453,AddressPoints.AddressGrid,R64125,430522.023233165,4621504.11985195,430522.0232,4621504.1199
3064,WAL-MART,1438,1330 S PROVIDENCE CTR DR,CEDAR CITY,84720,Supermarket,100,AddressPoints.AddressGrid,R64300,315793.454061093,4169539.70628481,315793.4541,4169539.7063
3065,BIG LOTS,4091,4041 W 5415 S,KEARNS,84118,Convenience Grocery,100,AddressPoints.AddressGrid,R64349,416507.390831224,4500602.33959349,416507.3908,4500602.3396
3066,HARMONS (SO JORDAN),87,10507 S REDWOOD RD,SOUTH JORDAN,84095,Grocery Store,100,AddressPoints.AddressGrid,R64406,420714.284443829,4490391.39552851,420714.2844,4490391.3955
3067,WAL-MART SUPERCENTER,2921,534 HARRISVILLERD,HARRISVILLE,84404,Supermarket,,Manually Placed,R64410,418495,4569087,418495,4569087
3068,ALOHA NUTRITION,,1948 N 1000 W,LAYTON,84041,Health Food,100,Centerlines.StatewideRoads,R64476,417349.609451148,4548983.24309538,417349.6095,4548983.2431
3069,ACAPULCO RESTAURANT,,1430 W INDIANA AVE,SALT LAKE CITY,84104,Grocery Store,100,AddressPoints.AddressGrid,R64487,421329.370357226,4511584.1649774,421329.3704,4511584.165
3070,FABULOUS FREDDYS,,134 S RIVER RD,SAINT GEORGE,84790,Convenience Grocery,100,AddressPoints.AddressGrid,R64561,272868.495934064,4109669.7406842,272868.4959,4109669.7407
3071,WALGREENS,6282,4040 W 5415 S,TAYLORSVILLE,84118,Convenience Grocery,100,AddressPoints.AddressGrid,R64578,416519.384731573,4500733.40932633,416519.3847,4500733.4093
3072,BIMBO BAKERIES USA,,2200 W 4700 S,SALT LAKE CITY,84129,Retail,100,AddressPoints.AddressGrid,R64653,419727.492035446,4502154.6064656,419727.492,4502154.6065
3073,WALGREENS,5875,7794 S REDWOOD RD,WEST JORDAN,84084,Convenience Grocery,100,AddressPoints.AddressGrid,R64743,420532.712246083,4495897.57729789,420532.7122,4495897.5773
3074,WAL-MART,3208,660 S 1750 W,SPRINGVILLE,84663,Supermarket,100,AddressPoints.AddressGrid,R64850,445129.835103698,4445430.11954353,445129.8351,4445430.1195
3075,WAL-MART,1439,625 W TELEGRAPH,WASHINGTON,84780,Supermarket,90.9199981689453,AddressPoints.AddressGrid,R64856,276310.46689211,4111846.15676527,276310.4669,4111846.1568
3076,WAL-MART,3220,2610 PIONEER RD,SAINT GEORGE,84770,Supermarket,100,AddressPoints.AddressGrid,R65034,269960.215255759,4105048.07252005,269960.2153,4105048.0725
3077,EASY SHOP,,251 17TH ST,OGDEN,84404,Convenience Grocery,100,AddressPoints.AddressGrid,R65045,418370.761240426,4565486.61871119,418370.7612,4565486.6187
3078,RANDALLS MARKET,,3235 W 4100 S,WEST VALLEY CITY,84119,Salvage Grocery,100,AddressPoints.AddressGrid,R65046,418162.653495302,4503882.25715622,418162.6535,4503882.2572
3079,HALAL MARKET,,2407 S REDWOOD RD,WEST VALLEY CITY,84119,Grocery Store,100,AddressPoints.AddressGrid,R65285,420741.996409756,4507940.7480053,420741.9964,4507940.748
3080,ENVIOS Y PAN,,1252 W 500 N,SALT LAKE CITY,84116,Convenience Grocery,100,AddressPoints.AddressGrid,R65290,421737.79642525,4514798.77390804,421737.7964,4514798.7739
3081,GOOD EARTH NATURAL FOODS,,1050 W RIVERDALE RD,RIVERDALE,84405,Health Food,100,AddressPoints.AddressGrid,R65511,415811.466168693,4558961.78377782,415811.4662,4558961.7838
3082,WALGREENS,6669,10429 S REDWOOD RD,SOUTH JORDAN,84095,Convenience Grocery,100,AddressPoints.AddressGrid,R65594,420607.870773114,4490527.87400225,420607.8708,4490527.874
3083,WALGREENS,5737,909 E 2100 S,SALT LAKE CITY,84106,Convenience Grocery,100,AddressPoints.AddressGrid,R65597,426969.72649065,4508691.87384588,426969.7265,4508691.8738
3084,DANS,,2029 E 7000 S,SALT LAKE CITY,84121,Supermarket,100,Centerlines.StatewideRoads,R6561,429516.392915827,4497383.36369647,429516.3929,4497383.3637
3085,WAL-MART SUPERCENTER,3232,7671 S 3800 W,WEST JORDAN,84084,Supermarket,100,Centerlines.StatewideRoads,R66011,417065.386245147,4496077.87632891,417065.3862,4496077.8763
3086,SAMS CLUB,4730,7571 S 3800 W,WEST JORDAN,84084,Grocery Store,100,Centerlines.StatewideRoads,R66012,417102.975718945,4496259.30714236,417102.9757,4496259.3071
3087,ASIAN MARKET COMPANY,,24 N 500 W,PROVO,84601,Specialty Grocery,100,AddressPoints.AddressGrid,R66056,443241.641567016,4453959.5786446,443241.6416,4453959.5786
3088,EUROPA MARKET,,2850 S REDWOOD RD -A1,SALT LAKE CITY,84119,Grocery Store,90.9199981689453,Centerlines.StatewideRoads,R66127,420672.333281277,4506918.07630197,420672.3333,4506918.0763
3089,ANAYAS MARKET ROSE PARK,,660 N 1200 W,SALT LAKE CITY,84116,Specialty Grocery,100,AddressPoints.AddressGrid,R66170,421937.04274545,4515180.01705044,421937.0427,4515180.0171
3090,EL PARAISO,,3556 S 5600 W,WEST VALLEY CITY,84120,Specialty Grocery,100,AddressPoints.AddressGrid,R66184,413354.881485617,4505434.99738016,413354.8815,4505434.9974
3091,WAL-MART SUPERCENTER,3454,1200 S COMMERCE WAY,PERRY,84302,Supermarket,100,AddressPoints.AddressGrid,R66342,413989.103343332,4592998.2175874,413989.1033,4592998.2176
3092,DFA/BEAVER CHEESE PLANT,,200 S 330 W,BEAVER,84713,Convenience Grocery,92.4300003051758,AddressPoints.AddressGrid,R66359,356097.915507641,4236956.00009382,356097.9155,4236956.0001
3093,TARGET T,,275 S RIVER RD,SAINT GEORGE,84770,Grocery Store,100,AddressPoints.AddressGrid,R66515,273040.782082439,4109386.58578895,273040.7821,4109386.5858
3094,MACEYS,,931 W STATE ST,PLEASANT GROVE,84062,Supermarket,100,AddressPoints.AddressGrid,R66831,435962.73626617,4468540.7366298,435962.7363,4468540.7366
3095,KENTS,,3535 W 5600 S,ROY,84067,Supermarket,100,Centerlines.StatewideRoads,R66901,410618.949395702,4557230.11902346,410618.9494,4557230.119
3096,WALGREENS,6281,1311 E 12300 S,DRAPER,84020,Convenience Grocery,100,Centerlines.StatewideRoads,R67319,427627.163000212,4486735.27921684,427627.163,4486735.2792
3097,HARMONS,14,672 E 11400 S,DRAPER,84020,Supermarket,100,AddressPoints.AddressGrid,R67444,426101.070172128,4488319.39529494,426101.0702,4488319.3953
3098,WALGREENS,6961,4668 S REDWOOD RD,TAYLORSVILLE,84123,Convenience Grocery,100,AddressPoints.AddressGrid,R67541,420599.211218828,4502371.75662311,420599.2112,4502371.7566
3099,FAMILY DOLLAR INC,25291,442 E 300 S,KANAB,84741,Convenience Grocery,100,AddressPoints.AddressGrid,R67589,364913.891694253,4100671.15510243,364913.8917,4100671.1551
3100,ALBERTSONS,1329,745 N DIXIE DOWN DR,SAINT GEORGE,84770,Supermarket,90.9199981689453,AddressPoints.AddressGrid,R67591,266809.641083859,4111521.92467561,266809.6411,4111521.9247
3101,EL MERCADITO ,,101 N 100 W,PAYSON,84651,Specialty Grocery,100,AddressPoints.AddressGrid,R67728,437383.90556121,4432983.96631428,437383.9056,4432983.9663
3102,WAL-MART SUPER CTR,3568,3180 S 5600 W,WEST VALLEY CITY,84120,Convenience Grocery,100,AddressPoints.AddressGrid,R67807,413264.290296326,4506192.52739272,413264.2903,4506192.5274
3103,WAL-MART SUPER CTR,3568,3180 S 5600 W,WEST VALLEY CITY,84120,Supermarket,100,AddressPoints.AddressGrid,R67807,413264.290296326,4506192.52739272,413264.2903,4506192.5274
3104,SAMS CLUB, 4786,145 W CACHE VALLEY BLVD,LOGAN,84321,Grocery Store,100,AddressPoints.AddressGrid,R67813,430310.936155859,4622914.694419,430310.9362,4622914.6944
3105,WALGREENS,7052,391 W  ST GEORGE BLVD,SAINT GEORGE,84770,Convenience Grocery,100,AddressPoints.AddressGrid,R67867,269737.426642477,4110168.25674545,269737.4266,4110168.2567
3106,FAMILY DOLLAR INC,25170,473 E 700 S,CLEARFIELD,84015,Convenience Grocery,100,AddressPoints.AddressGrid,R67909,414602.560369507,4550797.44601229,414602.5604,4550797.446
3107,FAMILY DOLLAR INC,25256,1145 W GLENDALE DR,SALT LAKE CITY,84104,Convenience Grocery,92.4300003051758,AddressPoints.AddressGrid,R67913,421292.184393403,4510819.12398488,421292.1844,4510819.124
3108,ANAYAS MARKET,,1490 MUNCHKIN,PARK CITY,84060,Grocery Store,90.9199981689453,AddressPoints.AddressGrid,R67924,457597.846050356,4501275.50856232,457597.8461,4501275.5086
3109,GNC,834,976 N MAIN ST,TOOELE,84074,Health Food,100,Centerlines.StatewideRoads,R67925,390100.9086152,4489675.1027008,390100.9086,4489675.1027
3110,DOLLAR TREE,2678,964 N MAIN ST,TOOELE,84074,Convenience Grocery,100,Centerlines.StatewideRoads,R67926,390099.184946985,4489643.9341139,390099.1849,4489643.9341
3111,KIM HEANG MARKET,,1820 W 3600 S,WEST VALLEY CITY,84119,Specialty Grocery,100,AddressPoints.AddressGrid,R68144,420445.615507155,4505293.16585398,420445.6155,4505293.1659
3112,EL CENTRO MARKET INC,,612 N FREEDOM BLVD,PROVO,84601,Specialty Grocery,100,AddressPoints.AddressGrid,R68167,443719.594667363,4454808.11750984,443719.5947,4454808.1175
3113,COSTCO,764,5201 S INTERMTN DR,MURRAY,84107,Supermarket,90.9199981689453,Centerlines.StatewideRoads,R68186,414251.428802074,4508769.99832392,414251.4288,4508769.9983
3114,WAL-MART NEIGHBORHOOD MK,5109,4570 S 4000 W,WEST VALLEY CITY,84120,Grocery Store,100,AddressPoints.AddressGrid,R68279,416405.933432736,4502664.52473739,416405.9334,4502664.5247
3115,SINCLAIR,,20 NO BEAR LK BLVD,LAKETOWN,84038,Convenience Grocery,100,AddressPoints.AddressGrid,R6841,473165.40662477,4631136.92729144,473165.4066,4631136.9273
3116,Z WORLD XPRESS,,1153 N MAIN ST,SUNSET,84015,Specialty Grocery,100,Centerlines.StatewideRoads,R70266,413866.240832127,4553744.80915644,413866.2408,4553744.8092
3117,FRANZ FAMILY BAKERIES,,5923 S 350 W,MURRAY,84107,Retail,100,AddressPoints.AddressGrid,R70361,423973.840916293,4499402.99828594,423973.8409,4499402.9983
3118,WALGREENS,7007,12623 S REDWOOD RD,RIVERTON,84065,Convenience Grocery,100,AddressPoints.AddressGrid,R70393,420530.324603704,4486104.75605264,420530.3246,4486104.7561
3119,WALGREENS,7495,5554 S 1900 W,ROY,84067,Convenience Grocery,100,AddressPoints.AddressGrid,R70394,413942.756629155,4557342.30790521,413942.7566,4557342.3079
3120,FAMILY DOLLAR INC,25584,690 E 200 N,ROOSEVELT,84066,Convenience Grocery,100,Centerlines.StatewideRoads,R70587,586567.303148913,4461778.80074889,586567.3031,4461778.8007
3121,DOLLAR TREE,2669,2122 W 1800 N,CLINTON,84015,Convenience Grocery,100,AddressPoints.AddressGrid,R70827,410467.532704208,4554972.1099333,410467.5327,4554972.1099
3122,WAL-MART STORE INC,5206,1710 E SKYLINE DR,SOUTH OGDEN,84405,Grocery Store,100,AddressPoints.AddressGrid,R71047,421260.302754633,4556008.89664947,421260.3028,4556008.8966
3123,FAMILY DOLLAR INC,25137,817 WALL AVE,OGDEN,84401,Convenience Grocery,100,AddressPoints.AddressGrid,R71057,418035.106057053,4566976.6676603,418035.1061,4566976.6677
3124,COUNTRY STORE,,4195 S 4000 W,DELTA,84624,Convenience Grocery,100,AddressPoints.AddressGrid,R71089,357507.626903682,4350405.85103107,357507.6269,4350405.851
3125,TARGET STORE T,,608 W MAIN ST,AMERICAN FORK,84003,Grocery Store,100,AddressPoints.AddressGrid,R71140,430745.612367945,4470116.58756132,430745.6124,4470116.5876
3126,WAL-MART MARKET,5110,1360 E  PKWY,DRAPER,84020,Supermarket,90.9199981689453,Centerlines.StatewideRoads,R71141,428052.768553352,4507812.95746637,428052.7686,4507812.9575
3127,FAMILY DOLLAR INC,25704,4711 W 3500 S,WEST VALLEY CITY,84120,Convenience Grocery,100,AddressPoints.AddressGrid,R71222,415214.973237208,4505504.70539996,415214.9732,4505504.7054
3128,FAMILY DOLLAR INC,25761,1649 W 4200 S,TAYLORSVILLE,84119,Convenience Grocery,100,AddressPoints.AddressGrid,R71243,420762.656825448,4503587.23365964,420762.6568,4503587.2337
3129,MARIAS MARKET INC,,4865 W 3500 S STE - D,WEST VALLEY CITY,84120,Specialty Grocery,90.9199981689453,Centerlines.StatewideRoads,R71246,414929.12832328,4508765.2525101,414929.1283,4508765.2525
3130,EMERGENCY ESSENTIALS,,216 E UNIVERSITY PKWY,OREM,84058,Retail,100,AddressPoints.AddressGrid,R71407,441366.430400707,4458178.75852193,441366.4304,4458178.7585
3131,STOP & GO MARKET,,809 28TH ST,OGDEN,84403,Convenience Grocery,100,AddressPoints.AddressGrid,R71439,419597.682253834,4562965.49807331,419597.6823,4562965.4981
3132,USA MINI MART,,3031 HARRISON BLVD,OGDEN,84403,Convenience Grocery,100,AddressPoints.AddressGrid,R71442,420464.50085344,4562408.28638365,420464.5009,4562408.2864
3133,FAMILY DOLLAR INC,25136,2538 MONROE BLVD,OGDEN,84401,Convenience Grocery,100,AddressPoints.AddressGrid,R71474,419603.620035028,4563570.518299,419603.62,4563570.5183
3134,FAMILY DOLLAR INC,25853,112 W MAIN,TREMONTON,84337,Convenience Grocery,90.9199981689453,AddressPoints.AddressGrid,R71540,402841.904140153,4618472.05766696,402841.9041,4618472.0577
3135,FAMILY DOLLAR INC,25631,4760 W 4715 S,WEST VALLEY CITY,84118,Convenience Grocery,100,AddressPoints.AddressGrid,R71561,415095.270909634,4502356.8599622,415095.2709,4502356.86
3136,SMITHS FOOD & DRUG,108,5560 W 13400 S,HERRIMAN,84065,Grocery Store,100,AddressPoints.AddressGrid,R71658,413282.075795683,4484761.70373364,413282.0758,4484761.7037
3137,COSTCO WHOLESALE,770,3656 WALL AVE SOUTH,OGDEN,84403,Supermarket,92.4300003051758,AddressPoints.AddressGrid,R71705,418017.940091724,4561006.93521647,418017.9401,4561006.9352
3138,BANDAR GROCERY STORE,,1735 S REDWOOD RD - 120,SALT LAKE CITY,84104,Specialty Grocery,90.9199981689453,AddressPoints.AddressGrid,R71736,420739.734066393,4509439.4077813,420739.7341,4509439.4078
3139,CHEVRON SUNMART,870,8980 S REDWOOD RD,WEST JORDAN,84088,Grocery Store,100,AddressPoints.AddressGrid,R71762,420462.663134524,4493458.61800988,420462.6631,4493458.618
3140,ARMANDOS MERCADO,,72 N MAIN ST,HEBER CITY,84032,Grocery Store,100,AddressPoints.AddressGrid,R71815,464991.963797334,4484288.61641179,464991.9638,4484288.6164
3141,AZTECA DE ORO MARKET,,499 S STATE,CLEARFIELD,84015,Specialty Grocery,90.9199981689453,AddressPoints.AddressGrid,R71843,414507.284389192,4551091.60633787,414507.2844,4551091.6063
3142,DOLLAR TREE,2604,326 S 500 W,BOUNTIFUL,84010,Convenience Grocery,100,AddressPoints.AddressGrid,R71862,424628.221993632,4526501.90396648,424628.222,4526501.904
3143,WAL-MART SUPERCENTER,5234,1632 N 2000 W,CLINTON,84015,Supermarket,100,AddressPoints.AddressGrid,R71883,410897.496281043,4554561.97840643,410897.4963,4554561.9784
3144,WAL-MART SUPERCENTER,5168,10 E 1300 S,RICHFIELD,84701,Grocery Store,100,AddressPoints.AddressGrid,R71884,405734.564207671,4289406.52362391,405734.5642,4289406.5236
3145,RITE AID,6129,8645 S HIGHLAND DR,SANDY,84093,Convenience Grocery,100,AddressPoints.AddressGrid,R71929,429730.453654324,4493989.6073997,429730.4537,4493989.6074
3146,BIG LOTS,4108,3801 WASHINGTON BLVD,OGDEN,84403,Convenience Grocery,100,Centerlines.StatewideRoads,R71941,418553.725980548,4560726.80802583,418553.726,4560726.808
3147,WAL-MART SUPER CENTER,5167,1052 S TURF FARM RD,PAYSON,84651,Supermarket,100,AddressPoints.AddressGrid,R72182,435428.54479036,4431151.67702235,435428.5448,4431151.677
3148,HONEYS MARKET PLACE,,260 E 300 S,KANAB,84741,Grocery Store,100,AddressPoints.AddressGrid,R7233,364585.810140351,4100662.37024913,364585.8101,4100662.3702
3149,WALGREENS,6988,3863 W 9000 S,WEST JORDAN,84088,Convenience Grocery,100,AddressPoints.AddressGrid,R72331,416793.121317379,4493428.2886867,416793.1213,4493428.2887
3150,WAL-MART NH MARKET- GROC,5205,1356 E HWY 193,LAYTON,84041,Supermarket,100,Centerlines.StatewideRoads,R72335,421051.285924959,4550412.22602796,421051.2859,4550412.226
3151,JUBILEE FOODS,,377 W MAIN ST,DELTA,84624,Supermarket,100,AddressPoints.AddressGrid,R7239,363586.223310121,4357016.75246701,363586.2233,4357016.7525
3152,DOLLAR TREE,2646,3344 S 1300 E,SALT LAKE CITY,84106,Convenience Grocery,100,AddressPoints.AddressGrid,R72451,427723.755091787,4505694.11574732,427723.7551,4505694.1157
3153,3 AMIGOS MARKET,,325 N BLUFF ST,SAINT GEORGE,84770,Grocery Store,100,Centerlines.StatewideRoads,R72778,269369.094604095,4110637.66103512,269369.0946,4110637.661
3154,GNC,1605,651 W MARKET PL,CENTERVILLE,84014,Health Food,90.9199981689453,AddressPoints.AddressGrid,R72847,425119.651699363,4530164.96504003,425119.6517,4530164.965
3155,RITE AID,6126,774 S STATE ST,OREM,84058,Convenience Grocery,100,Centerlines.StatewideRoads,R72869,441437.454324356,4459382.59863546,441437.4543,4459382.5986
3156,JUBA HALAAL AFRICAN MARKET,,2350 S REDWOOD RD,WEST VALLEY CITY,84119,Retail,100,AddressPoints.AddressGrid,R72909,420656.911416156,4508081.06898223,420656.9114,4508081.069
3157,RITE AID,6149,615 E ST GEORGE BLVD,ST GEORGE,84770,Convenience Grocery,100,AddressPoints.AddressGrid,R72946,271647.756338828,4110233.3147795,271647.7563,4110233.3148
3158,GEORGES INTL GROC & DELI INC,,2715 S STATE ST,SALT LAKE CITY,84115,Grocery Store,100,AddressPoints.AddressGrid,R72991,424995.160164917,4507194.69677491,424995.1602,4507194.6968
3159,WAL-MART SUPERCENTER,3589,350 W HOPE AVE,SALT LAKE CITY,84115,Grocery Store,100,AddressPoints.AddressGrid,R73030,423891.032188169,4510322.62663002,423891.0322,4510322.6266
3160,WAL-MART SUPERCENTER,5270,585 N STATE ST,LINDON,84042,Grocery Store,100,AddressPoints.AddressGrid,R73031,437849.885644376,4466690.4390847,437849.8856,4466690.4391
3161,WAL-MART SUPERCENTER,5350,4627 S 900 E,SALT LAKE CITY,84117,Grocery Store,100,AddressPoints.AddressGrid,R73032,426977.3836528,4502462.77939791,426977.3837,4502462.7794
3162,WAL-MART SUPERCENTER,5233,5675 W 6200 S,WEST VALLEY CITY,84118,Supermarket,100,AddressPoints.AddressGrid,R73046,413187.092179741,4498827.38852395,413187.0922,4498827.3885
3163,SALVATION ARMY FOOD PANTRY,,438 S 900 W,SALT LAKE CITY,84104,Salvage Grocery,100,AddressPoints.AddressGrid,R73061,422562.591126766,4512475.72317181,422562.5911,4512475.7232
3164,VITALITY NUTRITION,,107 S 500 W STE A,BOUNTIFUL,84010,Health Food,100,AddressPoints.AddressGrid,R73124,424867.111530599,4526707.13679527,424867.1115,4526707.1368
3165,WAL-MART,2511,949 W GRASSLAND DR,AMERICAN FORK,84003,Supermarket,100,Centerlines.StatewideRoads,R73181,430049.349362523,4470998.98553898,430049.3494,4470998.9855
3166,FAMILY DOLLAR INC,26187,1638 S 500 W,WOODS CROSS,84087,Convenience Grocery,100,AddressPoints.AddressGrid,R73286,424777.996085286,4525003.18850203,424777.9961,4525003.1885
3167,FOODTOWN DUANES,,375 S MAIN ST,FILLMORE,84631,Grocery Store,100,Centerlines.StatewideRoads,R7331,375164.896426992,4294870.30616495,375164.8964,4294870.3062
3168,FAMILY DOLLAR INC,25896,620 W MAIN ST,VERNAL,84078,Convenience Grocery,100,Centerlines.StatewideRoads,R73342,623780.029286138,4479362.29724684,623780.0293,4479362.2972
3169,FAMILY DOLLAR INC,26024,595 E TELEGRAPH ST,WASHINGTON,84780,Convenience Grocery,100,AddressPoints.AddressGrid,R73343,277947.115691108,4112304.444881,277947.1157,4112304.4449
3170,GNC, 5829,1933 N 2000 W SPACE,CLINTON,84015,Health Food,100,AddressPoints.AddressGrid,R73463,410584.123439526,4555050.58888428,410584.1234,4555050.5889
3171,VIENTIANE MARKET,,4090 W 5415 S,KEARNS,84118,Grocery Store,100,AddressPoints.AddressGrid,R73484,416374.44161313,4500798.41863298,416374.4416,4500798.4186
3172,FAMILY DOLLAR INC,25624,702 S MAIN ST STE 4,MOAB,84532,Convenience Grocery,100,AddressPoints.AddressGrid,R73490,626385.993923541,4269202.0014442,626385.9939,4269202.0014
3173,BIG LOTS,4485,3931 W 9000 S,WEST JORDAN,84088,Convenience Grocery,100,AddressPoints.AddressGrid,R73591,416661.466855795,4493303.95725656,416661.4669,4493303.9573
3174,CAPUTOS MARKET,,314 W 300 S,SALT LAKE CITY,84101,Grocery Store,100,AddressPoints.AddressGrid,R73592,424011.284439207,4512841.43619715,424011.2844,4512841.4362
3175,PLANET RAINBOW,,1833 VALLEY DR,OGDEN,84401,Convenience Grocery,100,Centerlines.StatewideRoads,R73594,422052.026428255,4565397.52853816,422052.0264,4565397.5285
3176,LA ESCONDIDA,,51 E 100 S,TREMONTON,84337,Specialty Grocery,100,Centerlines.StatewideRoads,R73710,403057.210945367,4618315.14400123,403057.2109,4618315.144
3177,LA SUPER PEQUENITA,,2740 S STATE ST,SALT LAKE CITY,84115,Specialty Grocery,100,AddressPoints.AddressGrid,R73744,424946.140405044,4507129.1375448,424946.1404,4507129.1375
3178,WALGREENS,7982,210 N MAIN ST,KAYSVILLE,84037,Convenience Grocery,100,AddressPoints.AddressGrid,R73867,421162.55559926,4543463.20727333,421162.5556,4543463.2073
3179,WALGREENS,2519,1962 W 1800 N,CLINTON,84015,Convenience Grocery,100,AddressPoints.AddressGrid,R73868,410734.572753661,4554866.37844612,410734.5728,4554866.3784
3180,WALGREENS,9192,763 N STATE ST,OREM,84057,Convenience Grocery,100,AddressPoints.AddressGrid,R73871,440370.915788529,4462505.32661788,440370.9158,4462505.3266
3181,WALGREENS,1776,815 W STATE ST,PLEASANT GROVE,84062,Convenience Grocery,100,AddressPoints.AddressGrid,R73911,436101.323940028,4468627.98651197,436101.3239,4468627.9865
3182,WALGREENS,2523,1171 W 2000 N,LAYTON,84041,Convenience Grocery,100,Centerlines.StatewideRoads,R73912,417083.367359661,4549112.86612103,417083.3674,4549112.8661
3183,WALGREENS,2529,1037 W 1700 S,SYRACUSE,84075,Convenience Grocery,100,AddressPoints.AddressGrid,R73913,412142.063572678,4549134.22686063,412142.0636,4549134.2269
3184,DOLLAR TREE,2815,4668 S 4000 W,WEST VALLEY CITY,84120,Convenience Grocery,100,AddressPoints.AddressGrid,R74064,416502.225727301,4502408.82424898,416502.2257,4502408.8242
3185,EL BAZAR,,3601 S 2700 W - E106,WEST VALLEY CITY,84119,Grocery Store,90.9199981689453,Centerlines.StatewideRoads,R74065,417473.419606701,4508754.27001622,417473.4196,4508754.27
3186,FAMILY DOLLAR INC,26223,3171 S REDWOOD RD,WEST VALLEY CITY,84119,Convenience Grocery,100,AddressPoints.AddressGrid,R74066,420723.862857573,4506178.98813783,420723.8629,4506178.9881
3187,SUPER GROCERY,,511 - 31ST ST,OGDEN,84401,Grocery Store,100,AddressPoints.AddressGrid,R74076,418891.434344513,4562293.20619759,418891.4343,4562293.2062
3188,FAMILY DOLLAR INC,25385,981 W STATE ST,HURRICANE,84737,Convenience Grocery,100,Centerlines.StatewideRoads,R74093,295238.2033009,4116924.51579804,295238.2033,4116924.5158
3189,FAMILY DOLLAR INC,25826,82 N MAIN ST,NEPHI,84048,Convenience Grocery,,Manually Placed,R74094,428372,4395857,428372,4395857
3190,GGJ LLC PENNYWISE MART,,1245 S 900 W,SALT LAKE CITY,84104,Convenience Grocery,100,AddressPoints.AddressGrid,R74227,422628.776851968,4510506.5447038,422628.7769,4510506.5447
3191,WALGREENS,2527,255 E 36TH ST,SOUTH OGDEN,84405,Convenience Grocery,100,AddressPoints.AddressGrid,R74263,418230.683900477,4561161.6098919,418230.6839,4561161.6099
3192,SINCLAIR - DUTCHMANS MARKET,,2300 W SANTA CLARA DR,SANTA CLARA,84765,Convenience Grocery,100,AddressPoints.AddressGrid,R7430,265581.084222174,4112255.31374423,265581.0842,4112255.3137
3193,LA PLACITA MARKET,,4703 W 5415 S,KEARNS,84118,Grocery Store,100,AddressPoints.AddressGrid,R74364,415196.554281709,4500658.74503431,415196.5543,4500658.745
3194,DOLLAR TREE,6680,630 E STATE ST,LEHI,84043,Convenience Grocery,100,AddressPoints.AddressGrid,R74491,428770.461313466,4471724.8352498,428770.4613,4471724.8352
3195,ASSOCIATED FRESH MARKETS,2307,3151 W KILBY RD,PARK CITY,84098,Supermarket,100,AddressPoints.AddressGrid,R74538,451830.534168485,4511203.70843439,451830.5342,4511203.7084
3196,DOLLAR TREE,2606,744 PRICE RIVER DR,PRICE,84501,Convenience Grocery,100,Centerlines.StatewideRoads,R74573,515182.455931781,4383416.0079754,515182.4559,4383416.008
3197,FAMILY DOLLAR INC,26287,775 N OREM BLVD,OREM,84057,Convenience Grocery,100,AddressPoints.AddressGrid,R74594,440172.421262432,4462522.99377928,440172.4213,4462522.9938
3198,LA AUTENTICA MARKET,,8120 W 3500 S,MAGNA,84044,Grocery Store,100,AddressPoints.AddressGrid,R74662,408349.123106958,4505660.71659823,408349.1231,4505660.7166
3199,VIDAY Y SALUD II,,1500 W 3500 S,WEST VALLEY CITY,84119,Health Food,100,AddressPoints.AddressGrid,R74676,421015.65642394,4505619.27742889,421015.6564,4505619.2774
3200,WALGREENS,9111,3291 S HIGHLAND DR,SALT LAKE CITY,84106,Convenience Grocery,100,AddressPoints.AddressGrid,R74790,428159.245747483,4505854.3035795,428159.2457,4505854.3036
3201,WALGREENS,9237,9426 S 700 E,SANDY,84070,Convenience Grocery,100,AddressPoints.AddressGrid,R74798,426160.601127316,4492504.65394395,426160.6011,4492504.6539
3202,WALGREENS,9238,531 E 400 S,SALT LAKE CITY,84102,Convenience Grocery,100,AddressPoints.AddressGrid,R74799,426089.236376078,4512606.69544986,426089.2364,4512606.6954
3203,FASTRAC,2,802 S 900 W,SALT LAKE CITY,84104,Convenience Grocery,100,AddressPoints.AddressGrid,R74871,422570.122989899,4511597.9269861,422570.123,4511597.927
3204,FOR YOUR KITCHEN,,772 E 700 S,CLEARFIELD,84015,Retail,100,AddressPoints.AddressGrid,R74876,415069.173908815,4550707.66926661,415069.1739,4550707.6693
3205,DOLLAR TREE,2834,123 E 1000 N,SPANISH FORK,84660,Convenience Grocery,100,AddressPoints.AddressGrid,R74977,444376.210243838,4441716.42374501,444376.2102,4441716.4237
3206,EL POTRERO MARKET,,7679 S MAIN ST,MIDVALE,84047,Grocery Store,100,AddressPoints.AddressGrid,R74983,423008.634744116,4496036.09536119,423008.6347,4496036.0954
3207,WALGREENS,9239,7227 S STATE ST,MIDVALE,84047,Convenience Grocery,100,AddressPoints.AddressGrid,R75004,424749.991754987,4497002.07421064,424749.9918,4497002.0742
3208,SEVIER VALLEY HEALTH ESSENTIAL,,78 N MAIN,RICHFIELD,84701,Health Food,90.9199981689453,AddressPoints.AddressGrid,R75131,405781.66271595,4291713.29244899,405781.6627,4291713.2924
3209,FLYING J,,810 N 800 W,SCIPIO,84656,Convenience Grocery,100,AddressPoints.AddressGrid,R75138,403597.00474399,4345736.91033222,403597.0047,4345736.9103
3210,WHOLE FOODS MARKET,,6930 S HIGHLAND DR,SALT LAKE CITY,84121,Supermarket,100,AddressPoints.AddressGrid,R75181,429304.854659914,4497471.72973163,429304.8547,4497471.7297
3211,FAMILY DOLLAR INC,25816,3530 W 3100 S,WEST VALLEY CITY,84119,Convenience Grocery,100,AddressPoints.AddressGrid,R75263,417612.723070746,4506407.65884385,417612.7231,4506407.6588
3212,FAMILY DOLLAR INC,25183,70 E 3750 S,SALT LAKE CITY,84115,Convenience Grocery,100,AddressPoints.AddressGrid,R75264,424855.604904205,4504609.7780542,424855.6049,4504609.7781
3213,FAMILY DOLLAR INC,25143,2755 S STATE ST,SALT LAKE CITY,84115,Convenience Grocery,100,AddressPoints.AddressGrid,R75265,424996.253050787,4507111.57479925,424996.2531,4507111.5748
3214,FAMILY DOLLAR INC,26224,725 N MAIN ST,TOOELE,84074,Convenience Grocery,100,AddressPoints.AddressGrid,R75266,390010.101419748,4489077.44738674,390010.1014,4489077.4474
3215,FAMILY DOLLAR INC,26282,7260 W 3500 S,MAGNA,84044,Convenience Grocery,100,AddressPoints.AddressGrid,R75267,409999.80539586,4505657.07596568,409999.8054,4505657.076
3216,LOS FELIZ,,3874 W 3500 S STE A,WEST VALLEY CITY,84120,Grocery Store,100,AddressPoints.AddressGrid,R75283,416915.322664237,4505591.19652697,416915.3227,4505591.1965
3217,LA TIENDITA,,1255 W 500 N,SALT LAKE CITY,84116,Supermarket,100,AddressPoints.AddressGrid,R75398,421754.851013675,4514748.24359891,421754.851,4514748.2436
3218,EL MATE LATIN IMPORTS,,1095 N MAIN ST STE 2,LAYTON,84041,Specialty Grocery,100,AddressPoints.AddressGrid,R75400,417463.763422702,4547611.11985421,417463.7634,4547611.1199
3219,JALISCO MARKET LLC,,399 E STATE ST,AMERICAN FORK,84003,Grocery Store,100,Centerlines.StatewideRoads,R75526,433102.37867026,4469639.00822853,433102.3787,4469639.0082
3220,SPANISH TRAIL SUPPLY CO,,21 S MAIN,VEYO,84782,Convenience Grocery,90.9199981689453,Centerlines.StatewideRoads,R75528,261421.971127482,4135708.56467362,261421.9711,4135708.5647
3221,DOLLAR TREE,2630,262 E 12300 S,DRAPER,84020,Convenience Grocery,100,AddressPoints.AddressGrid,R75583,425151.303623268,4486466.21587246,425151.3036,4486466.2159
3222,M FLORES,,556 W 600 S,SALT LAKE CITY,84101,Grocery Store,100,AddressPoints.AddressGrid,R75725,423433.781269854,4512152.48651323,423433.7813,4512152.4865
3223,DOLLAR TREE,2601,9471 S 700 E,SANDY,84070,Convenience Grocery,100,AddressPoints.AddressGrid,R75785,426298.1446427,4492423.94745488,426298.1446,4492423.9475
3224,DOLLAR TREE,02608,783 N REDWOOD RD,SALT LAKE CITY,84116,Convenience Grocery,100,AddressPoints.AddressGrid,R75792,420713.135869507,4515383.35647186,420713.1359,4515383.3565
3225,DOLLAR TREE,2609,5686 S REDWOOD RD,TAYLORSVILLE,84123,Convenience Grocery,100,AddressPoints.AddressGrid,R75793,420335.616892342,4500082.91947958,420335.6169,4500082.9195
3226,DOLLAR TREE,2615,7202 S 1000 E,MIDVALE,84047,Convenience Grocery,100,AddressPoints.AddressGrid,R75794,427142.980225879,4497013.85927929,427142.9802,4497013.8593
3227,DOLLAR TREE,2642,8083 W 3500 S,MAGNA,84044,Convenience Grocery,100,AddressPoints.AddressGrid,R75795,408374.635379031,4505502.01843215,408374.6354,4505502.0184
3228,DOLLAR TREE,2652,389 W 1830 S STE 600,SALT LAKE CITY,84115,Convenience Grocery,100,AddressPoints.AddressGrid,R75796,423789.755777151,4509129.77998818,423789.7558,4509129.78
3229,DOLLAR TREE,2659,10457 S REDWOOD RD STE A,SOUTH JORDAN,84095,Convenience Grocery,100,AddressPoints.AddressGrid,R75797,420718.920507458,4490500.34998484,420718.9205,4490500.35
3230,DOLLAR TREE,2665,903 S MAIN,CEDAR CITY,84720,Convenience Grocery,90.9199981689453,AddressPoints.AddressGrid,R75798,317557.09341382,4170205.24593572,317557.0934,4170205.2459
3231,DOLLAR TREE,2670,812 E 200 S,SALT LAKE CITY,84102,Convenience Grocery,100,AddressPoints.AddressGrid,R75799,426769.895441705,4512995.25466263,426769.8954,4512995.2547
3232,DOLLAR TREE,2681,341 S RIVER RD,SAINT GEORGE,84790,Convenience Grocery,100,AddressPoints.AddressGrid,R75800,273048.926518544,4109264.495819,273048.9265,4109264.4958
3233,WALGREENS,9464,2090 E 9400 S,SANDY,84092,Convenience Grocery,100,AddressPoints.AddressGrid,R75879,429582.141384535,4492462.97809868,429582.1414,4492462.9781
3234,FAMILY DOLLAR INC,26141,3531 S HARRISON BLVD,OGDEN,84403,Convenience Grocery,100,AddressPoints.AddressGrid,R75886,420431.561134082,4561247.98964201,420431.5611,4561247.9896
3235,FAMILY DOLLAR INC,26628,39 W MAIN,DELTA,84624,Convenience Grocery,90.9199981689453,AddressPoints.AddressGrid,R76028,364206.293339971,4357032.2129735,364206.2933,4357032.213
3236,ANAYAS MARKET,,346 30TH ST,OGDEN,84401,Specialty Grocery,100,AddressPoints.AddressGrid,R76137,418489.683929672,4562565.92646915,418489.6839,4562565.9265
3237,DOLLAR TREE,3027,972 W 1150 S,BRIGHAM CITY,84302,Convenience Grocery,100,AddressPoints.AddressGrid,R76265,413738.463542993,4593228.64944072,413738.4635,4593228.6494
3238,NUTRITION & ETHNIC FOODS,,3197 S REDWOOD RD - 6,WEST VALLEY CITY,84119,Health Food,90.9199981689453,AddressPoints.AddressGrid,R76345,420738.160867624,4506102.82721866,420738.1609,4506102.8272
3239,FAMILY DOLLAR INC,26999,540 E MAIN ST,CASTLE DALE,84513,Convenience Grocery,100,AddressPoints.AddressGrid,R76400,499168.976142927,4340251.5212386,499168.9761,4340251.5212
3240,ROCKY MTN CHOCOLATE FACTORY,,776 N TERMINAL DR TERM 1,SALT LAKE CITY,84116,Retail,90.9199981689453,AddressPoints.AddressGrid,R76562,417136.371013394,4515394.93966987,417136.371,4515394.9397
3241,REAL FOODS MARKET,,420 W 800 N,OREM,84057,Grocery Store,100,AddressPoints.AddressGrid,R76595,440002.836003979,4462774.04428195,440002.836,4462774.0443
3242,DOLLAR TREE,3017,1930 W SUNSET BLVD STE 300,SAINT GEORGE,84770,Convenience Grocery,100,AddressPoints.AddressGrid,R76620,266720.372495303,4111872.70623476,266720.3725,4111872.7062
3243,DOLLAR TREE,2949,1820 W HWY 40 -M,VERNAL,84078,Convenience Grocery,100,AddressPoints.AddressGrid,R76621,621680.424145389,4477600.32891074,621680.4241,4477600.3289
3244,DOLLAR TREE,3136,1182 S HWY 118,RICHFIELD,84701,Convenience Grocery,100,AddressPoints.AddressGrid,R76622,405464.461293358,4289766.54250503,405464.4613,4289766.5425
3245,DOLLAR TREE,3023,57 N 700 W - STE B,AMERICAN FORK,84003,Convenience Grocery,100,Centerlines.StatewideRoads,R76623,430582.652971253,4470027.68350896,430582.653,4470027.6835
3246,LDS BRIGHAM CITY BISHOPS,,571 W FOREST ST,BRIGHAM CITY,84302,Grocery Store,100,AddressPoints.AddressGrid,R76889,414479.071227197,4595903.12911436,414479.0712,4595903.1291
3247,FAMILY DOLLAR INC,26292,4653 W 6200 S,WEST JORDAN,84118,Convenience Grocery,100,AddressPoints.AddressGrid,R76933,415345.284214888,4499073.40618278,415345.2842,4499073.4062
3248,FAMILY DOLLAR INC,27062,435 S MAIN ST,GUNNISON,84634,Convenience Grocery,100,AddressPoints.AddressGrid,R76934,429311.043039143,4333545.37166657,429311.043,4333545.3717
3249,7-11,,301 S FAIRWAY DR,KANAB,84741,Convenience Grocery,100,AddressPoints.AddressGrid,R76954,365390.215907378,4100721.73413896,365390.2159,4100721.7341
3250,TAY DO SUPERMARKET,,3825 S REDWOOD RD,WEST VALLEY CITY,84119,Specialty Grocery,100,AddressPoints.AddressGrid,R76999,420712.042983636,4504639.82893511,420712.043,4504639.8289
3251,GOULDINGS STORE,,1000 MAIN ST,MONUMENT VALLEY,84536,Grocery Store,100,Centerlines.StatewideRoads,R77000,634237.617576658,4163726.17076535,634237.6176,4163726.1708
3252,BIG LOTS,4489,702 E STATE ST,AMERICAN FORK,84003,Convenience Grocery,100,Centerlines.StatewideRoads,R77023,433731.404585024,4469410.58929917,433731.4046,4469410.5893
3253,COSTCO WHOLESALE,735,573 W 100 N,WEST BOUNTIFUL,84087,Supermarket,100,AddressPoints.AddressGrid,R77071,424626.453885281,4526912.69679372,424626.4539,4526912.6968
3254,GNC,3956,1760 W 12600 S,RIVERTON,84065,Health Food,100,Centerlines.StatewideRoads,R77145,420383.783681637,4486169.70394162,420383.7837,4486169.7039
3255,FAMILY DOLLAR INC,27063,742 S MAIN ST,BLANDING,84511,Convenience Grocery,100,AddressPoints.AddressGrid,R77223,634230.498987126,4164148.66038993,634230.499,4164148.6604
3256,THESINCLAIR ,,625 N MAIN ST,HILDALE,84784,Convenience Grocery,,Manually Placed,R77610,322060,4096807,322060,4096807
3257,HOLLADAY HEALTH & NUTRITION,,5518 S VAN WINKLE EXPY,MURRAY,84124,Health Food,100,AddressPoints.AddressGrid,R77640,428047.082244099,4500386.00387958,428047.0822,4500386.0039
3258,MERCADO 5 DE MAYO,,389 S 600 E,PROVO,84606,Specialty Grocery,100,AddressPoints.AddressGrid,R77714,444901.261852464,4453330.36874757,444901.2619,4453330.3687
3259,FAMILY DOLLAR INC,26847,449 E  BLVD,WENDOVER,84083,Convenience Grocery,90.9199981689453,Centerlines.StatewideRoads,R77729,243590.747917218,4513037.28587312,243590.7479,4513037.2859
3260,WALGREENS,9974,420 S MAIN ST,SPRINGVILLE,84663,Convenience Grocery,100,AddressPoints.AddressGrid,R77731,447935.133912141,4445771.21827309,447935.1339,4445771.2183
3261,THEVILLAGE MARKET,,702 S MAIN ST,MOAB,84532,Grocery Store,100,AddressPoints.AddressGrid,R77822,626385.993923541,4269202.0014442,626385.9939,4269202.0014
3262,JADE MARKET LC,,353 W 200 S,SALT LAKE CITY,84101,Grocery Store,100,Centerlines.StatewideRoads,R77823,423939.711040212,4513045.47395833,423939.711,4513045.474
3263,PACIFIC SEAS,,1151 S REDWOOD RD STE - 107,SALT LAKE CITY,84104,Grocery Store,90.9199981689453,AddressPoints.AddressGrid,R78166,420766.930914139,4510753.7666254,420766.9309,4510753.7666
3264,DOLLAR GENERAL,10461,1060 W 300 N,CLEARFIELD,84015,Convenience Grocery,100,AddressPoints.AddressGrid,R78225,412168.661769565,4552537.17413594,412168.6618,4552537.1741
3265,CARLS SUPER SAVER STORE,,3135 HARRISON BLVD,OGDEN,84403,Salvage Grocery,100,Centerlines.StatewideRoads,R78255,420460.964391232,4562180.33215406,420460.9644,4562180.3322
3266,WALGREENS,9681,102 N 1200 E,LEHI,84043,Convenience Grocery,100,AddressPoints.AddressGrid,R78263,429883.374143516,4471284.38832188,429883.3741,4471284.3883
3267,FENIX MARKET LLC,,4099 W 5415 S,KEARNS,84118,Grocery Store,100,Centerlines.StatewideRoads,R78457,416403.696088826,4500669.219803,416403.6961,4500669.2198
3268,FAMILY DOLLAR INC,27099,252 W MAIN ST,SANTAQUIN,84655,Convenience Grocery,100,AddressPoints.AddressGrid,R78609,432487.066833607,4425414.09581279,432487.0668,4425414.0958
3269,K & K AFRICAN MARKET LLC,,996 S REDWOOD RD -A,SALT LAKE CITY,84104,Grocery Store,90.9199981689453,AddressPoints.AddressGrid,R78764,420695.851566217,4511154.52857022,420695.8516,4511154.5286
3270,COSTCO WHOLESALE,733,198 N 1200 E,LEHI,84043,Supermarket,100,Centerlines.StatewideRoads,R78777,429731.54779734,4471433.11707686,429731.5478,4471433.1171
3271,GREEN TEA COMPANY,,10450 S STATE ST,SANDY,84070,Health Food,100,AddressPoints.AddressGrid,R78782,424228.831376945,4490571.82611299,424228.8314,4490571.8261
3272,FAMILY DOLLAR INC,27301,560 E MAIN ST,GRANTSVILLE,84029,Convenience Grocery,100,Centerlines.StatewideRoads,R78839,378226.307644306,4495298.32699551,378226.3076,4495298.327
3273,VINH LONG ORIENT MARKET,,119 W 7200 S,MIDVALE,84047,Specialty Grocery,100,AddressPoints.AddressGrid,R79028,424495.105710183,4496929.11537746,424495.1057,4496929.1154
3274,WALGREENS,10415,188 N MAIN ST,TOOELE,84074,Convenience Grocery,100,AddressPoints.AddressGrid,R79096,390089.37393117,4487819.14593063,390089.3739,4487819.1459
3275,JAPAN SAGE MARKET,,1515 S MAIN ST,SALT LAKE CITY,84115,Specialty Grocery,100,AddressPoints.AddressGrid,R79169,424793.02500627,4509899.05330305,424793.025,4509899.0533
3276,FABULOUS FREDDYS,,806 N BLUFF ST,SAINT GEORGE,84770,Convenience Grocery,100,AddressPoints.AddressGrid,R79221,269121.540207583,4111566.67034679,269121.5402,4111566.6703
3277,ZULES CANDY STORE,,3952 W 3500 S,WEST VALLEY CITY,84120,Retail,100,AddressPoints.AddressGrid,R79330,416751.410666831,4505729.55448596,416751.4107,4505729.5545
3278,ANAYAS MARKET,,4122 S 4000 W,WEST VALLEY CITY,84120,Grocery Store,100,AddressPoints.AddressGrid,R79408,416590.944392393,4503883.02983349,416590.9444,4503883.0298
3279,HARMONS AT THE DISTRICT,86,11453 S PKWY PLAZA DR,SOUTH JORDAN,84095,Supermarket,100,AddressPoints.AddressGrid,R79416,417188.725119331,4488519.24722706,417188.7251,4488519.2472
3280,LOS PRIMOS MARKET,,45 W 500 N,LOGAN,84321,Grocery Store,100,AddressPoints.AddressGrid,R79444,430488.331719705,4621376.96919392,430488.3317,4621376.9692
3281,FOOD MART CHEVRON,,3140 S REDWOOD RD,WEST VALLEY CITY,84119,Convenience Grocery,100,AddressPoints.AddressGrid,R79447,420609.715453086,4506211.41970006,420609.7155,4506211.4197
3282,LOS DOS COMPADRES MARKET,,330 E STATE ST,PLEASANT GROVE,84062,Grocery Store,100,Centerlines.StatewideRoads,R79477,437527.290565575,4467429.29837454,437527.2906,4467429.2984
3283,DOLLAR TREE,3522,1421 W TURF FARM WAY,PAYSON,84651,Convenience Grocery,100,AddressPoints.AddressGrid,R79596,435309.622101114,4431203.02873615,435309.6221,4431203.0287
3284,DOLLAR GENERAL,10677,667 MONROE BLVD,OGDEN,84404,Convenience Grocery,100,AddressPoints.AddressGrid,R79668,420037.892505837,4567197.60463256,420037.8925,4567197.6046
3285,WAL-MART SUPERCENTER,3848,2228 W 1700 S,SYRACUSE,84075,Supermarket,100,AddressPoints.AddressGrid,R79695,410232.673618954,4549275.12560525,410232.6736,4549275.1256
3286,SHIRLYNS NATURAL FOODS,,183 E 12300 S STE K1,DRAPER,84020,Health Food,100,AddressPoints.AddressGrid,R79721,424999.086200783,4486716.71645166,424999.0862,4486716.7165
3287,ALVEYS CANDIES,,1300 N MAIN ST,LOGAN,84321,Convenience Grocery,100,AddressPoints.AddressGrid,R79737,430808.275798558,4622991.12681937,430808.2758,4622991.1268
3288,DOLLAR TREE,3529,304 N MARKET PLACE DR,CENTERVILLE,84014,Convenience Grocery,100,AddressPoints.AddressGrid,R79744,425349.742460914,4530224.30804669,425349.7425,4530224.308
3289,LA CANTERA LLC,,3078 W 7800 S UNIT 1B,WEST JORDAN,84084,Grocery Store,100,AddressPoints.AddressGrid,R79818,418306.83089753,4495899.06696398,418306.8309,4495899.067
3290,GREEN TEA COMPANY,,6191 S STATE ST,MURRAY,84107,Retail,100,AddressPoints.AddressGrid,R79836,424965.130167176,4498756.06553905,424965.1302,4498756.0655
3291,MACEYS PROVIDENCE,0971,50 N HWY 165,PROVIDENCE,84332,Supermarket,100,AddressPoints.AddressGrid,R80020,430813.531396216,4617795.61700158,430813.5314,4617795.617
3292,CHEVRON TOP STOP C,,320 W 200 N,KAYSVILLE,84037,Convenience Grocery,100,AddressPoints.AddressGrid,R80044,420604.81486931,4543471.16376091,420604.8149,4543471.1638
3293,WAL-MART SUPERCENTER,5235,9151 S QUARRY BEND DR,SANDY,84094,Supermarket,,Manually Placed,R80077,427209,4493094,427209,4493094
3294,OCEAN MARKET,,115 W 9000 S,SANDY,84070,Supermarket,100,AddressPoints.AddressGrid,R80111,424281.575302045,4493275.98773154,424281.5753,4493275.9877
3295,ZION TRADING POST,,12120 W HIGHWAY 9,MOUNT CARMEL,84755,Convenience Grocery,,Manually Placed,R80127,350859,4121010,350859,4121010
3296,FAMILY DOLLAR INC,27399,835 S STATE ST,SALT LAKE CITY,84111,Convenience Grocery,100,Centerlines.StatewideRoads,R80229,425033.613192741,4511502.94623365,425033.6132,4511502.9462
3297,COSTCO WHOLESALE,622,3747 S 2700 W,WEST VALLEY CITY,84119,Supermarket,100,Centerlines.StatewideRoads,R80458,419070.477453464,4504856.82703231,419070.4775,4504856.827
3298,RANCHO MARKETS,,2470 S REDWOOD RD STE 100,WEST VALLEY CITY,84119,Grocery Store,100,AddressPoints.AddressGrid,R80517,420565.944329814,4507831.42461297,420565.9443,4507831.4246
3299,CONOCO KEVINS,,1434 N 300 W,BEAVER,84713,Convenience Grocery,100,AddressPoints.AddressGrid,R8053,356016.763510964,4239721.83667297,356016.7635,4239721.8367
3300,SINCLAIR- COLEMANS,,355 E 300 S,KANAB,84741,Convenience Grocery,100,Centerlines.StatewideRoads,R8056,364763.11200157,4100736.7632844,364763.112,4100736.7633
3301,SINCLAIR - ROGERS,,15 E STATE ST,ORDERVILLE,84758,Convenience Grocery,100,AddressPoints.AddressGrid,R8058,354744.122278465,4126786.56095431,354744.1223,4126786.561
3302,LDS NORTH LOGAN BISHOPS,,165 E 2200 N,NORTH LOGAN,84341,Grocery Store,100,AddressPoints.AddressGrid,R80756,431084.734157456,4624897.45390823,431084.7342,4624897.4539
3303,FAMILY DOLLAR INC,27608,920 N MAIN ST,BEAVER,84713,Convenience Grocery,100,AddressPoints.AddressGrid,R80808,356505.666353185,4238899.34608116,356505.6664,4238899.3461
3304,DOLLAR TREE,3693,5647 S HARRISON BLVD,OGDEN,84403,Convenience Grocery,92.4300003051758,Centerlines.StatewideRoads,R80914,421128.570110258,4556991.11622528,421128.5701,4556991.1162
3305,DOLLAR GENERAL STORE,10985,385 N MAIN ST,NEPHI,84648,Convenience Grocery,100,AddressPoints.AddressGrid,R81035,428269.731636251,4396331.75542053,428269.7316,4396331.7554
3306,TARGET STORE T,,7779 S JORDAN LANDING BLVD,WEST JORDAN,84084,Grocery Store,100,AddressPoints.AddressGrid,R81048,416770.282091003,4495956.83677188,416770.2821,4495956.8368
3307,EL CENTENARIO MARKET,,2737 S REDWOOD RD,WEST VALLEY CITY,84119,Grocery Store,100,AddressPoints.AddressGrid,R81072,420708.903547155,4507199.39548805,420708.9035,4507199.3955
3308,HFK`S POLYNESIAN FOOD STORE,,5490 S 4220 W,KEARNS,84118,Specialty Grocery,100,AddressPoints.AddressGrid,R81104,416118.226006535,4500579.6952767,416118.226,4500579.6953
3309,FAMILY CONNECTION,,875 E HWY 193,LAYTON,84041,Salvage Grocery,100,Centerlines.StatewideRoads,R81108,420270.582227372,4550577.08365209,420270.5822,4550577.0837
3310,SOUTHWAY TRADING LLC,,651 S MAIN,BLANDING,84511,Grocery Store,90.9199981689453,Centerlines.StatewideRoads,R81175,634274.880362063,4164305.91732066,634274.8804,4164305.9173
3311,FAMILY DOLLAR INC,27555,1085 S HIGHWAY 89,MOUNT PLEASANT,84647,Convenience Grocery,93.3399963378906,Centerlines.StatewideRoads,R81176,445934.836751317,4348772.68184789,445934.8368,4348772.6818
3312,KWICK STOP,2,630 21ST ST,OGDEN,84401,Convenience Grocery,100,AddressPoints.AddressGrid,R81238,419232.414736109,4564635.8175026,419232.4147,4564635.8175
3313,MANZANITA MARKET,,1437 W 1000 N,SALT LAKE CITY,84116,Convenience Grocery,100,Centerlines.StatewideRoads,R81245,421341.162606025,4515967.59485307,421341.1626,4515967.5949
3314,IKEA,,67 W IKEA WAY,DRAPER,84020,Convenience Grocery,100,AddressPoints.AddressGrid,R81734,424326.75255873,4484579.84613258,424326.7526,4484579.8461
3315,TIGER MART,,2717 WASHINGTON BLVD,OGDEN,84401,Convenience Grocery,100,AddressPoints.AddressGrid,R81791,418618.811527747,4563188.3493361,418618.8115,4563188.3493
3316,WAL-MART SUPERCENTER,3366,221 W PARRISH LN,CENTERVILLE,84014,Supermarket,100,AddressPoints.AddressGrid,R81848,425589.084466553,4530201.26694967,425589.0845,4530201.2669
3317,LA PEQUENITA MARKET,,1106 S STATE ST,OREM,84097,Specialty Grocery,100,AddressPoints.AddressGrid,R82091,441638.565943518,4458716.19385007,441638.5659,4458716.1939
3318,HANDY PANTRY,,1252 W 400 S,SALT LAKE CITY,84104,Grocery Store,100,AddressPoints.AddressGrid,R82115,421734.204520096,4512621.85663091,421734.2045,4512621.8566
3319,DOLLAR GENERAL STORE,10984,835 S HWY 191,MOAB,84532,Convenience Grocery,100,Centerlines.StatewideRoads,R82305,626642.436991854,4268970.7723396,626642.437,4268970.7723
3320,OVERSEAS GROCERY,,1465 S STATE ST - 8,SALT LAKE CITY,84115,Convenience Grocery,90.9199981689453,AddressPoints.AddressGrid,R82406,425050.70243473,4509995.44305241,425050.7024,4509995.4431
3321,DOLLAR GENERAL STORE,11120,454 E MAIN ST,PRICE,84501,Convenience Grocery,100,AddressPoints.AddressGrid,R82615,516966.504206059,4383281.11796694,516966.5042,4383281.118
3322,DOLLAR TREE,03696,7046 S REDWOOD RD,WEST JORDAN,84084,Convenience Grocery,100,AddressPoints.AddressGrid,R82698,420474.065345071,4497352.27800209,420474.0653,4497352.278
3323,DOLLAR GENERAL,11114,175 E MAIN ST,DELTA,84624,Convenience Grocery,100,Centerlines.StatewideRoads,R82713,364656.781525375,4357067.89485832,364656.7815,4357067.8949
3324,TARGET STORE T,,11525 S PKWY PLAZA DR,SOUTH JORDAN,84095,Grocery Store,100,AddressPoints.AddressGrid,R82715,417186.226100047,4488375.32738392,417186.2261,4488375.3274
3325,GOOD EARTH NATURAL FOODS,,336 W MAIN ST,AMERICAN FORK,84003,Grocery Store,100,AddressPoints.AddressGrid,R82861,431467.4251996,4469948.35970889,431467.4252,4469948.3597
3326,ERMANOS,,1500 W 3500 S,WEST VALLEY CITY,84119,Specialty Grocery,100,AddressPoints.AddressGrid,R82868,421015.65642394,4505619.27742889,421015.6564,4505619.2774
3327,JUNCTION GENERAL STORE LLC,,70 S MAIN,JUNCTION,84740,Grocery Store,90.9199981689453,AddressPoints.AddressGrid,R82884,393215.904613919,4232700.50438474,393215.9046,4232700.5044
3328,WALGREENS,11150,850 S STATE ST,OREM,84097,Convenience Grocery,100,AddressPoints.AddressGrid,R82957,441432.525632175,4459262.60894109,441432.5256,4459262.6089
3329,WALGREENS,11523,560 S MAIN ST,HEBER CITY,84032,Convenience Grocery,100,Centerlines.StatewideRoads,R82959,464943.276317131,4483419.62081201,464943.2763,4483419.6208
3330,HEALTHY ME HEALTH FOODS LLC,,1735 E SKYLINE DR STE 2,SOUTH OGDEN,84405,Health Food,100,AddressPoints.AddressGrid,R82969,421382.023788592,4555966.61519229,421382.0238,4555966.6152
3331,DOLLAR TREE,3861,885 S MAIN ST,SMITHFIELD,84335,Convenience Grocery,100,AddressPoints.AddressGrid,R83053,430742.354593503,4630023.83347392,430742.3546,4630023.8335
3332,RANCHO MARKETS,,4071 W 5415 S,KEARNS,84118,Supermarket,100,AddressPoints.AddressGrid,R83056,416426.23187349,4500602.79902322,416426.2319,4500602.799
3333,WALGREENS,10820,2555 N 400 E,NORTH OGDEN,84414,Convenience Grocery,100,Centerlines.StatewideRoads,R83427,418889.083103742,4572972.94077299,418889.0831,4572972.9408
3334,WALGREENS,11524,5627 W 13400 S,HERRIMAN,84065,Convenience Grocery,100,AddressPoints.AddressGrid,R83728,413148.583615183,4484591.97925406,413148.5836,4484591.9793
3335,DOLLAR TREE,3779,4934 S 900 W STE A,RIVERDALE,84405,Convenience Grocery,100,Centerlines.StatewideRoads,R83826,416170.507276607,4558508.39962412,416170.5073,4558508.3996
3336,WALGREENS,11337,1948 W CROSS HOLLOW RD,CEDAR CITY,84720,Convenience Grocery,100,Centerlines.StatewideRoads,R83996,315798.692941632,4169708.57320063,315798.6929,4169708.5732
3337,HAWAIIAN HUT,,1810 W 3500 S,WEST VALLEY CITY,84119,Convenience Grocery,100,AddressPoints.AddressGrid,R84107,420502.403806082,4505538.5430956,420502.4038,4505538.5431
3338,HARMONS BANGERTER CROSSING,16,125 E 13800 S,DRAPER,84020,Supermarket,100,AddressPoints.AddressGrid,R84142,424809.996062017,4483836.81600071,424809.9961,4483836.816
3339,WAL-MART SUPERCENTER,3620,13502 S HAMILTON VIEW RD,RIVERTON,84065,Supermarket,100,AddressPoints.AddressGrid,R84144,417167.201532633,4484313.05668116,417167.2015,4484313.0567
3340,WALGREENS,11734,1315 N STATE ST,PROVO,84604,Convenience Grocery,100,AddressPoints.AddressGrid,R84178,443132.540928492,4455900.62748329,443132.5409,4455900.6275
3341,GRANGER COMMUNITY CHURCH,,3232 W 4100 S,WEST VALLEY CITY,84119,Salvage Grocery,100,AddressPoints.AddressGrid,R84254,418187.205141578,4503967.4256825,418187.2051,4503967.4257
3342,SUNRISE SOLUTIONS,,4130 S REDWOOD RD,TAYLORSVILLE,84123,Health Food,100,AddressPoints.AddressGrid,R84255,420614.14268502,4503806.60439418,420614.1427,4503806.6044
3343,WALGREENS,12639,4690 HOLLADAY BLVD,SALT LAKE CITY,84117,Convenience Grocery,100,AddressPoints.AddressGrid,R84436,430340.263086894,4502218.90574449,430340.2631,4502218.9057
3344,WALGREENS,10104,1410 N REDWOOD RD,SARATOGA SPRINGS,84045,Convenience Grocery,100,AddressPoints.AddressGrid,R84605,422298.091862935,4471222.22608733,422298.0919,4471222.2261
3345,QUETZAL IMPORTS,,580 W 500 N,SALT LAKE CITY,84116,Convenience Grocery,100,AddressPoints.AddressGrid,R84610,423385.924006416,4514780.71692748,423385.924,4514780.7169
3346,DOLLAR TREE,3869,1107 W 1700 S,SYRACUSE,84075,Convenience Grocery,100,Centerlines.StatewideRoads,R84737,411968.082113217,4549168.17045711,411968.0821,4549168.1705
3347,MINIATURE MARKET EXPRESS,,310 E 3900 S,SALT LAKE CITY,84107,Convenience Grocery,100,AddressPoints.AddressGrid,R84987,425439.143309543,4504353.21439478,425439.1433,4504353.2144
3348,SPROUTS FARMERS MARKET,,6284 S STATE ST,MURRAY,84107,Supermarket,100,AddressPoints.AddressGrid,R85141,424714.274574085,4498565.25601933,424714.2746,4498565.256
3349,LEEDS MARKET,,261 N MAIN,LEEDS,84746,Grocery Store,90.9199981689453,AddressPoints.AddressGrid,R85150,290780.55425979,4124089.31166486,290780.5543,4124089.3117
3350,EL MEXICANO MARKET,,560 N STATE ST,OREM,84057,Supermarket,100,Centerlines.StatewideRoads,R85282,440572.379823081,4462124.3548956,440572.3798,4462124.3549
3351,SAMS CLUB,4718,11278 S JORDAN GATEWAY,SOUTH JORDAN,84095,Supermarket,100,AddressPoints.AddressGrid,R85284,423692.662961089,4488893.64765091,423692.663,4488893.6477
3352,WALGREENS,10731,2330 E FORT UNION BLVD,COTTONWOOD HEIGHTS,84121,Convenience Grocery,100,AddressPoints.AddressGrid,R85479,430291.591379846,4497301.3091464,430291.5914,4497301.3091
3353,SPROUTS FARMERS MARKET,,1375 S STATE ST,OREM,84097,Supermarket,100,Centerlines.StatewideRoads,R85649,441865.077839744,4458176.16671644,441865.0778,4458176.1667
3354,DOLLAR TREE,3879,4 S HWY 165,PROVIDENCE,84332,Convenience Grocery,100,AddressPoints.AddressGrid,R85650,430793.532280891,4617694.34755161,430793.5323,4617694.3476
3355,GNC,1786,2885 S 5600 W STE E,WEST VALLEY CITY,84120,Health Food,100,AddressPoints.AddressGrid,R85695,413462.673445519,4506809.21434911,413462.6734,4506809.2143
3356,WALGREENS,11673,1235 W STATE ST,HURRICANE,84737,Convenience Grocery,100,AddressPoints.AddressGrid,R85697,294842.532598179,4116896.25011277,294842.5326,4116896.2501
3357,CASH N CARRY,,8750 S 700 E,SANDY,84070,Specialty Grocery,100,AddressPoints.AddressGrid,R85762,426150.855648216,4493892.17349186,426150.8556,4493892.1735
3358,EL CENTRO DE OREM,,845 N 100 W STE 108,OREM,84057,Grocery Store,100,AddressPoints.AddressGrid,R85920,440619.815324743,4462700.91838342,440619.8153,4462700.9184
3359,SMITHS MARKET PLACE,119,1550 E 3500 N,LEHI,84043,Supermarket,100,Centerlines.StatewideRoads,R86046,430066.437635609,4475993.28773766,430066.4376,4475993.2877
3360,MERCADO PLAZA DEL SOL,,3952 W 3500 S,WEST VALLEY CITY,84120,Specialty Grocery,100,AddressPoints.AddressGrid,R86067,416751.410666831,4505729.55448596,416751.4107,4505729.5545
3361,DULCERIA LA PRINCESA,,5448 S 4220 W,KEARNS,84118,Specialty Grocery,100,AddressPoints.AddressGrid,R86092,416127.720887601,4500630.74766507,416127.7209,4500630.7477
3362,RED MESA EXPRESS 517,,516 HIGHWAY 162,ANETH,84510,Convenience Grocery,,Manually Placed,R86148,660965,4120334,660965,4120334
3363,EL PUEBLO MARKET,,1392 TURF FARM RD - 7,PAYSON,84651,Specialty Grocery,90.9199981689453,AddressPoints.AddressGrid,R86278,435374.951616366,4431294.31603109,435374.9516,4431294.316
3364,RANCHO MARKETS,,1700 N STATE ST - 13,PROVO,84604,Specialty Grocery,90.9199981689453,AddressPoints.AddressGrid,R86506,442993.445097509,4456457.97839407,442993.4451,4456457.9784
3365,WAL-MART SUPERCENTER,4689,4689 CEDAR HILLS DR,CEDAR HILLS,84062,Supermarket,100,AddressPoints.AddressGrid,R86561,434635.332402185,4474280.95607977,434635.3324,4474280.9561
3366,WAL-MART SUPERCENTER,4438,136 W CROSSROADS BLVD,SARATOGA SPRINGS,84045,Supermarket,,Manually Placed,R86562,421947,4471347,421947,4471347
3367,WAL-MART STORES INC,4678,240 N 3400 W,HURRICANE,84737,Supermarket,100,Centerlines.StatewideRoads,R86716,289882.03429959,4116757.50729329,289882.0343,4116757.5073
3368,WALGREENS,12480,1316 W HIGHWAY 40,VERNAL,84078,Convenience Grocery,100,AddressPoints.AddressGrid,R86729,622635.446291906,4478507.88361298,622635.4463,4478507.8836
3369,FAMILY DOLLAR INC,28044,315 S MAIN ST,FILLMORE,84631,Convenience Grocery,100,AddressPoints.AddressGrid,R86747,385375.054104997,4313380.35348251,385375.0541,4313380.3535
3370,FOSTERS SUPERMARKET,,BRYCE CANYON,BRYCE CANYON CITY,84717,Grocery Store,,Manually Placed,R8681,397951,4170202,397951,4170202
3371,GLOBAL SUPERMARKET,,1160 S MAIN ST,SALT LAKE CITY,84101,Specialty Grocery,100,AddressPoints.AddressGrid,R86819,424744.624780425,4510686.72469025,424744.6248,4510686.7247
3372,WALGREENS,11674,1849 W SUNSET BLVD,SAINT GEORGE,84770,Convenience Grocery,100,AddressPoints.AddressGrid,R86844,266945.22158131,4111674.50407303,266945.2216,4111674.5041
3373,GNC,7395,11565 S PKWY PLAZA,SOUTH JORDAN,84095,Health Food,90.9199981689453,Centerlines.StatewideRoads,R86884,417065.109831102,4488310.01221298,417065.1098,4488310.0122
3374,WAL-MART SUPERCENTER,4272,1150 S 100 W,LOGAN,84321,Supermarket,100,AddressPoints.AddressGrid,R86984,430451.180561165,4618148.54952718,430451.1806,4618148.5495
3375,LAGOON RV PARK &,,135 N LAGOON DR,FARMINGTON,84025,Convenience Grocery,100,AddressPoints.AddressGrid,R87125,424587.061266548,4537230.84808986,424587.0613,4537230.8481
3376,SMOKERS CONNECTION,,1661 W 4100 S,TAYLORSVILLE,84123,Convenience Grocery,100,Centerlines.StatewideRoads,R87300,420754.143868469,4503883.94477802,420754.1439,4503883.9448
3377,REAL FOODS MARKET,,475 W 910 S,HEBER CITY,84032,Health Food,100,Centerlines.StatewideRoads,R87498,464277.656562774,4482884.08209318,464277.6566,4482884.0821
3378,ZACATECAS MARKET,,2 N MAIN,TOOELE,84074,Specialty Grocery,90.9199981689453,AddressPoints.AddressGrid,R87505,390053.364385895,4487485.42592096,390053.3644,4487485.4259
3379,HANKSVILLE SHELL & C STORE,,240 E HWY 24,HANKSVILLE,84734,Convenience Grocery,93.3399963378906,Centerlines.StatewideRoads,R87897,526040.190861568,4247539.66604212,526040.1909,4247539.666
3380,SMITHS MARKET PLACE,444,555 S 200 W,BOUNTIFUL,84010,Supermarket,100,AddressPoints.AddressGrid,R8808,425452.522460136,4526049.61628145,425452.5225,4526049.6163
3381,SMITHS MARKET PLACE,477,750 N MAIN ST,LOGAN,84321,Supermarket,100,AddressPoints.AddressGrid,R8813,430759.611052567,4621867.91858675,430759.6111,4621867.9186
3382,NATURAL GROCERS,,624 W TELEGRAPH ST,WASHINGTON,84870,Grocery Store,,Manually Placed,R88148,276075,4112325,276075,4112325
3383,SMITHS MARKETPLACE,475,3215 S VALLEY AVE,SALT LAKE CITY,84109,Supermarket,90.9199981689453,AddressPoints.AddressGrid,R8815,432478.783176372,4505853.73973392,432478.7832,4505853.7397
3384,WINCO FOODS,75,2572 S 5600 W,WEST VALLEY CITY,84120,Supermarket,100,AddressPoints.AddressGrid,R88275,413311.771662712,4507497.03634188,413311.7717,4507497.0363
3385,WINCO FOODS,73,7020 S 700 W,MIDVALE,84047,Supermarket,100,AddressPoints.AddressGrid,R88276,422965.872974037,4497434.64818366,422965.873,4497434.6482
3386,WALGREENS,12294,176 E 13800 S,DRAPER,84020,Convenience Grocery,100,AddressPoints.AddressGrid,R88354,424960.521947773,4483650.07869904,424960.5219,4483650.0787
3387,WALGREENS,10552,999 N MAIN ST,LOGAN,84321,Convenience Grocery,100,AddressPoints.AddressGrid,R88588,430554.740198715,4622326.48514475,430554.7402,4622326.4851
3388,WALGREENS,13011,132 N MAIN ST,PAYSON,84651,Convenience Grocery,100,AddressPoints.AddressGrid,R88589,437579.970678589,4433007.07702186,437579.9707,4433007.077
3389,RANCHO MARKETS,,8177 W 3500 S,MAGNA,84044,Supermarket,100,AddressPoints.AddressGrid,R88939,408226.573707276,4505605.88435618,408226.5737,4505605.8844
3390,DOLLAR TREE,4022,1458 W COMMERCE DR STE 100,SARATOGA SPRINGS,84045,Convenience Grocery,92.4300003051758,Centerlines.StatewideRoads,R88998,422544.441611815,4471279.83385766,422544.4416,4471279.8339
3391,WINCO FOODS,79,205 W 12TH ST,OGDEN,84404,Supermarket,100,AddressPoints.AddressGrid,R88999,417779.614400333,4566101.46794867,417779.6144,4566101.4679
3392,WINCO FOODS,78,6060 S 3500 W,ROY,84067,Supermarket,100,AddressPoints.AddressGrid,R89001,410712.742880477,4556287.13703883,410712.7429,4556287.137
3393,WINCO FOODS,76,895 N 980 W,OREM,84057,Supermarket,100,AddressPoints.AddressGrid,R89003,438771.870616745,4462879.21888461,438771.8706,4462879.2189
3394,BYU,,BYU CAMPUS,PROVO,84602,Grocery Store,,Manually Placed,R89228,444487,4455983,444487,4455983
3395,BRIAN HEAD GENERAL STORE,,259 S VILLAGE WAY,BRIAN HEAD,84719,Convenience Grocery,100,AddressPoints.AddressGrid,R89293,337099.521665581,4173322.32350374,337099.5217,4173322.3235
3396,ANAYAS MARKET,,150 N WASHINGTON BLVD,OGDEN,84404,Specialty Grocery,100,AddressPoints.AddressGrid,R89422,418821.566220423,4568302.51920869,418821.5662,4568302.5192
3397,GNC,6340,1169 W HWY 40 -A,VERNAL,84078,Health Food,100,AddressPoints.AddressGrid,R89428,622974.964861637,4478641.59854729,622974.9649,4478641.5985
3398,7TH DAY ADVENTIST FOOD PANTRY,,2185 TAYLOR AVE,OGDEN,84404,Salvage Grocery,100,AddressPoints.AddressGrid,R89804,421222.824426437,4564366.38981076,421222.8244,4564366.3898
3399,SOL FOODS SUPERMARKET,,995 ZION PARK BLVD,SPRINGDALE,84767,Grocery Store,100,AddressPoints.AddressGrid,R89843,322438.46467388,4117585.64530431,322438.4647,4117585.6453
3400,LA ESTRELLITA,,1870 W 3500 S UNIT C,WEST VALLEY CITY,84119,Specialty Grocery,100,AddressPoints.AddressGrid,R90640,420411.624668266,4505619.56979326,420411.6247,4505619.5698
3401,VEYO MERCANTILE CO,,13 N MAIN ST,VEYO,84782,Convenience Grocery,100,AddressPoints.AddressGrid,R90650,261358.785791534,4135826.77365396,261358.7858,4135826.7737
3402,PEREZ MARKET,,2774 W 3500 S,WEST VALLEY CITY,84119,Specialty Grocery,100,AddressPoints.AddressGrid,R91028,418931.140210789,4505582.78757072,418931.1402,4505582.7876
3403,RED MOUNTAIN MARKET,,374 S 200 E,IVINS,84738,Grocery Store,92.4300003051758,Centerlines.StatewideRoads,R91029,261652.669016748,4116155.07995203,261652.669,4116155.08
3404,LAPOINT STORE INC,,10963 E 7000 N,LAPOINT,84039,Convenience Grocery,100,Centerlines.StatewideRoads,R91679,602345.726663975,4473283.8002161,602345.7267,4473283.8002
3405,MARISAS FASHIONS & MARKET,2,67 W 1700 S,SALT LAKE CITY,84115,Grocery Store,100,AddressPoints.AddressGrid,R92242,424577.434125408,4509539.70964441,424577.4341,4509539.7096
3406,SUNSHINE NUTRITION,,111 W 535 S,CEDAR CITY,84720,Health Food,100,AddressPoints.AddressGrid,R92302,318014.956905108,4170949.56386304,318014.9569,4170949.5639
3407,AFRICAN DISCOUNT MARKET,,3232 S 400 E STE 500,SALT LAKE CITY,84115,Specialty Grocery,100,AddressPoints.AddressGrid,R92418,425592.265669374,4505886.47758264,425592.2657,4505886.4776
3408,FAMILY DOLLAR INC,28251,165 W 200 S,KAMAS,84036,Convenience Grocery,100,Centerlines.StatewideRoads,R92499,475969.865183807,4498806.68656428,475969.8652,4498806.6866
3409,GNC,772,1400 N HILLFIELD RD STE 1037,LAYTON,84041,Health Food,98.7799987792969,Centerlines.StatewideRoads,R9255,418242.911190107,4548133.56948472,418242.9112,4548133.5695
3410,WALGREENS, 12452,2576 S HIGHWAY 89,WOODS CROSS,84010,Convenience Grocery,100,Centerlines.StatewideRoads,R92806,424464.15301473,4523814.40207349,424464.153,4523814.4021
3411,FAMILY DOLLAR INC,28292,105 S MAIN ST,DUCHESNE,84021,Convenience Grocery,100,Centerlines.StatewideRoads,R92938,585953.68490861,4461328.05294638,585953.6849,4461328.0529
3412,AFRICAN BOUTIQUE,,4152 S 1785 W,TAYLORSVILLE,84129,Grocery Store,,Manually Placed,R92985,420467,4503743,420467,4503743
3413,DOLLAR TREE,4524,3651 W MARKET CTR DR STE 300,RIVERTON,84065,Convenience Grocery,100,AddressPoints.AddressGrid,R93117,417083.863764215,4484872.25923297,417083.8638,4484872.2592
3414,TARGET STORE T,,1110 S 300 W,SALT LAKE CITY,84104,Grocery Store,100,AddressPoints.AddressGrid,R93168,423866.021112165,4510792.17773517,423866.0211,4510792.1777
3415,EAGLE POINT OPERATIONS LLC,,150 S W VILLAGE CIR,BEAVER,84713,Convenience Grocery,90.9199981689453,Centerlines.StatewideRoads,R93282,379050.338649977,4242269.5317524,379050.3386,4242269.5318
3416,DOLLAR TREE,2626,1360 N STATE ST,PROVO,84604,Convenience Grocery,100,AddressPoints.AddressGrid,R93308,443322.974551162,4455996.31416594,443322.9746,4455996.3142
3417,HARVEST MOON HEALTH FOODS,,1241 N MAIN,LAYTON,84041,Health Food,90.9199981689453,AddressPoints.AddressGrid,R93356,417172.993131641,4547867.34938292,417172.9931,4547867.3494
3418,NEWTON MARKET,,10 E MAIN,NEWTON,84327,Grocery Store,90.9199981689453,AddressPoints.AddressGrid,R93359,417980.162438098,4634949.25429951,417980.1624,4634949.2543
3419,GNC,154,368 N MEADOW LN STE C-4,AMERICAN FORK,84003,Health Food,90.9199981689453,Centerlines.StatewideRoads,R93720,430546.971818356,4470811.80085893,430546.9718,4470811.8009
3420,GNC,498,264 E 12300 S,DRAPER,84020,Health Food,100,AddressPoints.AddressGrid,R93726,425152.674951399,4486490.96938937,425152.675,4486490.9694
3421,PHILLIPS 66 DAL SOGLIO,,8370 S STATE ST,MIDVALE,84047,Convenience Grocery,100,AddressPoints.AddressGrid,R93727,424583.504166676,4494654.91733574,424583.5042,4494654.9173
3422,GONZALEZ MARKET,,1220 S REDWOOD RD,SALT LAKE CITY,84104,Grocery Store,100,AddressPoints.AddressGrid,R93785,420655.825491342,4510677.55697884,420655.8255,4510677.557
3423,MINIATURE MARKET EXPRESS,3,3984 W 3500 S,WEST VALLEY CITY,84120,Convenience Grocery,100,AddressPoints.AddressGrid,R93897,416671.26106229,4505583.42798791,416671.2611,4505583.428
3424,DIXIE NUTRITION,,406 W ST GEORGE BLVD,ST GEORGE,84770,Health Food,100,AddressPoints.AddressGrid,R93930,269677.582439746,4110256.04262897,269677.5824,4110256.0426
3425,EL BOLSON MARKET,,987 N MAIN STE 9,CEDAR CITY,84720,Grocery Store,90.9199981689453,AddressPoints.AddressGrid,R93945,318113.02426908,4173823.79105294,318113.0243,4173823.7911
3426,SPROUTS FARMERS MARKET,,216 S 700 E,SALT LAKE CITY,84102,Grocery Store,100,AddressPoints.AddressGrid,R94106,426355.573358825,4512969.63797471,426355.5734,4512969.638
3427,HARMONS STATION PARK STORE,,200 N STATION PKWY,FARMINGTON,84025,Supermarket,100,AddressPoints.AddressGrid,R94162,424010.852853704,4537383.39964306,424010.8529,4537383.3996
3428,WAL-MART STORES INC,3789,1959 WALL AVE,OGDEN,84401,Supermarket,100,AddressPoints.AddressGrid,R94163,417970.63275175,4564998.6556116,417970.6328,4564998.6556
3429,RANCHO MARKETS,,140 N 900 W,SALT LAKE CITY,84116,Grocery Store,100,AddressPoints.AddressGrid,R94169,422726.043694442,4513904.76542175,422726.0437,4513904.7654
3430,NEENAS MARKET,,47 S MAIN ST,COALVILLE,84017,Convenience Grocery,100,AddressPoints.AddressGrid,R94190,466509.063412001,4529456.69842432,466509.0634,4529456.6984
3431,SHOP N GO,,573 E 300 S,SALT LAKE CITY,84102,Convenience Grocery,100,AddressPoints.AddressGrid,R94407,426207.504726013,4512827.21475872,426207.5047,4512827.2148
3432,PATAGONIA INTERNATIONAL MARKET,,144 N MAIN ST,SPANISH FORK,84660,Specialty Grocery,100,AddressPoints.AddressGrid,R94467,444226.422230071,4440360.60484839,444226.4222,4440360.6048
3433,RANCHO MARKET,,905 E 26TH ST,OGDEN,84401,Specialty Grocery,100,AddressPoints.AddressGrid,R94514,419872.706635092,4563422.64457578,419872.7066,4563422.6446
3434,GLAZIERS FAMILY MARKET,,264 S 100 E,KANAB,84741,Grocery Store,100,AddressPoints.AddressGrid,R9475,364205.994014542,4100806.1717543,364205.994,4100806.1718
3435,SCHWANS HOME SERVICE INC,,1710 S 4490 W,SALT LAKE CITY,84104,Convenience Grocery,100,AddressPoints.AddressGrid,R95077,415641.240493042,4509601.64912514,415641.2405,4509601.6491
3436,VIDA Y SALUD,,427 E 3300 S STE A & B,SALT LAKE CITY,84115,Health Food,84.1800003051758,Centerlines.StatewideRoads,R95092,425934.29556446,4514607.78243164,425934.2956,4514607.7824
3437,BOTANICA SAN JORGE,,1755 W SEQUOIA VISTA - 3C,SALT LAKE CITY,84104,Specialty Grocery,90.9199981689453,AddressPoints.AddressGrid,R95093,420595.821184312,4510606.49851409,420595.8212,4510606.4985
3438,VIDA SANA,,3952 W 3500 S,WEST VALLEY CITY,84120,Health Food,100,AddressPoints.AddressGrid,R95094,416751.410666831,4505729.55448596,416751.4107,4505729.5545
3439,WAL-MART,4696,1274 S HIGHWAY 189,HEBER CITY,84032,Grocery Store,100,AddressPoints.AddressGrid,R95279,464508.184292697,4482595.11666435,464508.1843,4482595.1167
3440,BLACK CHERRY MARKET,,4346 S 900 E,SALT LAKE CITY,84124,Specialty Grocery,100,AddressPoints.AddressGrid,R95320,426830.561049102,4503256.63916434,426830.561,4503256.6392
3441,LA PALMITA,,715 S 900 W STE D2,SALT LAKE CITY,84104,Convenience Grocery,100,AddressPoints.AddressGrid,R95659,422634.324813998,4511817.80587777,422634.3248,4511817.8059
3442,ARCE MARKET LA FAVORITA LLC,,53 N FORT LN,LAYTON,84041,Specialty Grocery,100,AddressPoints.AddressGrid,R95787,419486.486337303,4545954.98705807,419486.4863,4545954.9871
3443,IFA 65,,670 N MAIN,RICHFIELD,84701,Convenience Grocery,90.9199981689453,AddressPoints.AddressGrid,R95823,405881.240629183,4292631.86650367,405881.2406,4292631.8665
3444,BIG LOTS, 4583,370 E 200 S,SALT LAKE CITY,84115,Convenience Grocery,100,AddressPoints.AddressGrid,R96141,425704.185535781,4512965.06456059,425704.1855,4512965.0646
3445,BDO OUTLET,,986 W 2ND ST BLDG 12A,OGDEN,84404,Salvage Grocery,100,AddressPoints.AddressGrid,R96205,416061.61173402,4568197.94325689,416061.6117,4568197.9433
3446,SOELBERGS MARKET,,6727 N HWY 36,STANSBURY PARK,84074,Supermarket,100,Centerlines.StatewideRoads,R96516,390999.368645854,4501026.30298173,390999.3686,4501026.303
3447,GOULDING KOA CAMPGROUND,,2000 MAIN ST,MONUMENT VALLEY,84536,Convenience Grocery,100,Centerlines.StatewideRoads,R9654,634299.106743683,4162129.88865301,634299.1067,4162129.8887
3448,CONOCO ,,1000 MAIN ST,MONUMENT VALLEY,84536,Grocery Store,100,Centerlines.StatewideRoads,R9657,634237.617576658,4163726.17076535,634237.6176,4163726.1708
3449,SHIRLYNS NATURAL FOODS,,9186 S VILLAGE SHOP DR,SANDY,84094,Health Food,100,AddressPoints.AddressGrid,R96633,426942.216395362,4493007.00554733,426942.2164,4493007.0055
3450,FAMILY DOLLAR INC,28844,750 N REDWOOD RD,NORTH SALT LAKE,84054,Convenience Grocery,100,AddressPoints.AddressGrid,R96661,421674.972890338,4523074.39808384,421674.9729,4523074.3981
3451,BEST AFRICAN BOUTIQUE,,3197 S REDWOOD RD STE 7,SALT LAKE CITY,84119,Specialty Grocery,100,AddressPoints.AddressGrid,R96696,420738.160867624,4506102.82721866,420738.1609,4506102.8272
3452,EMERGENCY ESSENTIALS,,70 S 500 W,CENTERVILLE,84014,Retail,75.5899963378906,Centerlines.StatewideRoads,R96703,426644.13742676,4529152.03172317,426644.1374,4529152.0317
3453,ASIAN CITY INC,,1653 W 9000 S,WEST JORDAN,84088,Convenience Grocery,100,AddressPoints.AddressGrid,R96763,420669.754565399,4493218.13439097,420669.7546,4493218.1344
3454,STOKES FRESH MARKET,,795 N STATE RD 198,SALEM,84653,Supermarket,83.3499984741211,Centerlines.StatewideRoads,R96791,445413.004273244,4452757.59444944,445413.0043,4452757.5944
3455,HARMONS CITY CREEK,,135 E 100 S,SALT LAKE CITY,84111,Grocery Store,100,AddressPoints.AddressGrid,R96986,425113.804411903,4513316.06887354,425113.8044,4513316.0689
3456,RANCHO MARKET,,898 E 3300 S,SALT LAKE CITY,84106,Supermarket,100,AddressPoints.AddressGrid,R97082,426794.481893263,4505674.32546369,426794.4819,4505674.3255
3457,USA GAS,62511,1925 W SUNSET BLVD,SAINT GEORGE,84770,Convenience Grocery,100,AddressPoints.AddressGrid,R97115,266792.182754157,4111693.3128477,266792.1828,4111693.3128
3458,GNC,1730,981 S MAIN STE 270,LOGAN,84321,Health Food,90.9199981689453,AddressPoints.AddressGrid,R97422,430379.676588797,4618310.27575285,430379.6766,4618310.2758
3459,GNC,2016,7157 S BINGHAM JCT,MIDVALE,84047,Health Food,90.9199981689453,AddressPoints.AddressGrid,R97647,422826.220258534,4497117.17527986,422826.2203,4497117.1753
3460,BIG LOTS,4605,1030 N MAIN ST,LAYTON,84041,Convenience Grocery,100,AddressPoints.AddressGrid,R97712,417682.883559209,4547592.06744257,417682.8836,4547592.0674
3461,GNC,147,51 S MAIN ST STE 140A,SALT LAKE CITY,84101,Health Food,100,AddressPoints.AddressGrid,R97864,424821.105908191,4513376.90850735,424821.1059,4513376.9085
3462,MAISON CONFISERIE,,1059 E 900 S,SALT LAKE CITY,84105,Retail,100,AddressPoints.AddressGrid,R97908,427349.765370268,4511364.97523033,427349.7654,4511364.9752
3463,WALGREENS,15013,6016 S 1550 E,SOUTH OGDEN,84405,Convenience Grocery,100,AddressPoints.AddressGrid,R98046,421188.736132756,4556295.41373501,421188.7361,4556295.4137
3464,BOUNTIFUL COMM FOOD PANTRY,,480 E 150 N,BOUNTIFUL,84010,Salvage Grocery,100,AddressPoints.AddressGrid,R98089,426559.922133439,4526986.10809557,426559.9221,4526986.1081
3465,DOLLAR TREE,04865,1268 S HIGHWAY 189,HEBER CITY,84032,Convenience Grocery,100,AddressPoints.AddressGrid,R98201,464709.379708717,4482620.26696149,464709.3797,4482620.267
3466,DOLLAR TREE,04979,3656 W 9800 S,SOUTH JORDAN,84095,Convenience Grocery,100,AddressPoints.AddressGrid,R98417,417212.406633544,4491976.82487378,417212.4066,4491976.8249
3467,GREGORYS WHEAT SHOP,,930 S 500 W,BOUNTIFUL,84010,Health Food,100,Centerlines.StatewideRoads,R9845,424811.379636025,4525836.95609366,424811.3796,4525836.9561
3468,GRIFFIN MERCANTILE,,30 W MAIN,ESCALANTE,84726,Grocery Store,90.9199981689453,AddressPoints.AddressGrid,R9859,447091.446903285,4180516.83295558,447091.4469,4180516.833
3469,WESTGATE MARKETPLACE,,3000 CANYONS RESORT DR,PARK CITY,84098,Convenience Grocery,100,AddressPoints.AddressGrid,R98778,453128.555412983,4503888.11836579,453128.5554,4503888.1184
3470,EL TORITO CARNICERIA &,,703 N MAIN ST,SPRINGVILLE,84663,Specialty Grocery,100,Centerlines.StatewideRoads,R99051,447998.829528809,4447506.6037913,447998.8295,4447506.6038
3471,KALACHI`S MEAT MARKET,,SIXTH ST 208,WENDOVER,84083,Grocery Store,92.4300003051758,Centerlines.StatewideRoads,R99101,243702.167307097,4513917.00743002,243702.1673,4513917.0074
3472,DOLLAR TREE,04927,5508 S 900 E,MURRAY,84117,Convenience Grocery,100,AddressPoints.AddressGrid,R99195,426644.324943501,4500430.45718639,426644.3249,4500430.4572
3473,TARGET STORE T,,5518 W HIGH MARKET DR,WEST VALLEY CITY,84128,Grocery Store,100,AddressPoints.AddressGrid,R99311,413601.101015078,4507511.68936581,413601.101,4507511.6894
3474,RANCHO MARKET,,404 WASHINGTON BLVD,OGDEN,84404,Supermarket,100,AddressPoints.AddressGrid,R99421,418782.145757463,4567628.79335534,418782.1458,4567628.7934
3475,COSTCO WHOLESALE,1118,273 E 1000 N,SPANISH FORK,84660,Supermarket,100,AddressPoints.AddressGrid,R99538,444642.811746732,4441778.0499782,444642.8117,4441778.05
3476,WAL-MART,4208,2705 E PARLEYS WAY,SALT LAKE CITY,84109,Supermarket,100,AddressPoints.AddressGrid,R99637,431324.28499479,4507955.81869262,431324.285,4507955.8187
3477,FAMILY DOLLAR INC,29225,305 W HWY 40,ROOSEVELT,84066,Convenience Grocery,100,Centerlines.StatewideRoads,R99674,585250.458268088,4460458.82535518,585250.4583,4460458.8254
3478,REDWOOD FOOD PANTRY,,3060 S LESTER ST,WEST VALLEY CITY,84119,Grocery Store,100,AddressPoints.AddressGrid,R99895,420843.885393746,4506400.34973453,420843.8854,4506400.3497
3479,LOIOLA MARKET,,1771 S 900 W,SALT LAKE CITY,84104,Specialty Grocery,100,AddressPoints.AddressGrid,R99924,422629.974153686,4509375.90902391,422629.9742,4509375.909
3480,DOLLAR TREE,5018,3225 WASHINGTON BLVD STE A,OGDEN,84401,Convenience Grocery,100,AddressPoints.AddressGrid,R99945,418538.91252124,4562037.25511115,418538.9125,4562037.2551
